{
"type": "FeatureCollection",
"name": "pontes-travessias-campo_osm-bho-sgb_2026_pontos",
"crs": { "type": "name", "properties": { "name": "urn:ogc:def:crs:OGC:1.3:CRS84" } },
"features": [
{ "type": "Feature", "properties": { "codigo": "P01", "tipo": "ponte do OpenStreetMap", "via": "Rua Coronel Rodrigues Portugal", "bairro": "Cabo Luiz Quevedo", "latitude": -29.772378, "longitude": -57.097929, "menor_cota_cm": "952", "ordem_curso_dagua": "sem curso d'água mapeado a até 40 m", "comprimento_osm_m": 21.0, "ordem_visita": 15, "o_que_existe (ponte/bueiro/passagem molhada/nada)": "", "material": "", "extensao_aprox_m": "", "altura_tabuleiro_ou_via_sobre_leito_m": "", "largura_curso_dagua_m": "", "transitavel_veiculo (sim/nao)": "", "transitavel_a_pe (sim/nao)": "", "foto_arquivo": "", "data": "", "observacao": "" }, "geometry": { "type": "Point", "coordinates": [ -57.097929, -29.772378 ] } },
{ "type": "Feature", "properties": { "codigo": "P02", "tipo": "ponte do OpenStreetMap", "via": "(sem nome no OSM)", "bairro": "Jóquei Clube", "latitude": -29.754183, "longitude": -57.040373, "menor_cota_cm": "952", "ordem_curso_dagua": "sem curso d'água mapeado a até 40 m", "comprimento_osm_m": 54.0, "ordem_visita": 36, "o_que_existe (ponte/bueiro/passagem molhada/nada)": "", "material": "", "extensao_aprox_m": "", "altura_tabuleiro_ou_via_sobre_leito_m": "", "largura_curso_dagua_m": "", "transitavel_veiculo (sim/nao)": "", "transitavel_a_pe (sim/nao)": "", "foto_arquivo": "", "data": "", "observacao": "" }, "geometry": { "type": "Point", "coordinates": [ -57.040373, -29.754183 ] } },
{ "type": "Feature", "properties": { "codigo": "P03", "tipo": "ponte do OpenStreetMap", "via": "Rua General Canabarro", "bairro": "Alexandre Zachia", "latitude": -29.774216, "longitude": -57.095731, "menor_cota_cm": "1205", "ordem_curso_dagua": "sem curso d'água mapeado a até 40 m", "comprimento_osm_m": 12.0, "ordem_visita": 8, "o_que_existe (ponte/bueiro/passagem molhada/nada)": "", "material": "", "extensao_aprox_m": "", "altura_tabuleiro_ou_via_sobre_leito_m": "", "largura_curso_dagua_m": "", "transitavel_veiculo (sim/nao)": "", "transitavel_a_pe (sim/nao)": "", "foto_arquivo": "", "data": "", "observacao": "" }, "geometry": { "type": "Point", "coordinates": [ -57.095731, -29.774216 ] } },
{ "type": "Feature", "properties": { "codigo": "P04", "tipo": "ponte do OpenStreetMap", "via": "(sem nome no OSM)", "bairro": "(área rural)", "latitude": -29.798305, "longitude": -57.091966, "menor_cota_cm": "fora", "ordem_curso_dagua": "3", "comprimento_osm_m": 40.0, "ordem_visita": 2, "o_que_existe (ponte/bueiro/passagem molhada/nada)": "", "material": "", "extensao_aprox_m": "", "altura_tabuleiro_ou_via_sobre_leito_m": "", "largura_curso_dagua_m": "", "transitavel_veiculo (sim/nao)": "", "transitavel_a_pe (sim/nao)": "", "foto_arquivo": "", "data": "", "observacao": "" }, "geometry": { "type": "Point", "coordinates": [ -57.091966, -29.798305 ] } },
{ "type": "Feature", "properties": { "codigo": "P05", "tipo": "ponte do OpenStreetMap", "via": "(sem nome no OSM)", "bairro": "(área rural)", "latitude": -29.76565, "longitude": -57.033807, "menor_cota_cm": "fora", "ordem_curso_dagua": "sem curso d'água mapeado a até 40 m", "comprimento_osm_m": 39.0, "ordem_visita": 38, "o_que_existe (ponte/bueiro/passagem molhada/nada)": "", "material": "", "extensao_aprox_m": "", "altura_tabuleiro_ou_via_sobre_leito_m": "", "largura_curso_dagua_m": "", "transitavel_veiculo (sim/nao)": "", "transitavel_a_pe (sim/nao)": "", "foto_arquivo": "", "data": "", "observacao": "" }, "geometry": { "type": "Point", "coordinates": [ -57.033807, -29.76565 ] } },
{ "type": "Feature", "properties": { "codigo": "T01", "tipo": "travessia sem ponte marcada", "via": "(sem nome no OSM)", "bairro": "(área rural)", "latitude": -29.814366, "longitude": -57.126579, "menor_cota_cm": "1252", "ordem_curso_dagua": "4", "comprimento_osm_m": null, "ordem_visita": 1, "o_que_existe (ponte/bueiro/passagem molhada/nada)": "", "material": "", "extensao_aprox_m": "", "altura_tabuleiro_ou_via_sobre_leito_m": "", "largura_curso_dagua_m": "", "transitavel_veiculo (sim/nao)": "", "transitavel_a_pe (sim/nao)": "", "foto_arquivo": "", "data": "", "observacao": "" }, "geometry": { "type": "Point", "coordinates": [ -57.126579, -29.814366 ] } },
{ "type": "Feature", "properties": { "codigo": "T02", "tipo": "travessia sem ponte marcada", "via": "Rua General Estilac Leal", "bairro": "Cabo Luiz Quevedo", "latitude": -29.775392, "longitude": -57.107121, "menor_cota_cm": "fora", "ordem_curso_dagua": "4", "comprimento_osm_m": null, "ordem_visita": 21, "o_que_existe (ponte/bueiro/passagem molhada/nada)": "", "material": "", "extensao_aprox_m": "", "altura_tabuleiro_ou_via_sobre_leito_m": "", "largura_curso_dagua_m": "", "transitavel_veiculo (sim/nao)": "", "transitavel_a_pe (sim/nao)": "", "foto_arquivo": "", "data": "", "observacao": "" }, "geometry": { "type": "Point", "coordinates": [ -57.107121, -29.775392 ] } },
{ "type": "Feature", "properties": { "codigo": "T03", "tipo": "travessia sem ponte marcada", "via": "Rua Monteiro Lobato", "bairro": "Cabo Luiz Quevedo", "latitude": -29.774609, "longitude": -57.106883, "menor_cota_cm": "fora", "ordem_curso_dagua": "4", "comprimento_osm_m": null, "ordem_visita": 20, "o_que_existe (ponte/bueiro/passagem molhada/nada)": "", "material": "", "extensao_aprox_m": "", "altura_tabuleiro_ou_via_sobre_leito_m": "", "largura_curso_dagua_m": "", "transitavel_veiculo (sim/nao)": "", "transitavel_a_pe (sim/nao)": "", "foto_arquivo": "", "data": "", "observacao": "" }, "geometry": { "type": "Point", "coordinates": [ -57.106883, -29.774609 ] } },
{ "type": "Feature", "properties": { "codigo": "T04", "tipo": "travessia sem ponte marcada", "via": "Rua Padre Anchieta", "bairro": "Cabo Luiz Quevedo", "latitude": -29.773864, "longitude": -57.106572, "menor_cota_cm": "fora", "ordem_curso_dagua": "4", "comprimento_osm_m": null, "ordem_visita": 19, "o_que_existe (ponte/bueiro/passagem molhada/nada)": "", "material": "", "extensao_aprox_m": "", "altura_tabuleiro_ou_via_sobre_leito_m": "", "largura_curso_dagua_m": "", "transitavel_veiculo (sim/nao)": "", "transitavel_a_pe (sim/nao)": "", "foto_arquivo": "", "data": "", "observacao": "" }, "geometry": { "type": "Point", "coordinates": [ -57.106572, -29.773864 ] } },
{ "type": "Feature", "properties": { "codigo": "T05", "tipo": "travessia sem ponte marcada", "via": "Rua Coronel Rodrigues Portugal", "bairro": "Cabo Luiz Quevedo", "latitude": -29.772467, "longitude": -57.105592, "menor_cota_cm": "1205", "ordem_curso_dagua": "4", "comprimento_osm_m": null, "ordem_visita": 18, "o_que_existe (ponte/bueiro/passagem molhada/nada)": "", "material": "", "extensao_aprox_m": "", "altura_tabuleiro_ou_via_sobre_leito_m": "", "largura_curso_dagua_m": "", "transitavel_veiculo (sim/nao)": "", "transitavel_a_pe (sim/nao)": "", "foto_arquivo": "", "data": "", "observacao": "" }, "geometry": { "type": "Point", "coordinates": [ -57.105592, -29.772467 ] } },
{ "type": "Feature", "properties": { "codigo": "T06", "tipo": "travessia sem ponte marcada", "via": "Rua Cabo Luiz Quevedo", "bairro": "Cabo Luiz Quevedo", "latitude": -29.772414, "longitude": -57.09899, "menor_cota_cm": "1205", "ordem_curso_dagua": "3", "comprimento_osm_m": null, "ordem_visita": 17, "o_que_existe (ponte/bueiro/passagem molhada/nada)": "", "material": "", "extensao_aprox_m": "", "altura_tabuleiro_ou_via_sobre_leito_m": "", "largura_curso_dagua_m": "", "transitavel_veiculo (sim/nao)": "", "transitavel_a_pe (sim/nao)": "", "foto_arquivo": "", "data": "", "observacao": "" }, "geometry": { "type": "Point", "coordinates": [ -57.09899, -29.772414 ] } },
{ "type": "Feature", "properties": { "codigo": "T07", "tipo": "travessia sem ponte marcada", "via": "(sem nome no OSM)", "bairro": "Cabo Luiz Quevedo", "latitude": -29.772887, "longitude": -57.09844, "menor_cota_cm": "1205", "ordem_curso_dagua": "3", "comprimento_osm_m": null, "ordem_visita": 16, "o_que_existe (ponte/bueiro/passagem molhada/nada)": "", "material": "", "extensao_aprox_m": "", "altura_tabuleiro_ou_via_sobre_leito_m": "", "largura_curso_dagua_m": "", "transitavel_veiculo (sim/nao)": "", "transitavel_a_pe (sim/nao)": "", "foto_arquivo": "", "data": "", "observacao": "" }, "geometry": { "type": "Point", "coordinates": [ -57.09844, -29.772887 ] } },
{ "type": "Feature", "properties": { "codigo": "T08", "tipo": "travessia sem ponte marcada", "via": "Rua General Hipólito;Rua Marechal Floriano", "bairro": "Francisca Tarragô", "latitude": -29.764365, "longitude": -57.097444, "menor_cota_cm": "1205", "ordem_curso_dagua": "4", "comprimento_osm_m": null, "ordem_visita": 22, "o_que_existe (ponte/bueiro/passagem molhada/nada)": "", "material": "", "extensao_aprox_m": "", "altura_tabuleiro_ou_via_sobre_leito_m": "", "largura_curso_dagua_m": "", "transitavel_veiculo (sim/nao)": "", "transitavel_a_pe (sim/nao)": "", "foto_arquivo": "", "data": "", "observacao": "" }, "geometry": { "type": "Point", "coordinates": [ -57.097444, -29.764365 ] } },
{ "type": "Feature", "properties": { "codigo": "T09", "tipo": "travessia sem ponte marcada", "via": "Rua General Hipólito;Rua Marechal Floriano", "bairro": "Francisca Tarragô", "latitude": -29.764055, "longitude": -57.096395, "menor_cota_cm": "1205", "ordem_curso_dagua": "4", "comprimento_osm_m": null, "ordem_visita": 23, "o_que_existe (ponte/bueiro/passagem molhada/nada)": "", "material": "", "extensao_aprox_m": "", "altura_tabuleiro_ou_via_sobre_leito_m": "", "largura_curso_dagua_m": "", "transitavel_veiculo (sim/nao)": "", "transitavel_a_pe (sim/nao)": "", "foto_arquivo": "", "data": "", "observacao": "" }, "geometry": { "type": "Point", "coordinates": [ -57.096395, -29.764055 ] } },
{ "type": "Feature", "properties": { "codigo": "T10", "tipo": "travessia sem ponte marcada", "via": "Rua General Estilac Leal", "bairro": "Alexandre Zachia", "latitude": -29.77518, "longitude": -57.096251, "menor_cota_cm": "1205", "ordem_curso_dagua": "4", "comprimento_osm_m": null, "ordem_visita": 7, "o_que_existe (ponte/bueiro/passagem molhada/nada)": "", "material": "", "extensao_aprox_m": "", "altura_tabuleiro_ou_via_sobre_leito_m": "", "largura_curso_dagua_m": "", "transitavel_veiculo (sim/nao)": "", "transitavel_a_pe (sim/nao)": "", "foto_arquivo": "", "data": "", "observacao": "" }, "geometry": { "type": "Point", "coordinates": [ -57.096251, -29.77518 ] } },
{ "type": "Feature", "properties": { "codigo": "T11", "tipo": "travessia sem ponte marcada", "via": "Rua Marechal Deodoro", "bairro": "Nova Esperança", "latitude": -29.763839, "longitude": -57.095926, "menor_cota_cm": "1205", "ordem_curso_dagua": "4", "comprimento_osm_m": null, "ordem_visita": 24, "o_que_existe (ponte/bueiro/passagem molhada/nada)": "", "material": "", "extensao_aprox_m": "", "altura_tabuleiro_ou_via_sobre_leito_m": "", "largura_curso_dagua_m": "", "transitavel_veiculo (sim/nao)": "", "transitavel_a_pe (sim/nao)": "", "foto_arquivo": "", "data": "", "observacao": "" }, "geometry": { "type": "Point", "coordinates": [ -57.095926, -29.763839 ] } },
{ "type": "Feature", "properties": { "codigo": "T12", "tipo": "travessia sem ponte marcada", "via": "Rua Marechal Deodoro", "bairro": "Alexandre Zachia", "latitude": -29.776268, "longitude": -57.095701, "menor_cota_cm": "fora", "ordem_curso_dagua": "4", "comprimento_osm_m": null, "ordem_visita": 6, "o_que_existe (ponte/bueiro/passagem molhada/nada)": "", "material": "", "extensao_aprox_m": "", "altura_tabuleiro_ou_via_sobre_leito_m": "", "largura_curso_dagua_m": "", "transitavel_veiculo (sim/nao)": "", "transitavel_a_pe (sim/nao)": "", "foto_arquivo": "", "data": "", "observacao": "" }, "geometry": { "type": "Point", "coordinates": [ -57.095701, -29.776268 ] } },
{ "type": "Feature", "properties": { "codigo": "T13", "tipo": "travessia sem ponte marcada", "via": "Rua Senador Salgado Filho", "bairro": "Alexandre Zachia", "latitude": -29.776592, "longitude": -57.095489, "menor_cota_cm": "fora", "ordem_curso_dagua": "4", "comprimento_osm_m": null, "ordem_visita": 5, "o_que_existe (ponte/bueiro/passagem molhada/nada)": "", "material": "", "extensao_aprox_m": "", "altura_tabuleiro_ou_via_sobre_leito_m": "", "largura_curso_dagua_m": "", "transitavel_veiculo (sim/nao)": "", "transitavel_a_pe (sim/nao)": "", "foto_arquivo": "", "data": "", "observacao": "" }, "geometry": { "type": "Point", "coordinates": [ -57.095489, -29.776592 ] } },
{ "type": "Feature", "properties": { "codigo": "T14", "tipo": "travessia sem ponte marcada", "via": "Travessa José Francisco", "bairro": "Nova Esperança", "latitude": -29.763327, "longitude": -57.095121, "menor_cota_cm": "fora", "ordem_curso_dagua": "4", "comprimento_osm_m": null, "ordem_visita": 25, "o_que_existe (ponte/bueiro/passagem molhada/nada)": "", "material": "", "extensao_aprox_m": "", "altura_tabuleiro_ou_via_sobre_leito_m": "", "largura_curso_dagua_m": "", "transitavel_veiculo (sim/nao)": "", "transitavel_a_pe (sim/nao)": "", "foto_arquivo": "", "data": "", "observacao": "" }, "geometry": { "type": "Point", "coordinates": [ -57.095121, -29.763327 ] } },
{ "type": "Feature", "properties": { "codigo": "T15", "tipo": "travessia sem ponte marcada", "via": "Rua General Estilac Leal", "bairro": "Alexandre Zachia", "latitude": -29.775144, "longitude": -57.094785, "menor_cota_cm": "1205", "ordem_curso_dagua": "3", "comprimento_osm_m": null, "ordem_visita": 9, "o_que_existe (ponte/bueiro/passagem molhada/nada)": "", "material": "", "extensao_aprox_m": "", "altura_tabuleiro_ou_via_sobre_leito_m": "", "largura_curso_dagua_m": "", "transitavel_veiculo (sim/nao)": "", "transitavel_a_pe (sim/nao)": "", "foto_arquivo": "", "data": "", "observacao": "" }, "geometry": { "type": "Point", "coordinates": [ -57.094785, -29.775144 ] } },
{ "type": "Feature", "properties": { "codigo": "T16", "tipo": "travessia sem ponte marcada", "via": "Rua Senador Pinheiro Machado", "bairro": "Rio Branco", "latitude": -29.778002, "longitude": -57.094422, "menor_cota_cm": "fora", "ordem_curso_dagua": "4", "comprimento_osm_m": null, "ordem_visita": 4, "o_que_existe (ponte/bueiro/passagem molhada/nada)": "", "material": "", "extensao_aprox_m": "", "altura_tabuleiro_ou_via_sobre_leito_m": "", "largura_curso_dagua_m": "", "transitavel_veiculo (sim/nao)": "", "transitavel_a_pe (sim/nao)": "", "foto_arquivo": "", "data": "", "observacao": "" }, "geometry": { "type": "Point", "coordinates": [ -57.094422, -29.778002 ] } },
{ "type": "Feature", "properties": { "codigo": "T17", "tipo": "travessia sem ponte marcada", "via": "Rua General Canabarro", "bairro": "Nova Esperança", "latitude": -29.762598, "longitude": -57.094403, "menor_cota_cm": "fora", "ordem_curso_dagua": "4", "comprimento_osm_m": null, "ordem_visita": 26, "o_que_existe (ponte/bueiro/passagem molhada/nada)": "", "material": "", "extensao_aprox_m": "", "altura_tabuleiro_ou_via_sobre_leito_m": "", "largura_curso_dagua_m": "", "transitavel_veiculo (sim/nao)": "", "transitavel_a_pe (sim/nao)": "", "foto_arquivo": "", "data": "", "observacao": "" }, "geometry": { "type": "Point", "coordinates": [ -57.094403, -29.762598 ] } },
{ "type": "Feature", "properties": { "codigo": "T18", "tipo": "travessia sem ponte marcada", "via": "Rua Eustáquio Ormazabal", "bairro": "Alexandre Zachia", "latitude": -29.775195, "longitude": -57.094136, "menor_cota_cm": "1252", "ordem_curso_dagua": "3", "comprimento_osm_m": null, "ordem_visita": 10, "o_que_existe (ponte/bueiro/passagem molhada/nada)": "", "material": "", "extensao_aprox_m": "", "altura_tabuleiro_ou_via_sobre_leito_m": "", "largura_curso_dagua_m": "", "transitavel_veiculo (sim/nao)": "", "transitavel_a_pe (sim/nao)": "", "foto_arquivo": "", "data": "", "observacao": "" }, "geometry": { "type": "Point", "coordinates": [ -57.094136, -29.775195 ] } },
{ "type": "Feature", "properties": { "codigo": "T19", "tipo": "travessia sem ponte marcada", "via": "Rua Eustáquio Ormazabal", "bairro": "Rio Branco", "latitude": -29.778351, "longitude": -57.09408, "menor_cota_cm": "fora", "ordem_curso_dagua": "4", "comprimento_osm_m": null, "ordem_visita": 3, "o_que_existe (ponte/bueiro/passagem molhada/nada)": "", "material": "", "extensao_aprox_m": "", "altura_tabuleiro_ou_via_sobre_leito_m": "", "largura_curso_dagua_m": "", "transitavel_veiculo (sim/nao)": "", "transitavel_a_pe (sim/nao)": "", "foto_arquivo": "", "data": "", "observacao": "" }, "geometry": { "type": "Point", "coordinates": [ -57.09408, -29.778351 ] } },
{ "type": "Feature", "properties": { "codigo": "T20", "tipo": "travessia sem ponte marcada", "via": "Rua Iris Ferrari Valls", "bairro": "Alexandre Zachia", "latitude": -29.775188, "longitude": -57.092545, "menor_cota_cm": "fora", "ordem_curso_dagua": "3", "comprimento_osm_m": null, "ordem_visita": 11, "o_que_existe (ponte/bueiro/passagem molhada/nada)": "", "material": "", "extensao_aprox_m": "", "altura_tabuleiro_ou_via_sobre_leito_m": "", "largura_curso_dagua_m": "", "transitavel_veiculo (sim/nao)": "", "transitavel_a_pe (sim/nao)": "", "foto_arquivo": "", "data": "", "observacao": "" }, "geometry": { "type": "Point", "coordinates": [ -57.092545, -29.775188 ] } },
{ "type": "Feature", "properties": { "codigo": "T21", "tipo": "travessia sem ponte marcada", "via": "Rua General Estilac Leal", "bairro": "Alexandre Zachia", "latitude": -29.775094, "longitude": -57.091685, "menor_cota_cm": "fora", "ordem_curso_dagua": "3", "comprimento_osm_m": null, "ordem_visita": 12, "o_que_existe (ponte/bueiro/passagem molhada/nada)": "", "material": "", "extensao_aprox_m": "", "altura_tabuleiro_ou_via_sobre_leito_m": "", "largura_curso_dagua_m": "", "transitavel_veiculo (sim/nao)": "", "transitavel_a_pe (sim/nao)": "", "foto_arquivo": "", "data": "", "observacao": "" }, "geometry": { "type": "Point", "coordinates": [ -57.091685, -29.775094 ] } },
{ "type": "Feature", "properties": { "codigo": "T22", "tipo": "travessia sem ponte marcada", "via": "Rua General Vitorino", "bairro": "Alexandre Zachia", "latitude": -29.775082, "longitude": -57.090996, "menor_cota_cm": "fora", "ordem_curso_dagua": "3", "comprimento_osm_m": null, "ordem_visita": 13, "o_que_existe (ponte/bueiro/passagem molhada/nada)": "", "material": "", "extensao_aprox_m": "", "altura_tabuleiro_ou_via_sobre_leito_m": "", "largura_curso_dagua_m": "", "transitavel_veiculo (sim/nao)": "", "transitavel_a_pe (sim/nao)": "", "foto_arquivo": "", "data": "", "observacao": "" }, "geometry": { "type": "Point", "coordinates": [ -57.090996, -29.775082 ] } },
{ "type": "Feature", "properties": { "codigo": "T23", "tipo": "travessia sem ponte marcada", "via": "Rua General Estilac Leal", "bairro": "Alexandre Zachia", "latitude": -29.775078, "longitude": -57.089863, "menor_cota_cm": "fora", "ordem_curso_dagua": "3", "comprimento_osm_m": null, "ordem_visita": 14, "o_que_existe (ponte/bueiro/passagem molhada/nada)": "", "material": "", "extensao_aprox_m": "", "altura_tabuleiro_ou_via_sobre_leito_m": "", "largura_curso_dagua_m": "", "transitavel_veiculo (sim/nao)": "", "transitavel_a_pe (sim/nao)": "", "foto_arquivo": "", "data": "", "observacao": "" }, "geometry": { "type": "Point", "coordinates": [ -57.089863, -29.775078 ] } },
{ "type": "Feature", "properties": { "codigo": "T24", "tipo": "travessia sem ponte marcada", "via": "Rua General Bento Martins", "bairro": "Santana", "latitude": -29.755358, "longitude": -57.072224, "menor_cota_cm": "fora", "ordem_curso_dagua": "4", "comprimento_osm_m": null, "ordem_visita": 30, "o_que_existe (ponte/bueiro/passagem molhada/nada)": "", "material": "", "extensao_aprox_m": "", "altura_tabuleiro_ou_via_sobre_leito_m": "", "largura_curso_dagua_m": "", "transitavel_veiculo (sim/nao)": "", "transitavel_a_pe (sim/nao)": "", "foto_arquivo": "", "data": "", "observacao": "" }, "geometry": { "type": "Point", "coordinates": [ -57.072224, -29.755358 ] } },
{ "type": "Feature", "properties": { "codigo": "T25", "tipo": "travessia sem ponte marcada", "via": "Rua Santana", "bairro": "Santana", "latitude": -29.75681, "longitude": -57.072054, "menor_cota_cm": "fora", "ordem_curso_dagua": "4", "comprimento_osm_m": null, "ordem_visita": 29, "o_que_existe (ponte/bueiro/passagem molhada/nada)": "", "material": "", "extensao_aprox_m": "", "altura_tabuleiro_ou_via_sobre_leito_m": "", "largura_curso_dagua_m": "", "transitavel_veiculo (sim/nao)": "", "transitavel_a_pe (sim/nao)": "", "foto_arquivo": "", "data": "", "observacao": "" }, "geometry": { "type": "Point", "coordinates": [ -57.072054, -29.75681 ] } },
{ "type": "Feature", "properties": { "codigo": "T26", "tipo": "travessia sem ponte marcada", "via": "Rua Senador Feliano Ribeiro", "bairro": "Santana", "latitude": -29.757282, "longitude": -57.071983, "menor_cota_cm": "fora", "ordem_curso_dagua": "4", "comprimento_osm_m": null, "ordem_visita": 28, "o_que_existe (ponte/bueiro/passagem molhada/nada)": "", "material": "", "extensao_aprox_m": "", "altura_tabuleiro_ou_via_sobre_leito_m": "", "largura_curso_dagua_m": "", "transitavel_veiculo (sim/nao)": "", "transitavel_a_pe (sim/nao)": "", "foto_arquivo": "", "data": "", "observacao": "" }, "geometry": { "type": "Point", "coordinates": [ -57.071983, -29.757282 ] } },
{ "type": "Feature", "properties": { "codigo": "T27", "tipo": "travessia sem ponte marcada", "via": "Rua Senador Feliano Ribeiro", "bairro": "Santana", "latitude": -29.75436, "longitude": -57.071967, "menor_cota_cm": "1205", "ordem_curso_dagua": "4", "comprimento_osm_m": null, "ordem_visita": 31, "o_que_existe (ponte/bueiro/passagem molhada/nada)": "", "material": "", "extensao_aprox_m": "", "altura_tabuleiro_ou_via_sobre_leito_m": "", "largura_curso_dagua_m": "", "transitavel_veiculo (sim/nao)": "", "transitavel_a_pe (sim/nao)": "", "foto_arquivo": "", "data": "", "observacao": "" }, "geometry": { "type": "Point", "coordinates": [ -57.071967, -29.75436 ] } },
{ "type": "Feature", "properties": { "codigo": "T28", "tipo": "travessia sem ponte marcada", "via": "Avenida Presidente Getúlio Vargas", "bairro": "Santana", "latitude": -29.758187, "longitude": -57.071875, "menor_cota_cm": "fora", "ordem_curso_dagua": "4", "comprimento_osm_m": null, "ordem_visita": 27, "o_que_existe (ponte/bueiro/passagem molhada/nada)": "", "material": "", "extensao_aprox_m": "", "altura_tabuleiro_ou_via_sobre_leito_m": "", "largura_curso_dagua_m": "", "transitavel_veiculo (sim/nao)": "", "transitavel_a_pe (sim/nao)": "", "foto_arquivo": "", "data": "", "observacao": "" }, "geometry": { "type": "Point", "coordinates": [ -57.071875, -29.758187 ] } },
{ "type": "Feature", "properties": { "codigo": "T29", "tipo": "travessia sem ponte marcada", "via": "Rua Tiradentes", "bairro": "Santo Antônio", "latitude": -29.7539, "longitude": -57.071753, "menor_cota_cm": "1205", "ordem_curso_dagua": "4", "comprimento_osm_m": null, "ordem_visita": 32, "o_que_existe (ponte/bueiro/passagem molhada/nada)": "", "material": "", "extensao_aprox_m": "", "altura_tabuleiro_ou_via_sobre_leito_m": "", "largura_curso_dagua_m": "", "transitavel_veiculo (sim/nao)": "", "transitavel_a_pe (sim/nao)": "", "foto_arquivo": "", "data": "", "observacao": "" }, "geometry": { "type": "Point", "coordinates": [ -57.071753, -29.7539 ] } },
{ "type": "Feature", "properties": { "codigo": "T30", "tipo": "travessia sem ponte marcada", "via": "Avenida Ministro Assis Brasil", "bairro": "Jóquei Clube", "latitude": -29.751387, "longitude": -57.071193, "menor_cota_cm": "fora", "ordem_curso_dagua": "4", "comprimento_osm_m": null, "ordem_visita": 34, "o_que_existe (ponte/bueiro/passagem molhada/nada)": "", "material": "", "extensao_aprox_m": "", "altura_tabuleiro_ou_via_sobre_leito_m": "", "largura_curso_dagua_m": "", "transitavel_veiculo (sim/nao)": "", "transitavel_a_pe (sim/nao)": "", "foto_arquivo": "", "data": "", "observacao": "" }, "geometry": { "type": "Point", "coordinates": [ -57.071193, -29.751387 ] } },
{ "type": "Feature", "properties": { "codigo": "T31", "tipo": "travessia sem ponte marcada", "via": "Rua Monte Caseros", "bairro": "Santo Antônio", "latitude": -29.752429, "longitude": -57.071108, "menor_cota_cm": "1205", "ordem_curso_dagua": "4", "comprimento_osm_m": null, "ordem_visita": 33, "o_que_existe (ponte/bueiro/passagem molhada/nada)": "", "material": "", "extensao_aprox_m": "", "altura_tabuleiro_ou_via_sobre_leito_m": "", "largura_curso_dagua_m": "", "transitavel_veiculo (sim/nao)": "", "transitavel_a_pe (sim/nao)": "", "foto_arquivo": "", "data": "", "observacao": "" }, "geometry": { "type": "Point", "coordinates": [ -57.071108, -29.752429 ] } },
{ "type": "Feature", "properties": { "codigo": "T32", "tipo": "travessia sem ponte marcada", "via": "(sem nome no OSM)", "bairro": "Jóquei Clube", "latitude": -29.754046, "longitude": -57.041646, "menor_cota_cm": "1205", "ordem_curso_dagua": "3", "comprimento_osm_m": null, "ordem_visita": 35, "o_que_existe (ponte/bueiro/passagem molhada/nada)": "", "material": "", "extensao_aprox_m": "", "altura_tabuleiro_ou_via_sobre_leito_m": "", "largura_curso_dagua_m": "", "transitavel_veiculo (sim/nao)": "", "transitavel_a_pe (sim/nao)": "", "foto_arquivo": "", "data": "", "observacao": "" }, "geometry": { "type": "Point", "coordinates": [ -57.041646, -29.754046 ] } },
{ "type": "Feature", "properties": { "codigo": "T33", "tipo": "travessia sem ponte marcada", "via": "Avenida Ministro Assis Brasil", "bairro": "Jóquei Clube", "latitude": -29.76555, "longitude": -57.034691, "menor_cota_cm": "fora", "ordem_curso_dagua": "3", "comprimento_osm_m": null, "ordem_visita": 37, "o_que_existe (ponte/bueiro/passagem molhada/nada)": "", "material": "", "extensao_aprox_m": "", "altura_tabuleiro_ou_via_sobre_leito_m": "", "largura_curso_dagua_m": "", "transitavel_veiculo (sim/nao)": "", "transitavel_a_pe (sim/nao)": "", "foto_arquivo": "", "data": "", "observacao": "" }, "geometry": { "type": "Point", "coordinates": [ -57.034691, -29.76555 ] } }
]
}
