{
"type": "FeatureCollection",
"name": "area_estudo",
"crs": { "type": "name", "properties": { "name": "urn:ogc:def:crs:EPSG::31981" } },
"features": [
{ "type": "Feature", "properties": { "codarea": "4322400" }, "geometry": { "type": "Polygon", "coordinates": [ [ [ 468346.515606450207997, 6684283.071375068277121 ], [ 468577.742460842302535, 6684394.539872429333627 ], [ 468866.642232285696082, 6684583.732432389631867 ], [ 469088.015942731464747, 6684772.728875171393156 ], [ 469222.440606748103164, 6685005.802994130179286 ], [ 469548.528031265712343, 6685715.883588094264269 ], [ 469943.316734462685417, 6686016.146898057311773 ], [ 470048.67708997434238, 6686304.535765279084444 ], [ 470008.909431984182447, 6686736.582932783290744 ], [ 470192.16407538234489, 6686770.320358966477215 ], [ 470259.890651740133762, 6686704.017123498022556 ], [ 470308.762873199942987, 6686471.44960886053741 ], [ 470434.442508913460188, 6686383.13876966573298 ], [ 470772.112279161112383, 6686406.196995524689555 ], [ 471003.291584080434404, 6686561.937147092074156 ], [ 471128.388820287480485, 6686695.234558709897101 ], [ 471504.953119917656295, 6686607.562901299446821 ], [ 471668.570547842129599, 6686774.195796524174511 ], [ 471851.886906120984349, 6686785.744118208065629 ], [ 472180.422774760285392, 6686609.280407677404583 ], [ 472257.536014329234604, 6686642.716464247554541 ], [ 472489.649291844980326, 6686432.759057648479939 ], [ 472721.398885993345175, 6686366.847198793664575 ], [ 472933.657494103943463, 6686378.448939034715295 ], [ 473059.368761233636178, 6686267.946869807317853 ], [ 473533.692470574926119, 6685637.4814837211743 ], [ 473572.789941736496985, 6685427.038338189944625 ], [ 473863.68491157097742, 6684818.280918199568987 ], [ 474037.582747948355973, 6684718.962345065549016 ], [ 474404.51068682258483, 6684586.84658875502646 ], [ 474568.90507955342764, 6684421.012458175420761 ], [ 474810.070902590639889, 6684432.644984917715192 ], [ 474945.414014696318191, 6684311.062633249908686 ], [ 475254.135412964446004, 6684311.757392983883619 ], [ 475148.634671301522758, 6684034.49900905508548 ], [ 475139.385778895753901, 6683857.184138353914022 ], [ 475217.208403596247081, 6683569.255777791142464 ], [ 475712.120534771645907, 6682240.646550573408604 ], [ 476282.716526518401224, 6681543.788466149941087 ], [ 476486.489989544439595, 6680968.016510888002813 ], [ 476535.348377129994333, 6680668.935624733567238 ], [ 477143.768052245606668, 6680271.297873126342893 ], [ 478061.26899846579181, 6679608.302840722724795 ], [ 477705.468861192057375, 6679108.948640312999487 ], [ 477946.809129110421054, 6678976.462033541873097 ], [ 478844.806283159123268, 6678346.605802126228809 ], [ 479258.655771274585277, 6678757.385395033285022 ], [ 482184.087527340161614, 6676468.74192532338202 ], [ 483601.857510934583843, 6676072.026575986295938 ], [ 483650.732451155781746, 6675617.78056428488344 ], [ 483834.524228185531683, 6675185.894571917131543 ], [ 483979.487502643896732, 6674931.244256154634058 ], [ 484346.28471958002774, 6674577.180564355105162 ], [ 484529.519009946030565, 6674510.95346213132143 ], [ 485030.623585171473678, 6674600.292834983207285 ], [ 485271.16977769305231, 6674921.964282818138599 ], [ 485367.577463414694648, 6674911.011690163984895 ], [ 486872.322169472463429, 6674059.673115184530616 ], [ 486863.066616667143535, 6673738.314457761123776 ], [ 486661.481307096488308, 6673062.133708054199815 ], [ 487087.461092718178406, 6671422.656511765904725 ], [ 488304.087008211994544, 6669108.086451718583703 ], [ 488863.240846985834651, 6668742.992924574762583 ], [ 488901.910506963205989, 6668610.059718588367105 ], [ 489248.855974725098349, 6668477.431945882737637 ], [ 489576.588979218679015, 6668278.288894338533282 ], [ 489759.480539808806498, 6668433.595022697933018 ], [ 490221.883858405577485, 6668445.096766266971827 ], [ 490491.548509444226511, 6668533.981311671435833 ], [ 490819.149589441192802, 6668467.773464929312468 ], [ 490838.776778998959344, 6668035.629940759390593 ], [ 490800.466191928368062, 6667769.653289483860135 ], [ 491099.134773663361557, 6667714.493907205760479 ], [ 491397.635661496664397, 6667869.865827044472098 ], [ 491619.003009094856679, 6668124.900290828198195 ], [ 491830.640101275756024, 6668523.976172691211104 ], [ 491849.718663110281341, 6668778.853632899932563 ], [ 491724.319532077643089, 6668989.299220776185393 ], [ 491599.10173821245553, 6668955.961301835253835 ], [ 491531.842409181350376, 6668723.208500849083066 ], [ 491387.395263899350539, 6668645.52927334792912 ], [ 491127.220374372962397, 6668722.889629112556577 ], [ 491117.389708271482959, 6668966.663977680727839 ], [ 491213.597700484737288, 6669132.956364297308028 ], [ 491425.455494365247432, 6669255.014562732540071 ], [ 491550.591094441711903, 6669399.164410155266523 ], [ 491598.627994649636094, 6669576.497211059555411 ], [ 491598.289655527798459, 6670019.736822147853673 ], [ 491896.754184070741758, 6670319.147324429824948 ], [ 492012.136036907380912, 6670651.661202209070325 ], [ 492455.082558933878317, 6671073.050824915990233 ], [ 492907.863403132476378, 6671239.566340335644782 ], [ 493119.648987796390429, 6671572.129740107804537 ], [ 493341.191208321426529, 6671727.399406479671597 ], [ 493591.72044624760747, 6671760.790905129164457 ], [ 493842.319336024636868, 6671672.28616467770189 ], [ 494064.046922758105211, 6671506.193451773375273 ], [ 494073.802471108152531, 6671284.579386476427317 ], [ 493852.215578015951905, 6671206.891130872070789 ], [ 493678.747994903824292, 6671240.035829571075737 ], [ 493534.285214648814872, 6671106.980310162529349 ], [ 493467.030867138935719, 6670774.51138733047992 ], [ 493322.832160747959279, 6670220.375814981758595 ], [ 493467.491159311146475, 6669998.842871973291039 ], [ 493602.406515124195721, 6669954.598159693181515 ], [ 493833.607636507018469, 6670021.216039694845676 ], [ 494132.191908072854858, 6670209.756010384298861 ], [ 494421.207234816509299, 6670287.473154101520777 ], [ 494854.895816482487135, 6670066.064736323431134 ], [ 495095.791261064296123, 6670021.850761477835476 ], [ 495192.179871224157978, 6669933.245401661843061 ], [ 495288.619106599653605, 6669722.748341614380479 ], [ 495519.929233481816482, 6669534.468095663934946 ], [ 495683.729821820335928, 6669501.290582182817161 ], [ 496117.256417886936106, 6669579.019007417373359 ], [ 496550.761332185240462, 6669745.378231955692172 ], [ 496772.347479328745976, 6669789.769389502704144 ], [ 496984.282369542925153, 6669900.639348013326526 ], [ 497080.587095546536148, 6670066.880052244290709 ], [ 497109.445619271835312, 6670244.183347903192043 ], [ 497099.702426915115211, 6670654.176879135891795 ], [ 497215.258849164878484, 6670931.230967540293932 ], [ 497696.925167967798188, 6671518.633295219391584 ], [ 497995.646329124923795, 6671540.853628566488624 ], [ 498236.563098065729719, 6671485.490047018043697 ], [ 498660.554817683703732, 6671518.792650364339352 ], [ 499441.096505311259534, 6671485.61704708263278 ], [ 499836.182634461321868, 6671541.034799456596375 ], [ 500212.001076622807886, 6671651.843542512506247 ], [ 500636.007069746265188, 6671718.312950713559985 ], [ 501214.17821618745802, 6671563.131003548391163 ], [ 501493.627427322440781, 6671529.853777309879661 ], [ 501773.039272479712963, 6671274.950258206576109 ], [ 501888.624757655139547, 6670997.906937640160322 ], [ 502090.920598372875247, 6670698.684226981364191 ], [ 502177.581631947599817, 6670399.481148295104504 ], [ 502302.831484094029292, 6670355.131756730377674 ], [ 502428.102324480307288, 6670410.509719597175717 ], [ 502746.076409589033574, 6670443.677922401577234 ], [ 503102.568978259514552, 6670388.178345767781138 ], [ 503526.476383901725058, 6670243.997997871600091 ], [ 504277.93016453855671, 6670011.030994337052107 ], [ 504470.643243811675347, 6670044.197362145408988 ], [ 504730.840849354222883, 6670165.979423860087991 ], [ 505366.823278667230625, 6670298.659516460262239 ], [ 505742.684031093376689, 6670464.684575036168098 ], [ 506166.795822864456568, 6670741.47963906545192 ], [ 506513.71749944484327, 6670807.765722934156656 ], [ 506677.517323813633993, 6670796.586624602787197 ], [ 507120.664966086740606, 6670652.25622177310288 ], [ 507920.343403305800166, 6670551.981135318055749 ], [ 508074.453836416476406, 6670474.302293170243502 ], [ 508199.532328322995454, 6670230.428116781637073 ], [ 508536.59164909372339, 6670008.55204882286489 ], [ 508478.508598479849752, 6669654.005054635927081 ], [ 508179.570197191264015, 6669299.639255935326219 ], [ 508150.445503113442101, 6669000.473707719705999 ], [ 508294.890172589104623, 6668911.717690765857697 ], [ 508449.077077682828531, 6668967.005421122536063 ], [ 508670.861547524575144, 6669221.696072276681662 ], [ 508950.337209915625863, 6669321.201364303007722 ], [ 509114.085000470920932, 6669276.742937859147787 ], [ 509181.395966979383957, 6669121.552866216748953 ], [ 509007.762507472245488, 6668855.752110892906785 ], [ 508988.413084024447016, 6668756.038811687380075 ], [ 509113.552653449063655, 6668634.044691844843328 ], [ 509383.411934731702786, 6668766.790037868544459 ], [ 509547.39011844759807, 6668999.350268246605992 ], [ 509778.825208932277746, 6669242.929275477305055 ], [ 510097.113466255017556, 6669630.477104922756553 ], [ 510415.497506405459717, 6670095.582511788234115 ], [ 510560.374248349107802, 6670461.117370860651135 ], [ 510647.446335831366014, 6670826.706226693466306 ], [ 510705.756119470926933, 6671336.375003663823009 ], [ 510985.392385447747074, 6671524.476283721625805 ], [ 511101.061680016340688, 6671557.603239328600466 ], [ 511447.8088450076757, 6671402.114525157958269 ], [ 511698.397384634183254, 6671446.175123549997807 ], [ 511939.471791161980946, 6671601.050176286138594 ], [ 512093.714792502752971, 6671656.286799655295908 ], [ 512209.044893845974002, 6671379.134937779977918 ], [ 512160.655914314906113, 6671190.811678800731897 ], [ 512170.010260387149174, 6670935.93853909894824 ], [ 512324.059095215343405, 6670824.957246566191316 ], [ 512603.507292525551748, 6670835.721911035478115 ], [ 513047.209843075368553, 6671223.03993855882436 ], [ 513741.144311487150844, 6671333.005852553993464 ], [ 514049.54372618655907, 6671365.859710350632668 ], [ 514415.704297714517452, 6671354.305491538718343 ], [ 515157.476459582103416, 6671198.175473965704441 ], [ 516034.033758653618861, 6670975.31382892280817 ], [ 516939.241289312776644, 6670608.28479596786201 ], [ 517131.555362603627145, 6670353.123607877641916 ], [ 517265.771860524080694, 6669920.753638535737991 ], [ 517476.983742750424426, 6669443.935527119785547 ], [ 517650.191772868449334, 6669310.686530006118119 ], [ 517871.729005042405333, 6669277.085825278423727 ], [ 518064.616542506963015, 6669398.662426326423883 ], [ 518306.123628829140216, 6669786.100017094984651 ], [ 518489.14797687495593, 6669763.631991123780608 ], [ 518825.835279702034313, 6669452.79181541595608 ], [ 518979.204164657916408, 6668998.205002542585135 ], [ 519084.026315592054743, 6668333.159655140712857 ], [ 519083.295776735467371, 6667912.080047423951328 ], [ 519323.6580796566559, 6667645.714406169019639 ], [ 519545.078082799329422, 6667567.755525873973966 ], [ 519997.702702149690595, 6667500.455249452963471 ], [ 520748.686873013037257, 6667299.604221800342202 ], [ 521162.635092077136505, 6667165.842118832282722 ], [ 521364.035608559090178, 6666711.12713101413101 ], [ 521401.916989193938207, 6666378.61994974128902 ], [ 521033.446523571852595, 6665093.920500642620027 ], [ 520840.243556016823277, 6664784.016809802502394 ], [ 520801.071318569767755, 6664440.575653828680515 ], [ 520896.339805914147291, 6663897.418533369898796 ], [ 521001.69405299302889, 6663598.026355929672718 ], [ 521386.09356792451581, 6663198.36256511695683 ], [ 521674.571698554966133, 6662998.335817204788327 ], [ 521857.498520004621241, 6662986.891999043524265 ], [ 522233.294096170342527, 6663119.111558130010962 ], [ 522686.246201614965685, 6663306.565048800781369 ], [ 523023.499294378969353, 6663416.67487869784236 ], [ 523283.395403589820489, 6663371.802167838439345 ], [ 523917.982872005668469, 6662938.271891260519624 ], [ 524398.932763417367823, 6662715.589638355188072 ], [ 524899.296144835767336, 6662570.41051134839654 ], [ 525370.479527338058688, 6662303.38255219720304 ], [ 526015.234238376840949, 6662157.817487316206098 ], [ 526418.870780800818466, 6661846.57893655821681 ], [ 526822.267779274727218, 6661446.675842590630054 ], [ 526966.245412550983019, 6661269.02304766792804 ], [ 527177.993367618415505, 6661246.338111285120249 ], [ 527409.410420609870926, 6661389.818715081550181 ], [ 527583.151283213286661, 6661566.683341034688056 ], [ 527930.085755122709088, 6661698.78081747982651 ], [ 528343.994694507564418, 6661664.475825195200741 ], [ 528401.503128244192339, 6661564.595841171219945 ], [ 528420.098365843645297, 6661309.678754050284624 ], [ 528284.171441139071248, 6660866.779478928074241 ], [ 528071.015069478424266, 6660335.426101692020893 ], [ 528157.199229244026355, 6660157.904820402152836 ], [ 528473.778326483792625, 6659735.998824888840318 ], [ 528675.317212597234175, 6659502.766620627604425 ], [ 528828.748337337747216, 6659280.738437886349857 ], [ 529039.016137618222274, 6658715.037161787971854 ], [ 529048.142117959796451, 6658526.630746277980506 ], [ 529230.810436405125074, 6658448.575971819460392 ], [ 529635.80696240440011, 6658724.521348560228944 ], [ 530273.05811463156715, 6659443.065507303923368 ], [ 530620.082810441381298, 6659619.402925902046263 ], [ 530774.005188611336052, 6659585.728115491569042 ], [ 530782.448985137860291, 6659164.614429307170212 ], [ 530926.301322525716387, 6658975.827143810689449 ], [ 531128.43507577793207, 6658975.255089016631246 ], [ 531773.627171882661059, 6659073.136199714615941 ], [ 532371.063088252209127, 6659293.015258862636983 ], [ 532649.91159360553138, 6659192.45641690120101 ], [ 532908.805468737264164, 6658859.242051940411329 ], [ 533294.82821416365914, 6659190.516990922391415 ], [ 533421.953949838876724, 6659843.92952018789947 ], [ 533606.209839819464833, 6660286.619966154918075 ], [ 533856.911573147866875, 6660418.825030107051134 ], [ 534328.724244028795511, 6660450.60263211093843 ], [ 536082.212730171508156, 6660877.147937374189496 ], [ 536169.98931649804581, 6661220.380921704694629 ], [ 536113.902276491746306, 6661730.307687180116773 ], [ 536472.416640312992968, 6662416.165371490642428 ], [ 537033.410284385317937, 6663167.818231992423534 ], [ 537169.681127276155166, 6663599.529768783599138 ], [ 538502.5565698123537, 6664736.315531434491277 ], [ 539081.295197527855635, 6664989.142804904840887 ], [ 539418.093523871619254, 6664910.370290946215391 ], [ 539717.326001089182682, 6665097.675512520596385 ], [ 540064.239038185565732, 6665151.822794454172254 ], [ 540372.468942795647308, 6665161.775962525978684 ], [ 540593.570798253873363, 6665050.147810361348093 ], [ 541026.916706750169396, 6665037.456913172267377 ], [ 541546.394463747623377, 6664880.365730350837111 ], [ 542172.857163493405096, 6664999.874142167158425 ], [ 543651.343413201044314, 6666246.297369789332151 ], [ 543843.583758775726892, 6666145.799797042272985 ], [ 544783.347969486610964, 6665122.521275538951159 ], [ 545311.724099301267415, 6664798.99357211496681 ], [ 545754.088215699302964, 6664642.020054330118001 ], [ 546434.107797227334231, 6663752.649961609393358 ], [ 546693.1687655079877, 6663529.922102747485042 ], [ 546914.506588154355995, 6663495.734316434711218 ], [ 547243.150057141087018, 6663782.443970394320786 ], [ 547583.408766708453186, 6664523.434329239651561 ], [ 547796.049802855006419, 6664699.814887532033026 ], [ 548094.889365649898537, 6664764.999607626348734 ], [ 549210.805032912408933, 6664483.0202941223979 ], [ 549865.472697971621528, 6664435.74203827790916 ], [ 550048.904456545948051, 6664534.641539423726499 ], [ 550310.804899430135265, 6664943.461539408192039 ], [ 550793.576330445474014, 6665207.196927590295672 ], [ 551430.057299574487843, 6665381.540899915620685 ], [ 551805.100912556401454, 6665257.882302403450012 ], [ 551930.567481433041394, 6665312.697795053943992 ], [ 552018.087386715458706, 6665489.588537847623229 ], [ 553049.443379942909814, 6665650.881672923453152 ], [ 553416.517287408933043, 6665870.73496301472187 ], [ 553975.373097432893701, 6665912.330994787625968 ], [ 554343.89904994412791, 6666420.267581018619239 ], [ 554550.243227594532073, 6667239.281811881810427 ], [ 554868.626697942847386, 6667337.431921921670437 ], [ 555284.628042524796911, 6667689.958808457478881 ], [ 556170.326746906968765, 6667574.655120656825602 ], [ 556546.592074649059214, 6667683.542927587404847 ], [ 557223.518818083684891, 6668178.714086547493935 ], [ 557859.230707518057898, 6668153.22548886295408 ], [ 558360.94999292481225, 6668294.636225131340325 ], [ 558833.069426981615834, 6668303.203040728345513 ], [ 559814.100049574044533, 6667998.707833159714937 ], [ 560190.782257643644698, 6668173.959734562784433 ], [ 560701.801768620032817, 6668248.723430395126343 ], [ 561175.402118700090796, 6668523.142023928463459 ], [ 561801.620048076147214, 6668519.642072344198823 ], [ 562272.312293604016304, 6668273.19026190135628 ], [ 562741.782745460513979, 6667816.171886233612895 ], [ 563328.598340890486725, 6667668.746120614930987 ], [ 563657.224387527094223, 6667855.238746481016278 ], [ 564061.898989700130187, 6667863.970990180969238 ], [ 564427.391075247433037, 6667762.100255129858851 ], [ 565457.91244025726337, 6667711.688252534717321 ], [ 565718.479731300263666, 6667787.706989740952849 ], [ 566424.806813622941263, 6668293.227352632209659 ], [ 566656.157065283856355, 6668313.991613066755235 ], [ 567049.868597057531588, 6668101.044313340447843 ], [ 567531.356572546763346, 6668064.853381745517254 ], [ 568102.358653485076502, 6668482.443343348801136 ], [ 568353.329561325139366, 6668558.459880188107491 ], [ 569324.923966625588946, 6668319.661120934411883 ], [ 569517.815410088398494, 6668351.689534183591604 ], [ 570426.045697874506004, 6668755.943235525861382 ], [ 570880.935905671329238, 6669074.397583546116948 ], [ 571411.782404231489636, 6669215.030355887487531 ], [ 571529.417729200329632, 6669524.560134507715702 ], [ 571703.644754963112064, 6669645.3275479786098 ], [ 572213.805146443773992, 6669564.418578380718827 ], [ 572358.843224609619938, 6669641.039548026397824 ], [ 572611.992081423755735, 6670038.322253708727658 ], [ 573268.468852782505564, 6670222.365526396781206 ], [ 573685.181706448318437, 6670574.206947650760412 ], [ 574101.026335558854043, 6670793.055390643887222 ], [ 574718.051456532091834, 6670833.21356925368309 ], [ 575179.991575577761978, 6670741.413299311883748 ], [ 575538.434800820308737, 6671016.010157285258174 ], [ 575807.037179298931733, 6670836.852143853902817 ], [ 576116.703695898992009, 6671023.110186234116554 ], [ 577091.237206085934304, 6671193.643515165895224 ], [ 577571.980423568515107, 6671035.118847940117121 ], [ 577892.025778496754356, 6671320.993377696722746 ], [ 578846.788004086702131, 6671413.938028041273355 ], [ 579391.488853087299503, 6672108.197223367169499 ], [ 579855.859097668901086, 6672348.647135682404041 ], [ 579897.142362317070365, 6672725.139297891408205 ], [ 580480.042108010384254, 6673352.577578445896506 ], [ 580705.382782185450196, 6673849.624686998315156 ], [ 580821.458349296357483, 6673904.184778382070363 ], [ 581331.92517659557052, 6673845.019689096137881 ], [ 581907.877805955940858, 6674815.982859639450908 ], [ 581638.942947961972095, 6674950.962607577443123 ], [ 581561.850620387354866, 6676259.221293858252466 ], [ 581679.596291597234085, 6676535.402584767900407 ], [ 581431.943632112699561, 6676947.270118538290262 ], [ 581415.275883964262903, 6677302.019525123760104 ], [ 581032.43764971930068, 6677692.708979424089193 ], [ 580282.581460862886161, 6678008.48497227486223 ], [ 580170.972242759773508, 6678574.479129809886217 ], [ 580018.366884616436437, 6678808.30829157307744 ], [ 579759.034759245347232, 6678954.250387074425817 ], [ 579548.872040709713474, 6679232.815997697412968 ], [ 579183.758579686284065, 6679423.833276461809874 ], [ 578793.889198713819496, 6680202.358396099880338 ], [ 578643.676302616600879, 6680779.68968790769577 ], [ 578336.44623782322742, 6680981.346533591859043 ], [ 578085.512005745549686, 6680960.958510383963585 ], [ 577788.224451291025616, 6681206.857024176977575 ], [ 577402.250055532902479, 6681187.402977020479739 ], [ 577220.147654976579361, 6681354.905130769126117 ], [ 577155.335529052885249, 6681743.223710045218468 ], [ 576778.297402765601873, 6681623.948176627978683 ], [ 576219.680051730712876, 6681749.714408500120044 ], [ 575586.988566377898678, 6682330.313911314122379 ], [ 575202.337594329961576, 6682510.245802545920014 ], [ 574992.442554816021584, 6682855.207317501306534 ], [ 574769.740453646052629, 6682734.815418442711234 ], [ 574606.866888680611737, 6682902.142364898696542 ], [ 573863.611588212195784, 6682840.640763974748552 ], [ 573276.476314882864244, 6683044.018281702883542 ], [ 572865.08611058187671, 6683567.578096099197865 ], [ 572926.696082559996285, 6684132.340564259327948 ], [ 572775.316995287663303, 6684587.687925383448601 ], [ 572875.30278447503224, 6685118.952379751950502 ], [ 572586.928682880126871, 6685287.072898000478745 ], [ 572627.705561174545437, 6685619.256480438634753 ], [ 572339.966236320789903, 6685887.101041252724826 ], [ 572156.626389729208313, 6685888.297462053596973 ], [ 571561.86901666841004, 6686435.159267704933882 ], [ 571176.797771700075828, 6686581.702486932277679 ], [ 570957.33147046319209, 6686970.968226308003068 ], [ 570911.633384786662646, 6687370.1996163809672 ], [ 570058.744264320237562, 6688328.644064156338573 ], [ 569664.354143693111837, 6688541.680527207441628 ], [ 569425.004428793210536, 6688853.466509290039539 ], [ 569407.643328634905629, 6689163.859052236191928 ], [ 569196.884321370976977, 6689420.052516186609864 ], [ 569087.199356929864734, 6690406.993930376134813 ], [ 568954.739409317146055, 6690839.997967192903161 ], [ 568417.138301262515597, 6691330.913568716496229 ], [ 568401.860701915691607, 6691984.816213078796864 ], [ 568288.049928494147025, 6692317.961882273666561 ], [ 567828.402413946460001, 6692941.343162076547742 ], [ 567657.101683239452541, 6693352.402559502050281 ], [ 567427.244750204496086, 6693664.081536653451622 ], [ 567157.944810020155273, 6693843.016727134585381 ], [ 566937.853707373491488, 6694176.788557371124625 ], [ 566872.659608814748935, 6694576.112457860261202 ], [ 567119.037710897624493, 6695394.65106497425586 ], [ 567053.306639866670594, 6695705.327357080765069 ], [ 566583.122659478452988, 6696217.898792788386345 ], [ 566044.4274983209325, 6696586.798482440412045 ], [ 564867.686587663716637, 6696870.76201519370079 ], [ 563799.110012699034996, 6697497.499602265655994 ], [ 562690.025334973819554, 6697814.084136284887791 ], [ 562037.308044056990184, 6698560.188588316552341 ], [ 561472.063590209698305, 6699416.581208652816713 ], [ 561290.883834070409648, 6699849.747963544912636 ], [ 561410.000571491778828, 6700425.313885530456901 ], [ 561055.304725578636862, 6700936.99995918571949 ], [ 560711.990783285466023, 6701769.965434542857111 ], [ 560665.606931938440539, 6702124.815375093370676 ], [ 560904.91937035927549, 6703475.409874668344855 ], [ 560898.948540167999454, 6704151.391894331201911 ], [ 561251.582771712332033, 6705002.706741988658905 ], [ 561194.864538510097191, 6705235.721819501370192 ], [ 560916.484572717919946, 6705591.841879800893366 ], [ 560997.027950257412158, 6706178.700313359498978 ], [ 560853.11228665150702, 6706378.946229838766158 ], [ 561018.604584235232323, 6706588.583023426122963 ], [ 560808.038394091534428, 6706977.570999790914357 ], [ 560581.910910168779083, 6708064.746439628303051 ], [ 560792.070257757790387, 6709371.16883460432291 ], [ 560657.838262677658349, 6709582.438685555011034 ], [ 560397.590863863239065, 6709738.983780676499009 ], [ 560321.487673365511, 6709972.09678583778441 ], [ 560100.444426234113052, 6710228.151983622461557 ], [ 559935.750035191187635, 6710173.631828487850726 ], [ 559695.056749740499072, 6710374.379014439880848 ], [ 559553.837939282180741, 6711095.397970374673605 ], [ 558532.46776735840831, 6711821.058202708140016 ], [ 558302.657100418815389, 6712265.497644390910864 ], [ 557969.187348724924959, 6713242.354542274028063 ], [ 557894.442040039342828, 6713752.464348442852497 ], [ 557983.685741184046492, 6714173.076995590701699 ], [ 558168.352277775993571, 6714338.332023670896888 ], [ 558005.791075131157413, 6714704.846232442185283 ], [ 558017.188999148900621, 6715037.214345716871321 ], [ 558241.030106460559182, 6715290.912363395094872 ], [ 558560.819504854967818, 6715388.971651907078922 ], [ 558811.492427963763475, 6715221.443342162296176 ], [ 558986.455100534134544, 6715375.655333338305354 ], [ 558920.422843999695033, 6715697.349755226634443 ], [ 559192.557199248694815, 6715928.613084791228175 ], [ 559861.340808661654592, 6716146.674951026216149 ], [ 560328.393862731405534, 6716631.7286541108042 ], [ 560900.119509178679436, 6716783.76655519939959 ], [ 561075.498126472346485, 6717004.430112703703344 ], [ 561155.994465508149005, 6717569.118593709543347 ], [ 561552.194566851481795, 6717467.219678914174438 ], [ 561765.815310095553286, 6717599.014952601864934 ], [ 561441.847810518345796, 6718520.514266205951571 ], [ 560952.207555877859704, 6719243.447853676974773 ], [ 560935.140352838090621, 6719664.614864626899362 ], [ 561280.432047998066992, 6720859.469043267890811 ], [ 561214.791619598865509, 6721247.65843378379941 ], [ 560502.957275119028054, 6722082.585521291941404 ], [ 559874.541779674706049, 6722241.088790100067854 ], [ 559740.485588937182911, 6722518.824167162179947 ], [ 560169.12489066075068, 6723015.171214804053307 ], [ 560268.557647068635561, 6723502.194064909592271 ], [ 560211.00124379072804, 6723602.230363667942584 ], [ 559901.118870309204794, 6723592.807540502399206 ], [ 559640.412320430506952, 6723727.165494958870113 ], [ 559712.017508813180029, 6724447.037008347921073 ], [ 560153.614529556944035, 6725541.678936019539833 ], [ 560397.373903270461597, 6725850.633104069158435 ], [ 560570.668781408923678, 6725661.326536051928997 ], [ 560589.19954458810389, 6725506.09541161544621 ], [ 560822.326545809279196, 6725637.805129860527813 ], [ 560823.526439248584211, 6725859.414668262936175 ], [ 560418.350653256755322, 6726149.701611684635282 ], [ 560207.554953541839495, 6726571.902822172269225 ], [ 559935.501363044022582, 6726407.145638757385314 ], [ 559778.782448843121529, 6726075.557362711988389 ], [ 559643.557937501347624, 6726142.760684735141695 ], [ 559772.399152990314178, 6726696.114404930733144 ], [ 559618.796948271105066, 6726951.787843165919185 ], [ 559415.532126403064467, 6726975.025815058499575 ], [ 559143.364338729181327, 6726788.088693587109447 ], [ 558950.716383363003843, 6726988.554329900071025 ], [ 558867.150328067597002, 6727675.997962845489383 ], [ 558692.059772734995931, 6727532.864027752541006 ], [ 558537.325073004700243, 6727577.993788404390216 ], [ 558412.624202455743216, 6727811.337607007473707 ], [ 558084.688426246633753, 6728078.973802240565419 ], [ 557861.173550036270171, 6727936.077168939635158 ], [ 557745.116125364322215, 6727969.915988303720951 ], [ 557688.877995883813128, 6728335.867750581353903 ], [ 557360.627210035803728, 6728548.080141196027398 ], [ 557206.775340986787342, 6728770.477504604496062 ], [ 557197.821557751623914, 6728914.571859495714307 ], [ 557451.70850379311014, 6729312.18220245745033 ], [ 557151.809963968466036, 6729391.274675413966179 ], [ 557074.989219305687584, 6729524.632720958441496 ], [ 557336.595762156532146, 6729534.383009735494852 ], [ 557327.812170797260478, 6729711.718474604189396 ], [ 557106.075159174739383, 6729923.378805287182331 ], [ 556892.952775864163414, 6729924.458557736128569 ], [ 556808.283762835431844, 6730423.515631916932762 ], [ 556346.542101392289624, 6731079.594481784850359 ], [ 556018.957394949859008, 6731446.890029130503535 ], [ 555903.958806084701791, 6731702.315753440372646 ], [ 555973.598926278296858, 6732067.629745615646243 ], [ 555780.198935906984843, 6732146.153721936047077 ], [ 555527.840597547707148, 6732058.756305661052465 ], [ 555208.477384975412861, 6732137.890892446041107 ], [ 555159.162552197580226, 6731960.843176586553454 ], [ 554975.015378448762931, 6731950.663243794813752 ], [ 554857.720391904120333, 6731740.704242109321058 ], [ 554664.749074355815537, 6731907.851611385121942 ], [ 554482.42626741330605, 6732274.394308940507472 ], [ 554219.852885632542893, 6732076.211481675505638 ], [ 553639.979145476361737, 6732389.244478676468134 ], [ 553571.151347244274803, 6732179.041612023487687 ], [ 553445.61149131716229, 6732268.282608136534691 ], [ 553051.114527082652785, 6732857.41671184822917 ], [ 553110.507586965686642, 6733123.069605344906449 ], [ 552616.05464791029226, 6733069.987562833353877 ], [ 552394.266266109305434, 6733303.712293926626444 ], [ 552229.686498205410317, 6733337.718132358044386 ], [ 552315.972497408278286, 6733137.868457837030292 ], [ 552285.873510883189738, 6732916.39786241389811 ], [ 551878.18344573455397, 6732763.155924890190363 ], [ 551636.904715792625211, 6732974.794408889487386 ], [ 551560.3996330157388, 6733196.754957627505064 ], [ 551803.417184797115624, 6733361.847513943910599 ], [ 551610.42396429576911, 6733540.021359864622355 ], [ 551989.577693707658909, 6733804.210023161955178 ], [ 551942.094951432314701, 6734014.958490977063775 ], [ 551641.577511491253972, 6733994.178864154964685 ], [ 551856.407162486691959, 6734347.767943181097507 ], [ 551566.332690993440337, 6734493.145342351868749 ], [ 551510.312127760844305, 6734958.781593641266227 ], [ 551939.450218342244625, 6735544.077561005949974 ], [ 551804.320165359647945, 6735666.584474865347147 ], [ 551610.627260076347739, 6735700.714207086712122 ], [ 551544.098270140122622, 6735989.110548640601337 ], [ 551864.716213612235151, 6736153.847307870164514 ], [ 552174.676751290564425, 6736108.095526797696948 ], [ 552369.970323205925524, 6736417.443377375602722 ], [ 552167.393101481487975, 6736628.911073384806514 ], [ 552323.202125963638537, 6736783.315782930701971 ], [ 552168.674335447140038, 6736905.916617646813393 ], [ 552121.282875533215702, 6737138.825245040468872 ], [ 552412.757878502481617, 6737281.520648723468184 ], [ 552491.595936143537983, 6737558.165457802824676 ], [ 552288.075643737334758, 6737570.190976930782199 ], [ 552337.727278170292266, 6737824.811055673286319 ], [ 552036.903117252979428, 6737759.719786494970322 ], [ 552125.429265158833005, 6738036.322179880924523 ], [ 552059.20486299530603, 6738391.201817134395242 ], [ 551758.214976303745061, 6738292.862393891438842 ], [ 551429.005608226638287, 6738383.010847292840481 ], [ 551369.627591860131361, 6738117.351164501160383 ], [ 550982.153800488333218, 6738185.590888313949108 ], [ 551235.667263715527952, 6738505.774826038628817 ], [ 551276.056789425434545, 6738860.164620203897357 ], [ 551529.795723936520517, 6739224.662714216858149 ], [ 551387.03887896053493, 6739812.574780102819204 ], [ 551162.67960076010786, 6739514.422901686280966 ], [ 551125.201830504927784, 6739802.682962626218796 ], [ 550873.959704655106179, 6739992.184328238479793 ], [ 550242.637870061793365, 6739751.242650121450424 ], [ 550283.295723448973149, 6740172.115942092612386 ], [ 550147.894651588634588, 6740250.280608912929893 ], [ 549757.997208371176384, 6739786.629872504621744 ], [ 549535.188964558183216, 6739831.930991769768298 ], [ 549234.280830531613901, 6739755.684530474245548 ], [ 548857.010107673122548, 6739956.769619775004685 ], [ 548722.510379377636127, 6740245.439751356840134 ], [ 548586.954948707018048, 6740290.345130734145641 ], [ 548401.160181549843401, 6739925.491707541979849 ], [ 548071.217529220855795, 6739860.419114384800196 ], [ 548033.04699183232151, 6740004.625926269218326 ], [ 547392.04574400128331, 6739752.486815639771521 ], [ 547274.119783307309262, 6739376.249976770952344 ], [ 547330.851967856404372, 6739032.521872634068131 ], [ 547136.348611226305366, 6738889.291374346241355 ], [ 547049.324818850727752, 6738945.056120937690139 ], [ 547108.280985226971097, 6739133.175910886377096 ], [ 547030.950376468594186, 6739188.900008700788021 ], [ 546768.261220659711398, 6738968.384796651080251 ], [ 546750.201859677094035, 6739289.789084575138986 ], [ 546499.40165101387538, 6739601.073794463649392 ], [ 546548.381991125410423, 6739722.755435106344521 ], [ 546403.12897862016689, 6739767.67456715926528 ], [ 546520.253584442893043, 6739955.557919725775719 ], [ 546336.577519563841633, 6740089.276802934706211 ], [ 546309.125167072983459, 6740488.280284834094346 ], [ 546261.097336686565541, 6740599.280082056298852 ], [ 545960.282695296453312, 6740545.106703527271748 ], [ 545863.813841143622994, 6740667.382038274779916 ], [ 545505.445839169784449, 6740768.554067419841886 ], [ 545428.987338699982502, 6741045.868788665160537 ], [ 544965.701798554044217, 6741590.655347874388099 ], [ 544849.202692844206467, 6741557.877602487802505 ], [ 544549.025319638312794, 6741669.867681680247188 ], [ 544654.513542769709602, 6741370.28435880318284 ], [ 544547.408863410004415, 6741259.904602619819343 ], [ 544431.175891021965072, 6741293.603098820894957 ], [ 544296.156361794914119, 6741482.497593868523836 ], [ 544114.073084262316115, 6742037.222207201644778 ], [ 543279.906727285240777, 6741996.126833547838032 ], [ 542757.494361187098548, 6742330.522066237404943 ], [ 542621.431608387734741, 6742253.474514897912741 ], [ 542620.512279037036933, 6742009.713246347382665 ], [ 542454.737271339865401, 6741766.57250040397048 ], [ 542211.764463580097072, 6741623.439989269711077 ], [ 542008.163144097081386, 6741635.279006979428232 ], [ 541680.417620730353519, 6742168.342589553445578 ], [ 541485.89366287982557, 6742013.935568270273507 ], [ 541446.453066104790196, 6741836.797081569209695 ], [ 541233.149861472076736, 6741848.657642462290823 ], [ 541136.820758968358859, 6742026.29187180288136 ], [ 541140.692257975810207, 6743089.97568896971643 ], [ 540188.780958533519879, 6742683.433571665547788 ], [ 539838.085285796783864, 6742241.468266209587455 ], [ 539752.247238608659245, 6742651.736742847599089 ], [ 539577.758653382770717, 6742674.509383221156895 ], [ 539556.617278848891146, 6742175.975935424678028 ], [ 539411.151613897993229, 6742176.484161837026477 ], [ 539285.813171942369081, 6742387.443681483156979 ], [ 539130.45512256375514, 6742332.581834263168275 ], [ 539013.354282398009673, 6742122.463609779253602 ], [ 538934.627707437961362, 6741790.33019901253283 ], [ 538991.550127562019043, 6741424.488309200853109 ], [ 538767.795325855026022, 6741214.735058216378093 ], [ 538011.289817882003263, 6741172.985131369903684 ], [ 537905.405307234381326, 6741406.024263557046652 ], [ 537915.957538978080265, 6741660.832449384965003 ], [ 538304.110681416001171, 6741737.084374979138374 ], [ 538343.200760623905808, 6741825.593061190098524 ], [ 538139.779771791421808, 6741892.762423804961145 ], [ 537848.74480460875202, 6741860.500529136508703 ], [ 537527.51539659127593, 6741495.927008006721735 ], [ 537365.119226487353444, 6742238.834875417873263 ], [ 537559.921048862393945, 6742493.032330436632037 ], [ 537966.342322381446138, 6742225.750951093621552 ], [ 538102.334813446854241, 6742291.774160211905837 ], [ 538151.646632811287418, 6742535.371019534766674 ], [ 537968.091665053856559, 6742746.511777090840042 ], [ 537648.605091870063916, 6742913.782401351258159 ], [ 537357.618694941746071, 6742903.667656264267862 ], [ 536900.459559138165787, 6742495.204588584601879 ], [ 536600.002189397462644, 6742551.582150999456644 ], [ 536319.543259057099931, 6742796.249434974044561 ], [ 536155.559568014577962, 6743073.777928669005632 ], [ 536117.827665409538895, 6743406.301740543916821 ], [ 536352.592067444697022, 6744026.035090085119009 ], [ 536314.506546739605255, 6744247.75936698820442 ], [ 536140.907603817409836, 6744558.557947852648795 ], [ 536402.907160272123292, 6744590.958046151325107 ], [ 536316.000672310357913, 6744713.118372039869428 ], [ 535055.191238535102457, 6744772.496268067508936 ], [ 533541.744889050954953, 6744688.444715926423669 ], [ 533144.507061799988151, 6744844.736308613792062 ], [ 532931.753365151816979, 6745066.958497773855925 ], [ 532261.749089598655701, 6744825.128253746777773 ], [ 531893.152120489161462, 6744826.173473008908331 ], [ 531573.642369617940858, 6745037.590272745117545 ], [ 531256.691448386525735, 6746179.711674307473004 ], [ 530860.971309282467701, 6746923.157204417511821 ], [ 530376.896659446065314, 6747301.185772261582315 ], [ 529591.814236099482514, 6747602.423939996398985 ], [ 528806.014103618566878, 6747637.690049791708589 ], [ 526126.824065816123039, 6747056.952082324773073 ], [ 524912.808065017918125, 6746472.452289091423154 ], [ 524097.640937607386149, 6746352.337886022403836 ], [ 522253.067465008411091, 6745669.159765181131661 ], [ 521340.816094142966904, 6745460.398545948788524 ], [ 521388.480205708823632, 6745017.111561736091971 ], [ 521552.324924942513462, 6744462.803936876356602 ], [ 521541.907833797682542, 6744086.105812328867614 ], [ 521385.672588980291039, 6743532.405033690854907 ], [ 520802.851023838215042, 6743045.974593780934811 ], [ 519686.135382407694124, 6742239.137987286783755 ], [ 519258.344660286966246, 6741597.237451460212469 ], [ 519005.326096273260191, 6741065.827511758543551 ], [ 518868.351846421312075, 6740334.77880179323256 ], [ 518595.623423179727979, 6739581.792255973443389 ], [ 518041.572442841890734, 6738696.291795746423304 ], [ 517245.110275308543351, 6737711.416682427749038 ], [ 516401.047420976508874, 6737225.154904873110354 ], [ 515120.818388965213671, 6736695.103231305256486 ], [ 513491.346997103886679, 6735799.689306074753404 ], [ 512327.402154202281963, 6734981.100692161358893 ], [ 510853.066686174483038, 6733686.253517962992191 ], [ 509495.741392658557743, 6732867.556484459899366 ], [ 508516.193139209994115, 6731671.694305431097746 ], [ 507682.232950072328094, 6730575.367814880795777 ], [ 506828.940729824127629, 6729279.5484828222543 ], [ 505811.474882220849395, 6728526.673791820183396 ], [ 504755.362585702736396, 6727674.001976649276912 ], [ 503989.892977074545342, 6726688.169310092926025 ], [ 503117.939165569900069, 6725336.668778859078884 ], [ 502769.117423046496697, 6724394.947400473058224 ], [ 502701.15518715971848, 6723619.352515688166022 ], [ 502952.727080128097441, 6723054.200290927663445 ], [ 503165.469977280648891, 6722200.968072328716516 ], [ 503155.565200474346057, 6721403.196665110066533 ], [ 502797.249609667866025, 6720727.399074940010905 ], [ 501916.43389500916237, 6720605.70187564752996 ], [ 500909.802363431546837, 6720362.064008329994977 ], [ 499912.895740457577631, 6719785.929069686681032 ], [ 499361.275214378081728, 6719087.856645751744509 ], [ 498887.139782658021431, 6718389.764352545142174 ], [ 498432.478373840975109, 6717248.443597787991166 ], [ 497958.523187204787973, 6716306.544103790074587 ], [ 497387.841422139201313, 6715630.528117360547185 ], [ 496768.864629222720396, 6714932.307897825725377 ], [ 495598.560708815348335, 6714278.170580939389765 ], [ 494960.404658899409696, 6713624.162485796958208 ], [ 494457.752841412671842, 6712936.944241745397449 ], [ 493307.288874170451891, 6712027.72653566673398 ], [ 491983.296035174629651, 6710619.648920448496938 ], [ 490359.990153449529316, 6709100.352264450863004 ], [ 488340.761579246667679, 6707569.327798036858439 ], [ 487249.337034182157367, 6706670.617863656952977 ], [ 485306.956066877348348, 6706158.527053297497332 ], [ 483374.632686015509535, 6705502.06527510844171 ], [ 482533.783805563230999, 6705445.377356577664614 ], [ 481122.302351162827108, 6705598.204056771472096 ], [ 479894.318143426149618, 6705817.667740680277348 ], [ 478627.725192242302001, 6705981.519987557083368 ], [ 477246.452347789600026, 6705480.163433111272752 ], [ 475983.079320110729896, 6704147.847009109333158 ], [ 474122.073080064437818, 6702293.22142992541194 ], [ 472732.68972653610399, 6701425.617233861237764 ], [ 472251.196975714527071, 6700770.6694051688537 ], [ 471230.331832911004312, 6699493.800306554883718 ], [ 470566.699383393512107, 6698372.913991153240204 ], [ 469624.609382814029232, 6696697.190671826712787 ], [ 468653.14738260419108, 6695265.074754053726792 ], [ 468165.335381046577822, 6693623.730214681476355 ], [ 468276.267550233926158, 6691973.00610077008605 ], [ 468716.710644631006289, 6689846.735348748974502 ], [ 468732.022001264325809, 6687841.140820945613086 ], [ 468591.881584096059669, 6686211.852020882070065 ], [ 468346.515606450207997, 6684283.071375068277121 ] ] ] } }
]
}
