{
"type": "FeatureCollection",
"name": "area_estudo_bacias",
"crs": { "type": "name", "properties": { "name": "urn:ogc:def:crs:EPSG::31981" } },
"features": [
{ "type": "Feature", "properties": { "buffer_km": 18.0 }, "geometry": { "type": "Polygon", "coordinates": [ [ [ 450490.419660273066256, 6686554.598958197981119 ], [ 450689.518117761996109, 6688119.678416647948325 ], [ 450690.345906660309993, 6688129.302386720664799 ], [ 450650.443961160548497, 6688321.931901734322309 ], [ 450316.775528545025736, 6690766.090062724426389 ], [ 450205.8433593576774, 6692416.814176635816693 ], [ 450169.65019826835487, 6694017.830204959958792 ], [ 450275.898565586656332, 6695615.726807466708124 ], [ 450523.747471948736347, 6697197.856128184124827 ], [ 450911.235115029267035, 6698751.695114154368639 ], [ 451399.047116586880293, 6700393.039653526619077 ], [ 452013.506797419919167, 6702129.64766108058393 ], [ 452802.239395163895097, 6703794.360537382774055 ], [ 453756.984230763628148, 6705369.743148105219007 ], [ 454304.407254929887131, 6706176.746640258468688 ], [ 454876.322177508787718, 6707194.028611033223569 ], [ 455077.838048919395078, 6707543.256109167821705 ], [ 455741.470498436887283, 6708664.14242456946522 ], [ 457171.309440770011861, 6710734.080079642124474 ], [ 457964.510938227933366, 6711726.193962869234383 ], [ 458230.057045561785344, 6712087.401574239134789 ], [ 459302.763114780536853, 6713410.485660458914936 ], [ 460495.727122371841688, 6714626.251545297913253 ], [ 461798.266702284454368, 6715723.812683871947229 ], [ 462783.895171448297333, 6716406.160225629806519 ], [ 463096.792102288862225, 6716717.984355553053319 ], [ 464185.073843145102728, 6717865.65460457559675 ], [ 465388.384238671220373, 6719022.180296175181866 ], [ 466693.641358398832381, 6720062.28194251190871 ], [ 468089.62358626286732, 6720977.017534253187478 ], [ 469564.329320158751216, 6721758.522864833474159 ], [ 471105.080152663926128, 6722400.079140966758132 ], [ 472486.352997116628103, 6722901.435695412568748 ], [ 474125.398076469195075, 6723409.344021054916084 ], [ 475805.359299121948425, 6723758.872174127027392 ], [ 477510.969552677823231, 6723946.843720835633576 ], [ 479226.728632075304631, 6723971.550417744554579 ], [ 479787.604267698479816, 6723926.038448603823781 ], [ 480193.84947037382517, 6724358.083667678758502 ], [ 481137.13295967533486, 6725289.977664976380765 ], [ 481761.836525274498854, 6725822.212640785612166 ], [ 482077.308074803964701, 6726194.994693923741579 ], [ 482715.464124719903339, 6726849.002789066173136 ], [ 483364.136671703890897, 6727452.902679605409503 ], [ 483996.838169519731309, 6728503.068356172181666 ], [ 484470.973601239791606, 6729201.160649378784001 ], [ 485238.412034889042843, 6730247.817918688058853 ], [ 485790.032560968538746, 6730945.890342622995377 ], [ 486156.539437680621631, 6731367.160576371476054 ], [ 486238.671911986602936, 6731588.895340821705759 ], [ 487019.939072165288962, 6733389.891301101073623 ], [ 487992.69118945824448, 6735095.094556674361229 ], [ 488864.645000962889753, 6736446.59508790820837 ], [ 489772.548095561680384, 6737727.512792388908565 ], [ 490538.017704189871438, 6738713.345458945259452 ], [ 491907.164863042125944, 6740280.500906939618289 ], [ 493448.039293420850299, 6741679.159596748650074 ], [ 493615.879035472753458, 6741814.668119833804667 ], [ 494190.009319557982963, 6742569.421461381949484 ], [ 494591.33022720576264, 6743077.753786333836615 ], [ 495570.878480654326268, 6744273.615965362638235 ], [ 496957.714234308572486, 6745782.581648061983287 ], [ 498507.091224427509587, 6747124.11874470487237 ], [ 500174.160940055036917, 6748263.905398547649384 ], [ 500449.382034865731839, 6748505.620574383996427 ], [ 501972.613259568985086, 6749704.495237835682929 ], [ 503136.558102470589802, 6750523.083851749077439 ], [ 503978.414189615054056, 6751048.190355653874576 ], [ 504279.899801560211927, 6751579.531256698071957 ], [ 504591.579209272400476, 6752047.206613996066153 ], [ 504606.229914952768013, 6752090.151588955894113 ], [ 505325.846034493879415, 6753677.49864200130105 ], [ 506195.603389365540352, 6755187.809924473054707 ], [ 507207.347955975332297, 6756606.926184070296586 ], [ 508351.594572721107397, 6757921.543126902543008 ], [ 509617.615863908606116, 6759119.336145990528166 ], [ 510993.542809495644178, 6760189.075865139253438 ], [ 512466.476017815177329, 6761120.733414963819087 ], [ 514022.606658089964185, 6761905.574454100802541 ], [ 515647.345918989391066, 6762536.241054142825305 ], [ 516967.390696577378549, 6762906.40988037083298 ], [ 517845.960317989927717, 6763231.807351331226528 ], [ 519373.628624330100138, 6763708.733431316912174 ], [ 520275.642359628574923, 6764079.398223851807415 ], [ 522313.716060987033416, 6764648.433183798566461 ], [ 524992.906098789419048, 6765229.171151265501976 ], [ 526519.821214352501556, 6765491.914257890544832 ], [ 528063.674646313651465, 6765622.376094594597816 ], [ 529613.028043155907653, 6765619.590074577368796 ], [ 530398.828175636823289, 6765584.323964782059193 ], [ 532317.745968487695791, 6765394.818275508470833 ], [ 534205.381524884607643, 6765001.130698598921299 ], [ 536040.072724271798506, 6764407.779112372547388 ], [ 536825.155147618381307, 6764106.540944637730718 ], [ 538452.589674399234354, 6763387.925104029476643 ], [ 540001.13784416904673, 6762512.168042262084782 ], [ 540404.020053738844581, 6762228.441770739853382 ], [ 540738.889403219800442, 6762161.271720575168729 ], [ 542468.835974009940401, 6761628.868953973054886 ], [ 544136.567356025800109, 6760925.420390740036964 ], [ 544389.0032471352024, 6760787.594053945504129 ], [ 544536.424959470750764, 6760766.768368072807789 ], [ 546265.275308242533356, 6760345.080688966438174 ], [ 547944.038487983169034, 6759754.743316351436079 ], [ 548518.706166247022338, 6759486.270844479091465 ], [ 548592.36534326907713, 6759471.237764236517251 ], [ 550314.209498035605066, 6758935.692802216857672 ], [ 551973.831156213069335, 6758230.560437795706093 ], [ 552162.150267738732509, 6758127.195288371294737 ], [ 552390.906413748394698, 6758109.981004910543561 ], [ 554156.604070926317945, 6757798.222049187868834 ], [ 555882.525409566005692, 6757312.344085223972797 ], [ 556472.775416026590392, 6757080.640662625432014 ], [ 556927.252708117710426, 6756943.810911378823221 ], [ 557182.689064195612445, 6756837.76017845608294 ], [ 557571.441164878895506, 6756716.809999890625477 ], [ 559198.752527829725295, 6756029.144388625398278 ], [ 560750.815238089067861, 6755185.26785243768245 ], [ 562212.678590460913256, 6754193.309282789938152 ], [ 563570.260751863592304, 6753062.82401532959193 ], [ 564810.484408770920709, 6751804.701785276643932 ], [ 565921.402738320059143, 6750431.061828818172216 ], [ 566892.314489632262848, 6748955.136140963993967 ], [ 567713.867066791746765, 6747391.14201441872865 ], [ 567911.687449604156427, 6746903.649426429532468 ], [ 567984.541519973427057, 6746780.69836710114032 ], [ 568124.861647344427183, 6746478.570590567775071 ], [ 568133.158456787467003, 6746465.551264693029225 ], [ 568939.966985513921827, 6744869.190681547857821 ], [ 569167.430996868875809, 6744280.206864620558918 ], [ 569803.374754358432256, 6743588.797244833782315 ], [ 570865.356548724579625, 6742178.789664948359132 ], [ 571784.1234502249863, 6740671.542476326227188 ], [ 572045.006415116135031, 6740130.531716071069241 ], [ 572062.400284075643867, 6740116.741034166887403 ], [ 573320.825967557146214, 6738902.439035695046186 ], [ 573869.630080586532131, 6738258.817599281668663 ], [ 573892.739515314809978, 6738236.638491575606167 ], [ 575012.897802514140494, 6736934.690751292742789 ], [ 576003.870512538007461, 6735531.909373174421489 ], [ 576856.635442906059325, 6734041.065826606936753 ], [ 577563.428688727668487, 6732475.733333342708647 ], [ 578117.815328323049471, 6730850.163291589356959 ], [ 578514.748009263304994, 6729179.155525716021657 ], [ 578750.61290143779479, 6727477.923542873002589 ], [ 578823.262598773813806, 6725761.956023284234107 ], [ 578822.062705334508792, 6725540.346484881825745 ], [ 578793.386600944562815, 6725001.754501515068114 ], [ 578962.847266724333167, 6724248.745028092525899 ], [ 579028.48769512353465, 6723860.555637576617301 ], [ 579226.062609779066406, 6722257.447490910068154 ], [ 579237.002098265103996, 6721924.665351533330977 ], [ 579244.722448251908645, 6721898.759742203168571 ], [ 579578.62194204388652, 6720188.207856349647045 ], [ 579745.527658703969792, 6718453.382473810575902 ], [ 579743.874869179329835, 6716710.547457396052778 ], [ 579573.679068252444267, 6714976.041759653948247 ], [ 579236.535829278756864, 6713266.126246370375156 ], [ 578735.605845801881514, 6711596.831252126023173 ], [ 578654.765369005966932, 6711399.265119776129723 ], [ 578771.519568397663534, 6710231.053993293084204 ], [ 578768.369447513017803, 6709449.92709241528064 ], [ 578771.107855871319771, 6709432.576081960462034 ], [ 579847.683403619332239, 6708385.537358467467129 ], [ 580317.867384007549845, 6707872.965922759845853 ], [ 581538.885049665812403, 6706390.27088213339448 ], [ 582594.96076666098088, 6704785.910323118790984 ], [ 583474.069389584823512, 6703078.152508775703609 ], [ 584166.200832181377336, 6701286.44304864667356 ], [ 584462.376133367419243, 6700181.45278606377542 ], [ 584640.063044457696378, 6699842.034386931918561 ], [ 584996.049917255411856, 6698951.329069402068853 ], [ 585256.588119399966672, 6698421.524153733626008 ], [ 586078.492115000612102, 6697580.708778693340719 ], [ 586433.117125006392598, 6697141.898524072952569 ], [ 587316.844072830164805, 6696600.671139356680214 ], [ 587561.876886427868158, 6696414.315382197499275 ], [ 588213.532827209332027, 6696029.374992688186467 ], [ 588520.762892002705485, 6695827.718147004023194 ], [ 590044.331100793322548, 6694708.97790277376771 ], [ 591442.181058203568682, 6693436.635449868626893 ], [ 592698.898276605526917, 6692024.721269095316529 ], [ 593800.624579080846161, 6690488.804938257671893 ], [ 593946.989818744943477, 6690231.498180620372295 ], [ 594271.722719354671426, 6689900.105680122971535 ], [ 595510.575600763899274, 6688496.773916962556541 ], [ 596596.986227871268056, 6686972.369623941369355 ], [ 597519.204947358230129, 6685343.379405217245221 ], [ 598267.257859883480705, 6683627.420973514206707 ], [ 598463.430017938138917, 6683008.747672144323587 ], [ 598572.852642624988221, 6682749.731982093304396 ], [ 599083.569167394656688, 6681129.064320083707571 ], [ 599439.186479366151616, 6679467.459262682124972 ], [ 599621.893465298344381, 6677904.943033875897527 ], [ 599730.950788403744809, 6677333.535135628655553 ], [ 599890.61941489786841, 6675604.02107319701463 ], [ 599882.853566972888075, 6673867.1697110934183 ], [ 599707.725551215466112, 6672139.152598756365478 ], [ 599366.865956993424334, 6670436.059031314216554 ], [ 598863.448474295437336, 6668773.746244697831571 ], [ 598202.160344002884813, 6667167.691771409474313 ], [ 597389.158715728553943, 6665632.849331659264863 ], [ 596813.206086368183605, 6664661.886161115951836 ], [ 595874.47470557782799, 6663237.746090423315763 ], [ 594805.156995589146391, 6661908.855131263844669 ], [ 593614.855005493620411, 6660687.146197594702244 ], [ 593362.613837358425371, 6660473.119724038057029 ], [ 592424.013096171431243, 6659462.937800534069538 ], [ 591703.117854695068672, 6658825.886464353650808 ], [ 590489.556940627750009, 6657686.377010500058532 ], [ 589045.192927271709777, 6656581.79263289552182 ], [ 587496.758156136726029, 6655628.564533295109868 ], [ 585860.05380213377066, 6654836.4200339037925 ], [ 584151.781796953640878, 6654213.442661405541003 ], [ 583480.8414406478405, 6654043.099370211362839 ], [ 582075.605170374503359, 6653607.630097693763673 ], [ 580397.999420960084535, 6653258.347019894979894 ], [ 579606.858450499246828, 6653170.940096346661448 ], [ 579125.662939130561426, 6652944.363769395276904 ], [ 578923.632055715890601, 6652871.036380110308528 ], [ 578497.16170536307618, 6652690.08975172508508 ], [ 577745.545190104981884, 6652311.34147132281214 ], [ 576837.314902318874374, 6651907.087769980542362 ], [ 575419.148340136511251, 6651346.564728739671409 ], [ 573958.627283535781316, 6650908.089277795515954 ], [ 572466.234047558624297, 6650594.808402120135725 ], [ 572273.34260409581475, 6650562.779988870956004 ], [ 570910.664375805528834, 6650406.966258279979229 ], [ 569808.076336512109265, 6650209.418715617619455 ], [ 569410.650187138584442, 6650179.011261122301221 ], [ 568555.511995008680969, 6649980.222520723007619 ], [ 566573.824703349149786, 6649746.312113386578858 ], [ 564620.18143205891829, 6649733.461895591579378 ], [ 564043.549794311169535, 6649682.950491306371987 ], [ 562329.055818058433942, 6649696.519916133023798 ], [ 561874.480173875926994, 6649743.600785988382995 ], [ 560382.099579825997353, 6649091.098704025149345 ], [ 558730.898682120605372, 6648551.888131387531757 ], [ 558306.945677056675777, 6648457.484126967377961 ], [ 557804.314130072132684, 6648302.375598039478064 ], [ 556875.916172869154252, 6647857.030318567529321 ], [ 555281.490987033699639, 6647269.882144507952034 ], [ 553745.593607691349462, 6646863.912582957185805 ], [ 552754.456023417762481, 6646469.431412000209093 ], [ 551082.698616875568405, 6645984.989751690998673 ], [ 549371.967887379229069, 6645664.276609258726239 ], [ 547638.259465827955864, 6645510.290708559565246 ], [ 545897.783828551997431, 6645524.471844640560448 ], [ 545518.299931730260141, 6645564.419338244944811 ], [ 545238.576949137495831, 6645380.019355290569365 ], [ 544068.624426116235554, 6644764.242979628965259 ], [ 543190.936179324518889, 6644085.01489616651088 ], [ 541645.448500518221408, 6643121.673353591933846 ], [ 540010.52997946110554, 6642319.426183140836656 ], [ 538302.9161219780799, 6641686.485422307625413 ], [ 536540.08656469383277, 6641229.330038486048579 ], [ 534740.086148341652006, 6640952.639608358033001 ], [ 533023.381987622124143, 6640864.486294868402183 ], [ 532759.788893184624612, 6640797.901450669392943 ], [ 530976.590385363902897, 6640533.435660623945296 ], [ 529175.88160188915208, 6640448.659782483242452 ], [ 527375.723757857922465, 6640544.424123293720186 ], [ 525594.172542412998155, 6640819.768161079846323 ], [ 523849.097019117092714, 6641271.93017893563956 ], [ 522158.00039819336962, 6641896.37496520485729 ], [ 521975.332079748040996, 6641974.429739663377404 ], [ 520331.595515759428963, 6642777.922376012429595 ], [ 518777.915683076891582, 6643744.125918738543987 ], [ 517330.34473327070009, 6644863.057844164781272 ], [ 516307.616685748798773, 6645834.587000667117536 ], [ 515767.339907539251726, 6645995.259255382232368 ], [ 514252.661946630803868, 6646599.700031436048448 ], [ 512798.907739308313467, 6647338.751235149800777 ], [ 511418.010624302842189, 6648206.346264405176044 ], [ 511129.532493672391865, 6648406.373012317344546 ], [ 509713.691423852520529, 6649495.989479148760438 ], [ 508478.914283136313315, 6650658.393119822256267 ], [ 507129.330559909460135, 6650743.743892710655928 ], [ 505448.272797636396717, 6651011.169682965613902 ], [ 503799.992951568565331, 6651436.193567517213523 ], [ 502882.730144807777833, 6651767.867575380019844 ], [ 502088.326141222438309, 6652015.606809129938483 ], [ 501571.331830420880578, 6652235.26995365973562 ], [ 501143.980390803946648, 6652303.932318550534546 ], [ 500951.648096156015527, 6652240.372661722823977 ], [ 499858.32082001271192, 6651990.525772471912205 ], [ 499708.361291316803545, 6651903.280734864063561 ], [ 499409.860403483500704, 6651747.908815025351942 ], [ 497863.691792194207665, 6651033.9433064898476 ], [ 496256.968200138304383, 6650469.298798285424709 ], [ 494604.072700139076915, 6650059.029876726679504 ], [ 492919.801686836639419, 6649806.809188312850893 ], [ 491219.232422280241735, 6649714.894562920555472 ], [ 489517.588067251315806, 6649784.108802154660225 ], [ 487830.101406528963707, 6650013.832313791848719 ], [ 487531.432824793970212, 6650068.991696069948375 ], [ 485854.99697058275342, 6650462.36193061619997 ], [ 484223.820971759560052, 6651014.124719843268394 ], [ 483472.544523972843308, 6651351.319744236767292 ], [ 483341.830349721072707, 6651392.561642250977457 ], [ 481749.466851670003962, 6652069.150755608454347 ], [ 481273.869862381077837, 6652327.699116791598499 ], [ 480787.845787175523583, 6652542.640706093050539 ], [ 479186.266918835463002, 6653457.295295273885131 ], [ 477686.691749575780705, 6654531.03744344599545 ], [ 477233.956488751689903, 6654931.2623002352193 ], [ 476984.120959426392801, 6655113.145628180354834 ], [ 475622.006277050124481, 6656334.487572455778718 ], [ 474390.901894193433691, 6657687.7852305136621 ], [ 473303.52554679865716, 6659159.058567429892719 ], [ 472371.110210272949189, 6660733.108818534761667 ], [ 471948.904065044305753, 6661536.334929756820202 ], [ 471845.143081071611959, 6661626.448626199737191 ], [ 471583.997097502171528, 6661878.52881321310997 ], [ 470023.996776141284499, 6662656.057065995410085 ], [ 468508.630979801993817, 6663610.138108059763908 ], [ 467936.426553648663685, 6664011.482947329059243 ], [ 467522.155282858177088, 6664266.437917213886976 ], [ 466101.098321773635689, 6665348.912870596162975 ], [ 464794.335632417409215, 6666566.913767580874264 ], [ 464699.381817145855166, 6666674.902639307081699 ], [ 464176.636213813675568, 6666772.728550015948713 ], [ 462490.698814289702568, 6667262.219172647222877 ], [ 460860.463715021091048, 6667913.617288910783827 ], [ 459301.438205291284248, 6668720.726602924987674 ], [ 457828.45220723253442, 6669675.869646809995174 ], [ 456455.517209121841006, 6670769.960811073891819 ], [ 455195.692983867193107, 6671992.592769686132669 ], [ 454060.963360497844405, 6673332.135477704927325 ], [ 453062.122230358596426, 6674775.846799784339964 ], [ 452208.670872350980062, 6676309.993717218749225 ], [ 451508.727573894895613, 6677919.982960568740964 ], [ 450968.950407323543914, 6679590.499825256876647 ], [ 450594.473896285926457, 6681305.653849663212895 ], [ 450388.860174604982603, 6683049.129970008507371 ], [ 450354.065102183492854, 6684804.343714170157909 ], [ 450490.419660273066256, 6686554.598958197981119 ] ] ] } }
]
}
