{
"type": "FeatureCollection",
"name": "bairros",
"crs": { "type": "name", "properties": { "name": "urn:ogc:def:crs:OGC:1.3:CRS84" } },
"features": [
{ "type": "Feature", "properties": { "CD_BAIRRO": "4322400010", "NM_BAIRRO": "Aeroporto", "populacao_2022": 425, "area_km2": 4.36, "densidade_hab_km2": 97.5, "setores_2022": 1, "enderecos_domicilio_particular": 172, "rotulo_lon": -57.038812, "rotulo_lat": -29.783609 }, "geometry": { "type": "Polygon", "coordinates": [ [ [ -57.028203099999985, -29.779619299999979 ], [ -57.028132199999959, -29.780084799999937 ], [ -57.027925599999946, -29.781105499999963 ], [ -57.028048899999987, -29.782048599999936 ], [ -57.028721799999971, -29.783420199999966 ], [ -57.029323, -29.783803699999972 ], [ -57.029833199999985, -29.7841519 ], [ -57.030278199999941, -29.78445319999998 ], [ -57.030655799999977, -29.784570499999965 ], [ -57.036607799999956, -29.795469199999953 ], [ -57.03676489999998, -29.795078399999966 ], [ -57.037046099999941, -29.794506099999975 ], [ -57.037325399999986, -29.794311099999963 ], [ -57.037748599999986, -29.794126899999984 ], [ -57.037854099999947, -29.794034799999967 ], [ -57.038535799999977, -29.793747599999953 ], [ -57.039299399999948, -29.793764499999952 ], [ -57.04018, -29.793757899999942 ], [ -57.041448399999979, -29.793388399999969 ], [ -57.043457699999976, -29.793203699999939 ], [ -57.044674499999985, -29.793145499999973 ], [ -57.046095699999967, -29.793277099999958 ], [ -57.046767599999953, -29.78752379999997 ], [ -57.046901099999957, -29.786849499999956 ], [ -57.048907, -29.783023 ], [ -57.053635399999962, -29.782046 ], [ -57.059797599999968, -29.780813499999958 ], [ -57.060817799999938, -29.780650599999948 ], [ -57.062300199999981, -29.780349499999943 ], [ -57.063581499999941, -29.78005979999994 ], [ -57.062672199999952, -29.779411799999931 ], [ -57.061306, -29.778294499999955 ], [ -57.060567299999946, -29.77753429999996 ], [ -57.059483199999931, -29.77603189999996 ], [ -57.059151799999938, -29.77540949999997 ], [ -57.058845699999949, -29.774743599999962 ], [ -57.058580799999959, -29.774081 ], [ -57.058427299999948, -29.773491399999951 ], [ -57.05837889999998, -29.773257499999939 ], [ -57.057718799999975, -29.772342199999969 ], [ -57.057126899999957, -29.771846299999932 ], [ -57.056694899999968, -29.771710299999935 ], [ -57.055857799999956, -29.771698199999946 ], [ -57.047778499999936, -29.773649099999936 ], [ -57.046357399999977, -29.773956799999951 ], [ -57.043009599999948, -29.77473329999998 ], [ -57.037067699999966, -29.776120399999964 ], [ -57.0366188, -29.77624579999997 ], [ -57.033939499999974, -29.776929099999958 ], [ -57.033009599999957, -29.777236099999978 ], [ -57.032167399999935, -29.777560699999981 ], [ -57.030983099999958, -29.77804319999996 ], [ -57.029895299999964, -29.778534499999981 ], [ -57.029245699999933, -29.778876 ], [ -57.028203099999985, -29.779619299999979 ] ] ] } },
{ "type": "Feature", "properties": { "CD_BAIRRO": "4322400021", "NM_BAIRRO": "Alexandre Zachia", "populacao_2022": 2257, "area_km2": 0.434, "densidade_hab_km2": 5200.5, "setores_2022": 2, "enderecos_domicilio_particular": 886, "rotulo_lon": -57.092971, "rotulo_lat": -29.776843 }, "geometry": { "type": "Polygon", "coordinates": [ [ [ -57.087774, -29.775058799999943 ], [ -57.087757599999975, -29.776470199999949 ], [ -57.087777199999948, -29.777944199999983 ], [ -57.09249, -29.777960799999956 ], [ -57.097242699999981, -29.778052899999974 ], [ -57.0973168, -29.77522719999995 ], [ -57.097344799999973, -29.773754 ], [ -57.094187599999948, -29.773762 ], [ -57.092569199999957, -29.773718799999983 ], [ -57.091004899999973, -29.773699299999969 ], [ -57.089415, -29.773706499999943 ], [ -57.087790499999983, -29.773680799999966 ], [ -57.087774, -29.775058799999943 ] ] ] } },
{ "type": "Feature", "properties": { "CD_BAIRRO": "4322400026", "NM_BAIRRO": "Bela Vista", "populacao_2022": 4504, "area_km2": 2.3013, "densidade_hab_km2": 1957.2, "setores_2022": 8, "enderecos_domicilio_particular": 1833, "rotulo_lon": -57.097789, "rotulo_lat": -29.755533 }, "geometry": { "type": "Polygon", "coordinates": [ [ [ -57.1030583, -29.750524899999959 ], [ -57.10305459999995, -29.750522499999924 ], [ -57.101968799999952, -29.749804899999958 ], [ -57.099722099999951, -29.748320099999948 ], [ -57.095105599999954, -29.744563799999987 ], [ -57.091423799999973, -29.749561299999975 ], [ -57.091336099999978, -29.752721599999973 ], [ -57.091317199999935, -29.754162 ], [ -57.091295, -29.755600699999942 ], [ -57.091251699999987, -29.759777799999942 ], [ -57.091222199999947, -29.76118039999993 ], [ -57.092175199999986, -29.761183 ], [ -57.092741099999955, -29.761208499999945 ], [ -57.094418499999961, -29.761208 ], [ -57.096015099999931, -29.761225799999973 ], [ -57.097571199999948, -29.761303099999967 ], [ -57.09865979999995, -29.761304699999982 ], [ -57.099189299999978, -29.761305499999928 ], [ -57.09921, -29.761305599999957 ], [ -57.099972699999967, -29.761306699999977 ], [ -57.100724499999956, -29.761307799999933 ], [ -57.102387099999987, -29.761310299999938 ], [ -57.10245649999996, -29.76130679999995 ], [ -57.105723399999931, -29.761142499999949 ], [ -57.1110058, -29.757018099999982 ], [ -57.111822199999949, -29.756316899999941 ], [ -57.106311, -29.752674599999978 ], [ -57.106295799999941, -29.75266459999995 ], [ -57.1030583, -29.750524899999959 ] ] ] } },
{ "type": "Feature", "properties": { "CD_BAIRRO": "4322400024", "NM_BAIRRO": "Cabo Luiz Quevedo", "populacao_2022": 7940, "area_km2": 4.1234, "densidade_hab_km2": 1925.6, "setores_2022": 9, "enderecos_domicilio_particular": 2826, "rotulo_lon": -57.104943, "rotulo_lat": -29.775662 }, "geometry": { "type": "Polygon", "coordinates": [ [ [ -57.097242699999981, -29.778052899999974 ], [ -57.097190499999961, -29.780847299999945 ], [ -57.098812499999951, -29.780870799999942 ], [ -57.103050099999962, -29.780909 ], [ -57.105170899999962, -29.78095929999995 ], [ -57.105961099999945, -29.780996299999966 ], [ -57.106759799999963, -29.780963899999964 ], [ -57.10680259999998, -29.779582599999955 ], [ -57.108401399999941, -29.779596899999952 ], [ -57.109444899999971, -29.779627899999969 ], [ -57.109987899999965, -29.779637799999922 ], [ -57.111544599999945, -29.77961629999993 ], [ -57.127202899999986, -29.779747099999952 ], [ -57.127820199999974, -29.779765499999943 ], [ -57.127857199999937, -29.779476699999972 ], [ -57.128321699999958, -29.778605399999957 ], [ -57.1287698, -29.777946099999955 ], [ -57.129432099999974, -29.777251499999984 ], [ -57.129851199999962, -29.776514599999928 ], [ -57.133635899999945, -29.77112539999996 ], [ -57.133981399999982, -29.770633499999974 ], [ -57.133979099999976, -29.770632899999946 ], [ -57.131905399999937, -29.770160099999941 ], [ -57.123991299999943, -29.764531 ], [ -57.122351299999934, -29.765812399999959 ], [ -57.117530899999963, -29.76957909999993 ], [ -57.11283149999997, -29.769441199999953 ], [ -57.108434399999965, -29.769756399999949 ], [ -57.107022899999947, -29.769706799999938 ], [ -57.100521199999946, -29.769593299999944 ], [ -57.100443499999983, -29.769592899999964 ], [ -57.097461499999952, -29.769579199999946 ], [ -57.097334, -29.772403599999947 ], [ -57.097344799999973, -29.773754 ], [ -57.0973168, -29.77522719999995 ], [ -57.097242699999981, -29.778052899999974 ] ] ] } },
{ "type": "Feature", "properties": { "CD_BAIRRO": "4322400001", "NM_BAIRRO": "Centro", "populacao_2022": 8534, "area_km2": 1.8355, "densidade_hab_km2": 4649.4, "setores_2022": 11, "enderecos_domicilio_particular": 4245, "rotulo_lon": -57.086161, "rotulo_lat": -29.755192 }, "geometry": { "type": "Polygon", "coordinates": [ [ [ -57.079976, -29.755425199999934 ], [ -57.079938499999969, -29.756873599999949 ], [ -57.079918899999939, -29.758285499999939 ], [ -57.079912499999978, -29.761090299999971 ], [ -57.079936699999962, -29.76244569999994 ], [ -57.083144, -29.762496699999936 ], [ -57.084788899999978, -29.762491099999973 ], [ -57.086348, -29.762535499999963 ], [ -57.087969699999974, -29.762522799999935 ], [ -57.089581499999952, -29.762550799999925 ], [ -57.091216599999939, -29.762551799999979 ], [ -57.091222199999947, -29.76118039999993 ], [ -57.091251699999987, -29.759777799999942 ], [ -57.091295, -29.755600699999942 ], [ -57.091317199999935, -29.754162 ], [ -57.091336099999978, -29.752721599999973 ], [ -57.091423799999973, -29.749561299999975 ], [ -57.095105599999954, -29.744563799999987 ], [ -57.093660599999964, -29.743388 ], [ -57.090106, -29.747468199999958 ], [ -57.089625699999942, -29.748399699999933 ], [ -57.086671299999978, -29.748334899999978 ], [ -57.085660699999949, -29.748353299999952 ], [ -57.085663799999963, -29.748552 ], [ -57.083316499999974, -29.748550199999951 ], [ -57.080128099999968, -29.748505199999943 ], [ -57.080106099999966, -29.749633199999952 ], [ -57.080011799999966, -29.754042799999979 ], [ -57.079976, -29.755425199999934 ] ] ] } },
{ "type": "Feature", "properties": { "CD_BAIRRO": "4322400017", "NM_BAIRRO": "Cidade Alegria", "populacao_2022": 3610, "area_km2": 0.8639, "densidade_hab_km2": 4178.7, "setores_2022": 6, "enderecos_domicilio_particular": 1296, "rotulo_lon": -57.06529, "rotulo_lat": -29.770156 }, "geometry": { "type": "Polygon", "coordinates": [ [ [ -57.0674451, -29.771646199999971 ], [ -57.067802699999959, -29.770801399999982 ], [ -57.06834, -29.769956699999963 ], [ -57.068762599999957, -29.769391299999938 ], [ -57.069388, -29.768734599999966 ], [ -57.070237199999951, -29.767702599999947 ], [ -57.070250899999962, -29.766867599999959 ], [ -57.070246099999963, -29.76652629999996 ], [ -57.069214599999952, -29.766445599999944 ], [ -57.068535899999979, -29.766477199999933 ], [ -57.0667069, -29.766098699999926 ], [ -57.065848899999935, -29.765832899999957 ], [ -57.064968299999975, -29.766905899999976 ], [ -57.064922499999966, -29.766958599999956 ], [ -57.064465899999959, -29.767482799999982 ], [ -57.064262, -29.767716899999975 ], [ -57.064167699999985, -29.767835699999985 ], [ -57.063850299999956, -29.76808769999996 ], [ -57.06327129999994, -29.768321299999968 ], [ -57.062622699999963, -29.768439199999928 ], [ -57.061152899999968, -29.768441399999983 ], [ -57.061151699999982, -29.768441399999983 ], [ -57.061022399999956, -29.769785 ], [ -57.060925299999951, -29.771570399999966 ], [ -57.060865, -29.772068499999939 ], [ -57.060936499999968, -29.772617599999933 ], [ -57.061194299999954, -29.773397599999953 ], [ -57.061358299999938, -29.773960499999923 ], [ -57.0615509, -29.774361799999955 ], [ -57.06173119999994, -29.774597399999944 ], [ -57.060765099999969, -29.775267699999972 ], [ -57.059483199999931, -29.77603189999996 ], [ -57.060567299999946, -29.77753429999996 ], [ -57.061306, -29.778294499999955 ], [ -57.062672199999952, -29.779411799999931 ], [ -57.063581499999941, -29.78005979999994 ], [ -57.064477299999965, -29.779830799999964 ], [ -57.065558299999964, -29.779656899999956 ], [ -57.06613409999995, -29.777006899999954 ], [ -57.067195599999934, -29.773405099999938 ], [ -57.067446199999949, -29.771833799999953 ], [ -57.0674451, -29.771646199999971 ] ] ] } },
{ "type": "Feature", "properties": { "CD_BAIRRO": "4322400007", "NM_BAIRRO": "Cidade Nova", "populacao_2022": 4477, "area_km2": 0.7504, "densidade_hab_km2": 5966.2, "setores_2022": 6, "enderecos_domicilio_particular": 1632, "rotulo_lon": -57.062494, "rotulo_lat": -29.764073 }, "geometry": { "type": "Polygon", "coordinates": [ [ [ -57.064465899999959, -29.767482799999982 ], [ -57.064922499999966, -29.766958599999956 ], [ -57.064968299999975, -29.766905899999976 ], [ -57.065848899999935, -29.765832899999957 ], [ -57.067773599999953, -29.763608799999922 ], [ -57.067063499999961, -29.762346599999944 ], [ -57.067071599999963, -29.760954699999953 ], [ -57.067130599999984, -29.758437299999972 ], [ -57.063854399999968, -29.759315799999964 ], [ -57.062691799999982, -29.759573799999931 ], [ -57.061706299999969, -29.759880799999955 ], [ -57.060776499999974, -29.760253199999966 ], [ -57.060017199999947, -29.760698199999982 ], [ -57.058592, -29.761595899999982 ], [ -57.058415, -29.761928 ], [ -57.058278699999967, -29.762443699999949 ], [ -57.058223299999952, -29.763145799999958 ], [ -57.058225, -29.76358729999998 ], [ -57.058149599999979, -29.76829169999997 ], [ -57.060267099999976, -29.768397299999933 ], [ -57.061151699999982, -29.768441399999983 ], [ -57.061152899999968, -29.768441399999983 ], [ -57.062622699999963, -29.768439199999928 ], [ -57.06327129999994, -29.768321299999968 ], [ -57.063850299999956, -29.76808769999996 ], [ -57.064167699999985, -29.767835699999985 ], [ -57.064262, -29.767716899999975 ], [ -57.064465899999959, -29.767482799999982 ] ] ] } },
{ "type": "Feature", "properties": { "CD_BAIRRO": "4322400009", "NM_BAIRRO": "Distrito Rodoviário", "populacao_2022": 1053, "area_km2": 2.0673, "densidade_hab_km2": 509.4, "setores_2022": 1, "enderecos_domicilio_particular": 358, "rotulo_lon": -57.038839, "rotulo_lat": -29.773144 }, "geometry": { "type": "Polygon", "coordinates": [ [ [ -57.028203099999985, -29.779619299999979 ], [ -57.029245699999933, -29.778876 ], [ -57.029895299999964, -29.778534499999981 ], [ -57.030983099999958, -29.77804319999996 ], [ -57.032167399999935, -29.777560699999981 ], [ -57.033009599999957, -29.777236099999978 ], [ -57.033939499999974, -29.776929099999958 ], [ -57.0366188, -29.77624579999997 ], [ -57.037067699999966, -29.776120399999964 ], [ -57.043009599999948, -29.77473329999998 ], [ -57.046357399999977, -29.773956799999951 ], [ -57.047778499999936, -29.773649099999936 ], [ -57.055857799999956, -29.771698199999946 ], [ -57.056600799999956, -29.771393099999958 ], [ -57.05721189999997, -29.770920699999984 ], [ -57.057743799999969, -29.770185499999975 ], [ -57.058152199999938, -29.769233899999957 ], [ -57.058149599999979, -29.76829169999997 ], [ -57.057090599999981, -29.768231399999937 ], [ -57.056308099999967, -29.768254 ], [ -57.055560799999967, -29.768503299999963 ], [ -57.054885899999931, -29.768810899999945 ], [ -57.054346299999963, -29.7689 ], [ -57.053784399999984, -29.768796799999961 ], [ -57.053205199999979, -29.768907099999989 ], [ -57.052650599999936, -29.769011299999939 ], [ -57.051514299999951, -29.769201499999948 ], [ -57.048580899999934, -29.769129099999937 ], [ -57.04581509999997, -29.768667199999978 ], [ -57.044494799999946, -29.768505299999951 ], [ -57.041266099999973, -29.768001099999935 ], [ -57.038936599999943, -29.767605499999945 ], [ -57.037713199999985, -29.767361899999965 ], [ -57.037193099999968, -29.767290499999948 ], [ -57.034643799999969, -29.766997499999945 ], [ -57.033779799999934, -29.766939 ], [ -57.033659599999964, -29.766899099999936 ], [ -57.033317399999987, -29.766794499999939 ], [ -57.032992399999955, -29.76697779999995 ], [ -57.031893099999934, -29.767909399999954 ], [ -57.031653299999959, -29.768356199999971 ], [ -57.031121699999971, -29.768926699999948 ], [ -57.030656399999941, -29.769498099999964 ], [ -57.030167199999937, -29.769816699999975 ], [ -57.029468, -29.770041599999956 ], [ -57.028993199999945, -29.77019879999995 ], [ -57.028490499999975, -29.770505699999941 ], [ -57.028038599999945, -29.770953399999943 ], [ -57.027996299999984, -29.771352299999926 ], [ -57.027813599999945, -29.772799099999933 ], [ -57.027775399999939, -29.773495399999938 ], [ -57.027775399999939, -29.774377899999934 ], [ -57.027836299999933, -29.7756864 ], [ -57.028203099999985, -29.779619299999979 ] ] ] } },
{ "type": "Feature", "properties": { "CD_BAIRRO": "4322400018", "NM_BAIRRO": "Emílio Brandi", "populacao_2022": 1168, "area_km2": 0.2402, "densidade_hab_km2": 4862.6, "setores_2022": 2, "enderecos_domicilio_particular": 448, "rotulo_lon": -57.05958, "rotulo_lat": -29.771538 }, "geometry": { "type": "Polygon", "coordinates": [ [ [ -57.060925299999951, -29.771570399999966 ], [ -57.061022399999956, -29.769785 ], [ -57.061151699999982, -29.768441399999983 ], [ -57.060267099999976, -29.768397299999933 ], [ -57.058149599999979, -29.76829169999997 ], [ -57.058152199999938, -29.769233899999957 ], [ -57.057743799999969, -29.770185499999975 ], [ -57.05721189999997, -29.770920699999984 ], [ -57.056600799999956, -29.771393099999958 ], [ -57.055857799999956, -29.771698199999946 ], [ -57.056694899999968, -29.771710299999935 ], [ -57.057126899999957, -29.771846299999932 ], [ -57.057718799999975, -29.772342199999969 ], [ -57.05837889999998, -29.773257499999939 ], [ -57.058427299999948, -29.773491399999951 ], [ -57.058580799999959, -29.774081 ], [ -57.058845699999949, -29.774743599999962 ], [ -57.059151799999938, -29.77540949999997 ], [ -57.059483199999931, -29.77603189999996 ], [ -57.060765099999969, -29.775267699999972 ], [ -57.06173119999994, -29.774597399999944 ], [ -57.0615509, -29.774361799999955 ], [ -57.061358299999938, -29.773960499999923 ], [ -57.061194299999954, -29.773397599999953 ], [ -57.060936499999968, -29.772617599999933 ], [ -57.060865, -29.772068499999939 ], [ -57.060925299999951, -29.771570399999966 ] ] ] } },
{ "type": "Feature", "properties": { "CD_BAIRRO": "4322400025", "NM_BAIRRO": "Francisca Tarragô", "populacao_2022": 1570, "area_km2": 2.4903, "densidade_hab_km2": 630.4, "setores_2022": 3, "enderecos_domicilio_particular": 575, "rotulo_lon": -57.105526, "rotulo_lat": -29.763758 }, "geometry": { "type": "Polygon", "coordinates": [ [ [ -57.097566299999983, -29.764017899999928 ], [ -57.097566299999983, -29.764021 ], [ -57.09696629999997, -29.764010299999935 ], [ -57.095941199999977, -29.764078899999955 ], [ -57.095936299999956, -29.765384299999933 ], [ -57.097554499999944, -29.765412499999965 ], [ -57.09754259999994, -29.766822099999949 ], [ -57.097461499999952, -29.769579199999946 ], [ -57.100443499999983, -29.769592899999964 ], [ -57.100521199999946, -29.769593299999944 ], [ -57.107022899999947, -29.769706799999938 ], [ -57.108434399999965, -29.769756399999949 ], [ -57.11283149999997, -29.769441199999953 ], [ -57.117530899999963, -29.76957909999993 ], [ -57.122351299999934, -29.765812399999959 ], [ -57.123991299999943, -29.764531 ], [ -57.123984, -29.764525899999967 ], [ -57.120582499999962, -29.762106499999959 ], [ -57.111857, -29.756339899999933 ], [ -57.111822199999949, -29.756316899999941 ], [ -57.1110058, -29.757018099999982 ], [ -57.105723399999931, -29.761142499999949 ], [ -57.10245649999996, -29.76130679999995 ], [ -57.102387099999987, -29.761310299999938 ], [ -57.100724499999956, -29.761307799999933 ], [ -57.099972699999967, -29.761306699999977 ], [ -57.09921, -29.761305599999957 ], [ -57.099189299999978, -29.761305499999928 ], [ -57.09865979999995, -29.761304699999982 ], [ -57.097571199999948, -29.761303099999967 ], [ -57.097566299999983, -29.764017899999928 ] ] ] } },
{ "type": "Feature", "properties": { "CD_BAIRRO": "4322400015", "NM_BAIRRO": "Ipiranga", "populacao_2022": 6927, "area_km2": 1.2251, "densidade_hab_km2": 5654.2, "setores_2022": 8, "enderecos_domicilio_particular": 2668, "rotulo_lon": -57.072706, "rotulo_lat": -29.774734 }, "geometry": { "type": "Polygon", "coordinates": [ [ [ -57.0754151, -29.777696899999967 ], [ -57.076356699999963, -29.777537399999979 ], [ -57.077336599999967, -29.777322 ], [ -57.076957299999947, -29.775676699999966 ], [ -57.076839399999983, -29.775151899999965 ], [ -57.07664489999997, -29.774430699999982 ], [ -57.076501299999961, -29.773753199999931 ], [ -57.076476799999966, -29.773520699999946 ], [ -57.076552899999967, -29.772813799999941 ], [ -57.076565899999935, -29.772144499999968 ], [ -57.076588, -29.769392099999955 ], [ -57.073429899999951, -29.76940169999995 ], [ -57.072312499999953, -29.768597599999961 ], [ -57.071714399999962, -29.769283499999972 ], [ -57.071292199999959, -29.769873099999977 ], [ -57.070787499999938, -29.770457699999952 ], [ -57.069342099999972, -29.772182499999921 ], [ -57.068850899999973, -29.772734 ], [ -57.067422, -29.774423099999979 ], [ -57.06765, -29.774587399999973 ], [ -57.069976799999949, -29.776097299999947 ], [ -57.068729699999956, -29.777477499999968 ], [ -57.067237699999964, -29.779367799999935 ], [ -57.065558299999964, -29.779656899999956 ], [ -57.064477299999965, -29.779830799999964 ], [ -57.063581499999941, -29.78005979999994 ], [ -57.065100499999971, -29.780855899999946 ], [ -57.065936099999931, -29.781226699999941 ], [ -57.068590499999971, -29.782354899999973 ], [ -57.069857, -29.782904 ], [ -57.071353, -29.783507699999966 ], [ -57.074754, -29.784980799999964 ], [ -57.07737149999997, -29.785892899999961 ], [ -57.077404299999955, -29.785790099999925 ], [ -57.076921499999969, -29.78386 ], [ -57.076660599999968, -29.783873899999943 ], [ -57.075603, -29.783913 ], [ -57.07495629999994, -29.783799099999953 ], [ -57.075115399999959, -29.780792199999951 ], [ -57.075211899999942, -29.779725399999958 ], [ -57.0754151, -29.777696899999967 ] ] ] } },
{ "type": "Feature", "properties": { "CD_BAIRRO": "4322400011", "NM_BAIRRO": "Jardim do Salso", "populacao_2022": 632, "area_km2": 0.9978, "densidade_hab_km2": 633.4, "setores_2022": 1, "enderecos_domicilio_particular": 213, "rotulo_lon": -57.051016, "rotulo_lat": -29.787185 }, "geometry": { "type": "Polygon", "coordinates": [ [ [ -57.046095699999967, -29.793277099999958 ], [ -57.046629099999961, -29.793294699999937 ], [ -57.047581099999945, -29.793386399999964 ], [ -57.048772099999951, -29.793571899999964 ], [ -57.049524599999984, -29.793800099999938 ], [ -57.049663099999975, -29.793635299999956 ], [ -57.052403599999934, -29.790499899999922 ], [ -57.056912399999987, -29.78514609999997 ], [ -57.058826299999964, -29.782774599999982 ], [ -57.05904739999994, -29.782528599999964 ], [ -57.061596299999962, -29.783179099999984 ], [ -57.061715799999945, -29.782930799999978 ], [ -57.062125299999934, -29.781632799999947 ], [ -57.062300199999981, -29.780349499999943 ], [ -57.060817799999938, -29.780650599999948 ], [ -57.059797599999968, -29.780813499999958 ], [ -57.053635399999962, -29.782046 ], [ -57.048907, -29.783023 ], [ -57.046901099999957, -29.786849499999956 ], [ -57.046767599999953, -29.78752379999997 ], [ -57.046095699999967, -29.793277099999958 ] ] ] } },
{ "type": "Feature", "properties": { "CD_BAIRRO": "4322400006", "NM_BAIRRO": "Jóquei Clube", "populacao_2022": 2077, "area_km2": 5.4882, "densidade_hab_km2": 378.4, "setores_2022": 4, "enderecos_domicilio_particular": 763, "rotulo_lon": -57.054138, "rotulo_lat": -29.754167 }, "geometry": { "type": "Polygon", "coordinates": [ [ [ -57.052014, -29.763499199999963 ], [ -57.052175699999964, -29.763486499999942 ], [ -57.053283399999941, -29.763438899999979 ], [ -57.054570399999932, -29.763278699999937 ], [ -57.055013799999983, -29.763146299999953 ], [ -57.055460799999942, -29.763006399999938 ], [ -57.056288, -29.76263519999997 ], [ -57.057591899999977, -29.761905199999941 ], [ -57.058261799999968, -29.761506199999921 ], [ -57.058785499999942, -29.760858199999973 ], [ -57.058983599999983, -29.760389699999951 ], [ -57.05919769999997, -29.759966 ], [ -57.059685499999944, -29.759235899999972 ], [ -57.060446499999962, -29.758441499999943 ], [ -57.061586899999952, -29.757557 ], [ -57.062438499999985, -29.757076699999963 ], [ -57.064195899999959, -29.756285099999957 ], [ -57.0665982, -29.755140799999939 ], [ -57.067299499999933, -29.754711699999969 ], [ -57.06853, -29.75385289999997 ], [ -57.071482399999979, -29.751203299999929 ], [ -57.072117299999945, -29.750574199999964 ], [ -57.073267099999953, -29.749435099999985 ], [ -57.074377799999979, -29.748656499999974 ], [ -57.074834299999964, -29.748466399999984 ], [ -57.075783299999962, -29.748384699999978 ], [ -57.075939899999987, -29.747939799999976 ], [ -57.074408399999982, -29.747955599999955 ], [ -57.073896799999943, -29.747171599999948 ], [ -57.073773799999969, -29.747225899999926 ], [ -57.073500899999942, -29.747389399999975 ], [ -57.073292199999969, -29.747663799999941 ], [ -57.073156899999958, -29.74790309999997 ], [ -57.073048299999982, -29.747937399999959 ], [ -57.072852799999971, -29.747914099999942 ], [ -57.072750499999984, -29.748049499999972 ], [ -57.072742299999959, -29.748050399999947 ], [ -57.072586099999967, -29.748050499999977 ], [ -57.072421799999972, -29.748276199999975 ], [ -57.072331899999945, -29.748364699999975 ], [ -57.072044499999947, -29.748470399999974 ], [ -57.07185839999994, -29.74859959999997 ], [ -57.071675499999969, -29.748811799999952 ], [ -57.071397499999932, -29.749107 ], [ -57.071231099999977, -29.749360699999961 ], [ -57.070935499999962, -29.749630699999948 ], [ -57.070939499999952, -29.749356399999947 ], [ -57.070913599999983, -29.749342799999958 ], [ -57.071021, -29.749043199999953 ], [ -57.071042699999964, -29.749008899999978 ], [ -57.071063199999969, -29.748786799999955 ], [ -57.071077499999944, -29.74856659999994 ], [ -57.071263599999952, -29.748532199999943 ], [ -57.071498299999973, -29.74839309999993 ], [ -57.071523, -29.748208099999943 ], [ -57.071529199999986, -29.748192699999947 ], [ -57.071589199999949, -29.748177399999971 ], [ -57.071739099999945, -29.748124 ], [ -57.071968599999934, -29.747947899999922 ], [ -57.072028499999931, -29.747877499999955 ], [ -57.072268299999962, -29.747687899999953 ], [ -57.07246159999994, -29.747446799999974 ], [ -57.072517199999936, -29.747158 ], [ -57.072488099999987, -29.746933299999974 ], [ -57.072337, -29.74676009999996 ], [ -57.07217559999998, -29.746712299999963 ], [ -57.071945899999946, -29.746663699999946 ], [ -57.071543599999984, -29.74667379999994 ], [ -57.071254099999976, -29.746699299999932 ], [ -57.070909699999959, -29.746722 ], [ -57.070612799999935, -29.746668 ], [ -57.070355199999938, -29.746537299999954 ], [ -57.070134799999956, -29.746387599999931 ], [ -57.070008599999937, -29.746278499999953 ], [ -57.070000199999981, -29.746156599999946 ], [ -57.070053899999948, -29.746031199999944 ], [ -57.070123199999955, -29.745957099999941 ], [ -57.070281299999976, -29.74583789999997 ], [ -57.070472499999937, -29.745695199999947 ], [ -57.070673099999965, -29.745567899999966 ], [ -57.070844699999952, -29.74545769999996 ], [ -57.071141399999931, -29.745251699999987 ], [ -57.071167, -29.74499 ], [ -57.071184399999943, -29.744741799999925 ], [ -57.071181199999955, -29.744532399999972 ], [ -57.071199499999977, -29.744166899999978 ], [ -57.071223099999941, -29.743862799999924 ], [ -57.071213599999965, -29.743557699999936 ], [ -57.071190699999931, -29.743312299999943 ], [ -57.071127399999966, -29.743045199999983 ], [ -57.07100619999995, -29.742701399999923 ], [ -57.070809599999961, -29.742588699999946 ], [ -57.070499299999938, -29.742524799999945 ], [ -57.07013829999994, -29.74250689999996 ], [ -57.069858099999976, -29.74250249999994 ], [ -57.069495199999949, -29.742615499999935 ], [ -57.069216099999949, -29.742883699999936 ], [ -57.069097399999976, -29.74315 ], [ -57.069037499999979, -29.743379299999948 ], [ -57.068949799999984, -29.743620299999975 ], [ -57.068861, -29.743832399999981 ], [ -57.068731899999932, -29.744105899999965 ], [ -57.06864, -29.744325299999957 ], [ -57.068436499999962, -29.744579899999966 ], [ -57.068257599999981, -29.744742399999947 ], [ -57.068084, -29.744894099999954 ], [ -57.067806899999937, -29.745030599999943 ], [ -57.067506, -29.745098399999954 ], [ -57.067058199999963, -29.745082399999941 ], [ -57.066655799999978, -29.74494719999996 ], [ -57.066315399999951, -29.744788499999974 ], [ -57.066068199999961, -29.744640699999941 ], [ -57.065672899999988, -29.744363799999977 ], [ -57.06525709999994, -29.744207899999942 ], [ -57.064993299999969, -29.744125899999968 ], [ -57.064700599999981, -29.744017699999965 ], [ -57.064509199999975, -29.74396 ], [ -57.064395299999944, -29.743822899999941 ], [ -57.064345599999967, -29.743723699999975 ], [ -57.064193599999953, -29.74363169999998 ], [ -57.064033099999961, -29.74340159999997 ], [ -57.063847799999962, -29.743115599999946 ], [ -57.063625299999956, -29.742848599999945 ], [ -57.063498899999956, -29.742566199999938 ], [ -57.063253799999984, -29.742461599999956 ], [ -57.062995199999932, -29.742412099999967 ], [ -57.062570099999967, -29.742369 ], [ -57.062296099999969, -29.742426899999938 ], [ -57.062067599999978, -29.742513599999938 ], [ -57.06171919999997, -29.742636499999943 ], [ -57.061271499999975, -29.742903899999934 ], [ -57.061158799999987, -29.742907499999944 ], [ -57.06090439999997, -29.742886 ], [ -57.060673699999938, -29.742788599999983 ], [ -57.060424399999931, -29.742745399999929 ], [ -57.060100699999964, -29.742730199999972 ], [ -57.059800799999948, -29.742684299999947 ], [ -57.059469799999931, -29.742637499999947 ], [ -57.059154299999932, -29.742506799999944 ], [ -57.058941199999936, -29.742367899999977 ], [ -57.058717699999931, -29.742181199999951 ], [ -57.058487, -29.742035099999953 ], [ -57.058167399999945, -29.741948599999944 ], [ -57.057821, -29.742045299999969 ], [ -57.05756979999996, -29.742196099999941 ], [ -57.057237899999969, -29.74231 ], [ -57.057158299999969, -29.742380399999938 ], [ -57.056559799999945, -29.742909499999939 ], [ -57.055908299999949, -29.743052399999961 ], [ -57.055737699999952, -29.743107499999955 ], [ -57.055572299999938, -29.743196899999933 ], [ -57.055417199999965, -29.743314299999945 ], [ -57.055255899999963, -29.743364 ], [ -57.054823599999963, -29.743191799999963 ], [ -57.054492599999946, -29.743164899999947 ], [ -57.053956899999953, -29.743129899999932 ], [ -57.053421199999946, -29.743145499999972 ], [ -57.053120299999932, -29.743257499999974 ], [ -57.053111, -29.743259299999988 ], [ -57.052750099999969, -29.743347899999954 ], [ -57.052383099999986, -29.743589899999961 ], [ -57.052038799999941, -29.743813 ], [ -57.05152389999995, -29.744064099999942 ], [ -57.051058599999976, -29.744259199999931 ], [ -57.050489899999953, -29.744377599999943 ], [ -57.050076299999944, -29.744492399999949 ], [ -57.049590299999977, -29.744655 ], [ -57.049166399999933, -29.745010799999928 ], [ -57.04888219999998, -29.745353799999968 ], [ -57.04869, -29.74567519999993 ], [ -57.048513299999968, -29.746050699999959 ], [ -57.048341799999946, -29.746452299999927 ], [ -57.048110299999962, -29.746808 ], [ -57.047902499999964, -29.747041799999977 ], [ -57.047662699999933, -29.747243199999968 ], [ -57.047326699999985, -29.747477 ], [ -57.046811899999966, -29.748061099999973 ], [ -57.046760199999937, -29.748101699999957 ], [ -57.046514199999933, -29.748343699999968 ], [ -57.046299199999964, -29.748604599999972 ], [ -57.046145199999955, -29.748976499999969 ], [ -57.046022299999947, -29.749275199999943 ], [ -57.045987299999979, -29.749606499999967 ], [ -57.045939799999985, -29.749768 ], [ -57.045856, -29.749807799999925 ], [ -57.045774399999971, -29.749913399999961 ], [ -57.04574139999994, -29.750114599999954 ], [ -57.045684599999959, -29.750276199999981 ], [ -57.045525399999974, -29.750485599999926 ], [ -57.045288599999935, -29.750658099999953 ], [ -57.045014599999945, -29.750715899999932 ], [ -57.044807699999978, -29.750723199999975 ], [ -57.044561499999986, -29.750668299999958 ], [ -57.044248099999947, -29.750606099999963 ], [ -57.043922299999963, -29.750637799999939 ], [ -57.043604799999969, -29.750608099999955 ], [ -57.043295499999942, -29.750530599999934 ], [ -57.043001799999956, -29.750533399999931 ], [ -57.042748499999959, -29.750646299999978 ], [ -57.042578899999967, -29.750740199999939 ], [ -57.042432, -29.750831399999981 ], [ -57.042315199999962, -29.750966799999954 ], [ -57.042211899999984, -29.751120299999965 ], [ -57.042086799999936, -29.751372099999973 ], [ -57.041985599999975, -29.751679 ], [ -57.041917499999954, -29.751985 ], [ -57.041813099999956, -29.752329699999965 ], [ -57.041665399999943, -29.752642899999952 ], [ -57.041627099999971, -29.752724199999921 ], [ -57.041498899999965, -29.752879399999983 ], [ -57.041374899999937, -29.752944499999952 ], [ -57.040983799999935, -29.75335809999995 ], [ -57.040939599999952, -29.753392199999936 ], [ -57.040736, -29.753655799999933 ], [ -57.040544699999941, -29.753947399999955 ], [ -57.04031729999997, -29.754163099999971 ], [ -57.040166399999976, -29.754391499999937 ], [ -57.040038199999969, -29.754600899999957 ], [ -57.040045499999962, -29.754743499999954 ], [ -57.039730099999986, -29.754823 ], [ -57.03935869999998, -29.754821299999936 ], [ -57.039103299999965, -29.754955 ], [ -57.038917199999958, -29.75522669999998 ], [ -57.038736399999948, -29.755608499999934 ], [ -57.038620699999967, -29.756090499999967 ], [ -57.038547499999936, -29.756607599999935 ], [ -57.038498, -29.756966799999933 ], [ -57.03841529999994, -29.757197 ], [ -57.038141299999957, -29.757449699999942 ], [ -57.037948, -29.75780989999998 ], [ -57.037874699999975, -29.757985 ], [ -57.037761, -29.758229599999932 ], [ -57.03769589999996, -29.75846069999994 ], [ -57.037553199999934, -29.758701699999964 ], [ -57.037549199999944, -29.758962499999942 ], [ -57.037498599999935, -29.759244099999929 ], [ -57.037431399999946, -29.75930279999994 ], [ -57.037487399999975, -29.759543699999934 ], [ -57.037264199999981, -29.760205299999939 ], [ -57.037250799999981, -29.760289199999924 ], [ -57.037166, -29.760426399999965 ], [ -57.036996399999964, -29.760613299999925 ], [ -57.036688299999987, -29.760851599999963 ], [ -57.036523899999963, -29.761090799999987 ], [ -57.036348199999964, -29.761378799999935 ], [ -57.036243799999973, -29.761627899999958 ], [ -57.036178699999937, -29.761807499999971 ], [ -57.036175699999944, -29.762135099999973 ], [ -57.03609, -29.762515099999973 ], [ -57.035867699999983, -29.76289689999993 ], [ -57.035719899999947, -29.763154099999955 ], [ -57.035528599999964, -29.763303099999973 ], [ -57.035259699999983, -29.763538699999973 ], [ -57.035012599999959, -29.763784299999944 ], [ -57.03484919999994, -29.763941299999942 ], [ -57.034637199999963, -29.764126399999952 ], [ -57.034509, -29.764257299999951 ], [ -57.034341499999982, -29.764438699999971 ], [ -57.034291899999971, -29.764608399999929 ], [ -57.034297099999947, -29.764800599999948 ], [ -57.033812899999987, -29.76564709999996 ], [ -57.038169299999936, -29.765165 ], [ -57.040195499999989, -29.764644799999925 ], [ -57.041777399999944, -29.764584099999983 ], [ -57.042841199999941, -29.764501899999974 ], [ -57.044422899999972, -29.764116599999966 ], [ -57.047846899999968, -29.763845 ], [ -57.052014, -29.763499199999963 ] ] ] } },
{ "type": "Feature", "properties": { "CD_BAIRRO": "4322400002", "NM_BAIRRO": "Mascarenhas de Moraes", "populacao_2022": 1905, "area_km2": 0.9763, "densidade_hab_km2": 1951.2, "setores_2022": 3, "enderecos_domicilio_particular": 726, "rotulo_lon": -57.080415, "rotulo_lat": -29.744397 }, "geometry": { "type": "Polygon", "coordinates": [ [ [ -57.080951599999935, -29.742334 ], [ -57.080859499999974, -29.74226619999995 ], [ -57.080577099999971, -29.742228399999927 ], [ -57.080521299999987, -29.742224 ], [ -57.080413599999986, -29.742058899999957 ], [ -57.080387599999938, -29.741925299999927 ], [ -57.080543599999942, -29.741705899999943 ], [ -57.080407899999955, -29.741375699999928 ], [ -57.080224599999951, -29.741127599999974 ], [ -57.080192499999953, -29.74105 ], [ -57.080240099999969, -29.74102379999994 ], [ -57.080455099999938, -29.740989399999933 ], [ -57.080735299999958, -29.740924199999935 ], [ -57.081106599999941, -29.740964599999977 ], [ -57.081346399999973, -29.740708199999972 ], [ -57.081248899999935, -29.740432099999964 ], [ -57.08127049999996, -29.740245299999966 ], [ -57.081199, -29.740052199999973 ], [ -57.081068599999981, -29.739913299999955 ], [ -57.081074699999931, -29.739879 ], [ -57.080894699999931, -29.739740099999949 ], [ -57.080603, -29.739689699999914 ], [ -57.08036409999994, -29.739693499999923 ], [ -57.08036, -29.739688099999967 ], [ -57.080394, -29.739494899999947 ], [ -57.080227399999963, -29.739380399999945 ], [ -57.079882799999957, -29.739174799999937 ], [ -57.079580799999974, -29.739029699999943 ], [ -57.079370699999977, -29.738848399999934 ], [ -57.079012699999964, -29.738633899999957 ], [ -57.078602, -29.738495099999962 ], [ -57.078181, -29.738376199999937 ], [ -57.077819099999942, -29.738375499999957 ], [ -57.07742, -29.738429 ], [ -57.077098499999977, -29.738599799999971 ], [ -57.076809, -29.738660399999961 ], [ -57.07639439999997, -29.738800499999961 ], [ -57.076087299999983, -29.738940599999971 ], [ -57.075886, -29.739311599999944 ], [ -57.075718699999982, -29.739690799999948 ], [ -57.075548499999968, -29.740300099999953 ], [ -57.075434199999961, -29.740958 ], [ -57.07535809999996, -29.741438199999951 ], [ -57.075277699999958, -29.741778499999945 ], [ -57.075032799999974, -29.742049399999928 ], [ -57.074827099999936, -29.742254399999979 ], [ -57.074749699999984, -29.742445699999951 ], [ -57.074738399999944, -29.742512499999975 ], [ -57.074686799999938, -29.742639799999942 ], [ -57.074658, -29.742884399999976 ], [ -57.074611599999969, -29.743111799999951 ], [ -57.074545799999953, -29.743566699999977 ], [ -57.074556299999983, -29.743798699999953 ], [ -57.074640099999954, -29.743934 ], [ -57.074640199999976, -29.744026099999925 ], [ -57.074549299999944, -29.744120899999924 ], [ -57.074589899999978, -29.744469199999969 ], [ -57.074673899999944, -29.744865299999958 ], [ -57.074641, -29.745089199999942 ], [ -57.074615399999971, -29.745393299999932 ], [ -57.074657899999977, -29.745633399999978 ], [ -57.074648699999955, -29.745697499999942 ], [ -57.074536, -29.745733599999923 ], [ -57.074483399999963, -29.745956599999939 ], [ -57.074662399999966, -29.746120699999935 ], [ -57.074786599999982, -29.746175699999977 ], [ -57.074861099999964, -29.746240599999961 ], [ -57.075093799999934, -29.746258599999969 ], [ -57.075263399999983, -29.746242199999976 ], [ -57.075291399999969, -29.74627739999994 ], [ -57.075221099999965, -29.746320799999982 ], [ -57.075196399999982, -29.746465199999932 ], [ -57.075172599999973, -29.746460699999943 ], [ -57.074906799999951, -29.746492399999962 ], [ -57.074892599999941, -29.746854299999939 ], [ -57.074908099999959, -29.746921099999955 ], [ -57.074816099999964, -29.746915699999931 ], [ -57.074816099999964, -29.746889599999971 ], [ -57.074696, -29.746733499999948 ], [ -57.074499499999945, -29.74669479999994 ], [ -57.07443539999997, -29.746721 ], [ -57.074319599999967, -29.746757199999934 ], [ -57.074200699999949, -29.746808699999971 ], [ -57.073916299999951, -29.74682509999997 ], [ -57.07387609999995, -29.747088599999973 ], [ -57.073896799999943, -29.747171599999948 ], [ -57.074408399999982, -29.747955599999955 ], [ -57.075939899999987, -29.747939799999976 ], [ -57.075783299999962, -29.748384699999978 ], [ -57.076904599999978, -29.748255899999947 ], [ -57.079884799999952, -29.748273299999948 ], [ -57.080128099999968, -29.748505199999943 ], [ -57.083316499999974, -29.748550199999951 ], [ -57.085663799999963, -29.748552 ], [ -57.085660699999949, -29.748353299999952 ], [ -57.086671299999978, -29.748334899999978 ], [ -57.089625699999942, -29.748399699999933 ], [ -57.090106, -29.747468199999958 ], [ -57.090002099999936, -29.747416199999968 ], [ -57.089752699999963, -29.747305399999952 ], [ -57.089591299999938, -29.747223399999939 ], [ -57.089441199999953, -29.747105199999968 ], [ -57.089249799999948, -29.74694559999995 ], [ -57.08901069999996, -29.74681129999993 ], [ -57.088785099999939, -29.746617399999923 ], [ -57.088612199999943, -29.746376599999959 ], [ -57.088405199999954, -29.746184499999977 ], [ -57.088053399999978, -29.745997 ], [ -57.087705699999958, -29.745855599999977 ], [ -57.087312599999962, -29.745687 ], [ -57.086443399999951, -29.745124499999978 ], [ -57.086334699999952, -29.745038799999968 ], [ -57.086083299999984, -29.744883699999949 ], [ -57.085817299999974, -29.744660099999965 ], [ -57.085553399999981, -29.744426499999967 ], [ -57.085250199999962, -29.74428319999998 ], [ -57.084955299999933, -29.744092099999925 ], [ -57.084674799999959, -29.743775499999963 ], [ -57.084322, -29.743600599999972 ], [ -57.083992, -29.743503399999955 ], [ -57.083655799999974, -29.743398 ], [ -57.083185199999946, -29.743315199999977 ], [ -57.082825199999945, -29.743248699999974 ], [ -57.082609, -29.743165799999915 ], [ -57.082393799999977, -29.743018799999952 ], [ -57.082168199999956, -29.74284659999995 ], [ -57.081948899999986, -29.742822299999943 ], [ -57.081573399999968, -29.742740399999949 ], [ -57.081133699999953, -29.742468199999959 ], [ -57.080951599999935, -29.742334 ] ] ] } },
{ "type": "Feature", "properties": { "CD_BAIRRO": "4322400020", "NM_BAIRRO": "Nova Esperança", "populacao_2022": 7063, "area_km2": 1.023, "densidade_hab_km2": 6904.2, "setores_2022": 9, "enderecos_domicilio_particular": 2714, "rotulo_lon": -57.093557, "rotulo_lat": -29.767728 }, "geometry": { "type": "Polygon", "coordinates": [ [ [ -57.089470799999958, -29.769509299999978 ], [ -57.089415, -29.773706499999943 ], [ -57.091004899999973, -29.773699299999969 ], [ -57.092569199999957, -29.773718799999983 ], [ -57.094187599999948, -29.773762 ], [ -57.097344799999973, -29.773754 ], [ -57.097334, -29.772403599999947 ], [ -57.097461499999952, -29.769579199999946 ], [ -57.09754259999994, -29.766822099999949 ], [ -57.097554499999944, -29.765412499999965 ], [ -57.095936299999956, -29.765384299999933 ], [ -57.095941199999977, -29.764078899999955 ], [ -57.09696629999997, -29.764010299999935 ], [ -57.097566299999983, -29.764021 ], [ -57.097566299999983, -29.764017899999928 ], [ -57.097571199999948, -29.761303099999967 ], [ -57.096015099999931, -29.761225799999973 ], [ -57.094418499999961, -29.761208 ], [ -57.092741099999955, -29.761208499999945 ], [ -57.092175199999986, -29.761183 ], [ -57.091222199999947, -29.76118039999993 ], [ -57.091216599999939, -29.762551799999979 ], [ -57.089581499999952, -29.762550799999925 ], [ -57.089600899999937, -29.763088799999942 ], [ -57.089577899999938, -29.763959299999943 ], [ -57.089502, -29.766742499999957 ], [ -57.089470799999958, -29.769509299999978 ] ] ] } },
{ "type": "Feature", "properties": { "CD_BAIRRO": "4322400022", "NM_BAIRRO": "Rio Branco", "populacao_2022": 2257, "area_km2": 1.5954, "densidade_hab_km2": 1414.7, "setores_2022": 3, "enderecos_domicilio_particular": 878, "rotulo_lon": -57.092819, "rotulo_lat": -29.78345 }, "geometry": { "type": "Polygon", "coordinates": [ [ [ -57.097190499999961, -29.780847299999945 ], [ -57.097242699999981, -29.778052899999974 ], [ -57.09249, -29.777960799999956 ], [ -57.087777199999948, -29.777944199999983 ], [ -57.088334, -29.781567799999952 ], [ -57.088795399999981, -29.783671 ], [ -57.089619699999957, -29.786305699999946 ], [ -57.089659099999949, -29.7864317 ], [ -57.090156, -29.78750639999997 ], [ -57.090003299999978, -29.78836 ], [ -57.09020819999995, -29.788756499999973 ], [ -57.090199499999983, -29.790302299999944 ], [ -57.091257, -29.794960599999968 ], [ -57.091844399999957, -29.797669399999965 ], [ -57.092670399999975, -29.798055599999934 ], [ -57.093154899999945, -29.798311499999954 ], [ -57.093951299999958, -29.799063599999958 ], [ -57.094644199999948, -29.799688599999961 ], [ -57.095441599999958, -29.800336899999934 ], [ -57.096462499999973, -29.801009399999938 ], [ -57.096574299999986, -29.80104869999996 ], [ -57.096678499999946, -29.796148099999975 ], [ -57.097190499999961, -29.780847299999945 ] ] ] } },
{ "type": "Feature", "properties": { "CD_BAIRRO": "4322400016", "NM_BAIRRO": "Rui Ramos", "populacao_2022": 1261, "area_km2": 0.2825, "densidade_hab_km2": 4463.7, "setores_2022": 2, "enderecos_domicilio_particular": 492, "rotulo_lon": -57.067719, "rotulo_lat": -29.775343 }, "geometry": { "type": "Polygon", "coordinates": [ [ [ -57.068850899999973, -29.772734 ], [ -57.069342099999972, -29.772182499999921 ], [ -57.070787499999938, -29.770457699999952 ], [ -57.071292199999959, -29.769873099999977 ], [ -57.071714399999962, -29.769283499999972 ], [ -57.072312499999953, -29.768597599999961 ], [ -57.070250899999962, -29.766867599999959 ], [ -57.070237199999951, -29.767702599999947 ], [ -57.069388, -29.768734599999966 ], [ -57.068762599999957, -29.769391299999938 ], [ -57.06834, -29.769956699999963 ], [ -57.067802699999959, -29.770801399999982 ], [ -57.0674451, -29.771646199999971 ], [ -57.067446199999949, -29.771833799999953 ], [ -57.067195599999934, -29.773405099999938 ], [ -57.06613409999995, -29.777006899999954 ], [ -57.065558299999964, -29.779656899999956 ], [ -57.067237699999964, -29.779367799999935 ], [ -57.068729699999956, -29.777477499999968 ], [ -57.069976799999949, -29.776097299999947 ], [ -57.06765, -29.774587399999973 ], [ -57.067422, -29.774423099999979 ], [ -57.068850899999973, -29.772734 ] ] ] } },
{ "type": "Feature", "properties": { "CD_BAIRRO": "4322400013", "NM_BAIRRO": "Salso de Baixo", "populacao_2022": 719, "area_km2": 2.7992, "densidade_hab_km2": 256.9, "setores_2022": 2, "enderecos_domicilio_particular": 250, "rotulo_lon": -57.075311, "rotulo_lat": -29.789397 }, "geometry": { "type": "Polygon", "coordinates": [ [ [ -57.067622699999959, -29.784279799999979 ], [ -57.067935299999931, -29.784759699999942 ], [ -57.068112, -29.785082299999935 ], [ -57.068360799999937, -29.78575649999993 ], [ -57.068745499999977, -29.787769399999945 ], [ -57.068875899999966, -29.793712499999963 ], [ -57.070039899999983, -29.796223399999977 ], [ -57.073998299999978, -29.797773599999971 ], [ -57.074120299999947, -29.79781 ], [ -57.075143, -29.798322 ], [ -57.075664799999977, -29.798784699999946 ], [ -57.07646219999998, -29.799525199999941 ], [ -57.077025299999946, -29.799850599999957 ], [ -57.078244599999948, -29.800294899999983 ], [ -57.079349799999932, -29.800278899999963 ], [ -57.080114299999934, -29.800111399999938 ], [ -57.080643799999962, -29.799747399999944 ], [ -57.081291299999975, -29.799384199999963 ], [ -57.081780599999945, -29.799180899999953 ], [ -57.082256299999983, -29.798827699999951 ], [ -57.082548799999984, -29.798462 ], [ -57.08330559999996, -29.797697199999959 ], [ -57.084020199999941, -29.797173299999933 ], [ -57.084721299999956, -29.796649399999971 ], [ -57.0859885, -29.79617479999996 ], [ -57.086978299999942, -29.795768 ], [ -57.087766899999963, -29.795829799999964 ], [ -57.08892289999995, -29.79614759999998 ], [ -57.088999699999931, -29.796412799999921 ], [ -57.089482399999952, -29.796920599999957 ], [ -57.090556899999967, -29.797421699999969 ], [ -57.091844399999957, -29.797669399999965 ], [ -57.091257, -29.794960599999968 ], [ -57.090199499999983, -29.790302299999944 ], [ -57.09020819999995, -29.788756499999973 ], [ -57.090003299999978, -29.78836 ], [ -57.089278099999945, -29.788318299999961 ], [ -57.088657599999983, -29.788220799999984 ], [ -57.087235099999987, -29.787944499999981 ], [ -57.078667, -29.786280599999934 ], [ -57.07737149999997, -29.785892899999961 ], [ -57.074754, -29.784980799999964 ], [ -57.071353, -29.783507699999966 ], [ -57.069857, -29.782904 ], [ -57.068590499999971, -29.782354899999973 ], [ -57.065936099999931, -29.781226699999941 ], [ -57.067622699999959, -29.784279799999979 ] ] ] } },
{ "type": "Feature", "properties": { "CD_BAIRRO": "4322400004", "NM_BAIRRO": "Santana", "populacao_2022": 4570, "area_km2": 0.8257, "densidade_hab_km2": 5534.7, "setores_2022": 5, "enderecos_domicilio_particular": 1833, "rotulo_lon": -57.072077, "rotulo_lat": -29.756524 }, "geometry": { "type": "Polygon", "coordinates": [ [ [ -57.068745599999943, -29.758232499999959 ], [ -57.070333099999971, -29.758258299999962 ], [ -57.071945899999946, -29.758280699999933 ], [ -57.079918899999939, -29.758285499999939 ], [ -57.079938499999969, -29.756873599999949 ], [ -57.079976, -29.755425199999934 ], [ -57.080011799999966, -29.754042799999979 ], [ -57.078393799999958, -29.754006899999975 ], [ -57.073634199999958, -29.753944299999933 ], [ -57.072012299999983, -29.753951499999971 ], [ -57.068714599999964, -29.753964 ], [ -57.06853, -29.75385289999997 ], [ -57.067299499999933, -29.754711699999969 ], [ -57.0665982, -29.755140799999939 ], [ -57.064195899999959, -29.756285099999957 ], [ -57.062438499999985, -29.757076699999963 ], [ -57.061586899999952, -29.757557 ], [ -57.060446499999962, -29.758441499999943 ], [ -57.059685499999944, -29.759235899999972 ], [ -57.05919769999997, -29.759966 ], [ -57.058983599999983, -29.760389699999951 ], [ -57.058785499999942, -29.760858199999973 ], [ -57.058261799999968, -29.761506199999921 ], [ -57.057591899999977, -29.761905199999941 ], [ -57.0574807, -29.76209839999996 ], [ -57.057459599999959, -29.762258499999966 ], [ -57.057518399999935, -29.762393099999944 ], [ -57.057931, -29.762571899999962 ], [ -57.058278699999967, -29.762443699999949 ], [ -57.058415, -29.761928 ], [ -57.058592, -29.761595899999982 ], [ -57.060017199999947, -29.760698199999982 ], [ -57.060776499999974, -29.760253199999966 ], [ -57.061706299999969, -29.759880799999955 ], [ -57.062691799999982, -29.759573799999931 ], [ -57.063854399999968, -29.759315799999964 ], [ -57.067130599999984, -29.758437299999972 ], [ -57.067745499999944, -29.758257099999977 ], [ -57.068745599999943, -29.758232499999959 ] ] ] } },
{ "type": "Feature", "properties": { "CD_BAIRRO": "4322400003", "NM_BAIRRO": "Santo Antônio", "populacao_2022": 2886, "area_km2": 0.5184, "densidade_hab_km2": 5567.1, "setores_2022": 6, "enderecos_domicilio_particular": 1146, "rotulo_lon": -57.076256, "rotulo_lat": -29.751475 }, "geometry": { "type": "Polygon", "coordinates": [ [ [ -57.073634199999958, -29.753944299999933 ], [ -57.078393799999958, -29.754006899999975 ], [ -57.080011799999966, -29.754042799999979 ], [ -57.080106099999966, -29.749633199999952 ], [ -57.080128099999968, -29.748505199999943 ], [ -57.079884799999952, -29.748273299999948 ], [ -57.076904599999978, -29.748255899999947 ], [ -57.075783299999962, -29.748384699999978 ], [ -57.074834299999964, -29.748466399999984 ], [ -57.074377799999979, -29.748656499999974 ], [ -57.073267099999953, -29.749435099999985 ], [ -57.072117299999945, -29.750574199999964 ], [ -57.071482399999979, -29.751203299999929 ], [ -57.06853, -29.75385289999997 ], [ -57.068714599999964, -29.753964 ], [ -57.072012299999983, -29.753951499999971 ], [ -57.073634199999958, -29.753944299999933 ] ] ] } },
{ "type": "Feature", "properties": { "CD_BAIRRO": "4322400008", "NM_BAIRRO": "Santo Inácio", "populacao_2022": 2953, "area_km2": 1.1037, "densidade_hab_km2": 2675.5, "setores_2022": 2, "enderecos_domicilio_particular": 1056, "rotulo_lon": -57.049211, "rotulo_lat": -29.765578 }, "geometry": { "type": "Polygon", "coordinates": [ [ [ -57.053784399999984, -29.768796799999961 ], [ -57.054346299999963, -29.7689 ], [ -57.054885899999931, -29.768810899999945 ], [ -57.055560799999967, -29.768503299999963 ], [ -57.056308099999967, -29.768254 ], [ -57.057090599999981, -29.768231399999937 ], [ -57.058149599999979, -29.76829169999997 ], [ -57.058225, -29.76358729999998 ], [ -57.058223299999952, -29.763145799999958 ], [ -57.058278699999967, -29.762443699999949 ], [ -57.057931, -29.762571899999962 ], [ -57.057518399999935, -29.762393099999944 ], [ -57.057459599999959, -29.762258499999966 ], [ -57.0574807, -29.76209839999996 ], [ -57.057591899999977, -29.761905199999941 ], [ -57.056288, -29.76263519999997 ], [ -57.055460799999942, -29.763006399999938 ], [ -57.055013799999983, -29.763146299999953 ], [ -57.054570399999932, -29.763278699999937 ], [ -57.053283399999941, -29.763438899999979 ], [ -57.052175699999964, -29.763486499999942 ], [ -57.052014, -29.763499199999963 ], [ -57.047846899999968, -29.763845 ], [ -57.044422899999972, -29.764116599999966 ], [ -57.042841199999941, -29.764501899999974 ], [ -57.041777399999944, -29.764584099999983 ], [ -57.040195499999989, -29.764644799999925 ], [ -57.038169299999936, -29.765165 ], [ -57.033812899999987, -29.76564709999996 ], [ -57.033574599999952, -29.766329499999976 ], [ -57.033474399999932, -29.766706 ], [ -57.033317399999987, -29.766794499999939 ], [ -57.033659599999964, -29.766899099999936 ], [ -57.033779799999934, -29.766939 ], [ -57.034643799999969, -29.766997499999945 ], [ -57.037193099999968, -29.767290499999948 ], [ -57.037713199999985, -29.767361899999965 ], [ -57.038936599999943, -29.767605499999945 ], [ -57.041266099999973, -29.768001099999935 ], [ -57.044494799999946, -29.768505299999951 ], [ -57.04581509999997, -29.768667199999978 ], [ -57.048580899999934, -29.769129099999937 ], [ -57.051514299999951, -29.769201499999948 ], [ -57.052650599999936, -29.769011299999939 ], [ -57.053205199999979, -29.768907099999989 ], [ -57.053784399999984, -29.768796799999961 ] ] ] } },
{ "type": "Feature", "properties": { "CD_BAIRRO": "4322400005", "NM_BAIRRO": "São João", "populacao_2022": 9085, "area_km2": 1.4798, "densidade_hab_km2": 6139.3, "setores_2022": 10, "enderecos_domicilio_particular": 3605, "rotulo_lon": -57.073815, "rotulo_lat": -29.764173 }, "geometry": { "type": "Polygon", "coordinates": [ [ [ -57.067773599999953, -29.763608799999922 ], [ -57.065848899999935, -29.765832899999957 ], [ -57.0667069, -29.766098699999926 ], [ -57.068535899999979, -29.766477199999933 ], [ -57.069214599999952, -29.766445599999944 ], [ -57.070246099999963, -29.76652629999996 ], [ -57.070250899999962, -29.766867599999959 ], [ -57.072312499999953, -29.768597599999961 ], [ -57.073429899999951, -29.76940169999995 ], [ -57.076588, -29.769392099999955 ], [ -57.076565899999935, -29.772144499999968 ], [ -57.079742499999952, -29.772178 ], [ -57.079775299999937, -29.770802599999971 ], [ -57.079820699999971, -29.769422199999948 ], [ -57.079833699999938, -29.768040399999965 ], [ -57.079843899999958, -29.76664989999994 ], [ -57.079816, -29.765239199999936 ], [ -57.079876299999967, -29.76384239999993 ], [ -57.079936699999962, -29.76244569999994 ], [ -57.079912499999978, -29.761090299999971 ], [ -57.079918899999939, -29.758285499999939 ], [ -57.071945899999946, -29.758280699999933 ], [ -57.070333099999971, -29.758258299999962 ], [ -57.068745599999943, -29.758232499999959 ], [ -57.067745499999944, -29.758257099999977 ], [ -57.067130599999984, -29.758437299999972 ], [ -57.067071599999963, -29.760954699999953 ], [ -57.067063499999961, -29.762346599999944 ], [ -57.067773599999953, -29.763608799999922 ] ] ] } },
{ "type": "Feature", "properties": { "CD_BAIRRO": "4322400019", "NM_BAIRRO": "São Miguel", "populacao_2022": 7739, "area_km2": 1.2871, "densidade_hab_km2": 6012.7, "setores_2022": 12, "enderecos_domicilio_particular": 3404, "rotulo_lon": -57.084678, "rotulo_lat": -29.768685 }, "geometry": { "type": "Polygon", "coordinates": [ [ [ -57.079816, -29.765239199999936 ], [ -57.079843899999958, -29.76664989999994 ], [ -57.079833699999938, -29.768040399999965 ], [ -57.079820699999971, -29.769422199999948 ], [ -57.079775299999937, -29.770802599999971 ], [ -57.079742499999952, -29.772178 ], [ -57.079733, -29.773577499999934 ], [ -57.082996099999946, -29.77362259999995 ], [ -57.082966699999986, -29.775015299999936 ], [ -57.08296, -29.775428299999923 ], [ -57.083816199999944, -29.775883199999956 ], [ -57.083923599999942, -29.776032499999921 ], [ -57.084564, -29.776239799999924 ], [ -57.085362199999963, -29.7763629 ], [ -57.086206499999946, -29.776421099999936 ], [ -57.087757599999975, -29.776470199999949 ], [ -57.087774, -29.775058799999943 ], [ -57.087790499999983, -29.773680799999966 ], [ -57.089415, -29.773706499999943 ], [ -57.089470799999958, -29.769509299999978 ], [ -57.089502, -29.766742499999957 ], [ -57.089577899999938, -29.763959299999943 ], [ -57.089600899999937, -29.763088799999942 ], [ -57.089581499999952, -29.762550799999925 ], [ -57.087969699999974, -29.762522799999935 ], [ -57.086348, -29.762535499999963 ], [ -57.084788899999978, -29.762491099999973 ], [ -57.083144, -29.762496699999936 ], [ -57.079936699999962, -29.76244569999994 ], [ -57.079876299999967, -29.76384239999993 ], [ -57.079816, -29.765239199999936 ] ] ] } },
{ "type": "Feature", "properties": { "CD_BAIRRO": "4322400023", "NM_BAIRRO": "Tabajara Brites", "populacao_2022": 8738, "area_km2": 6.64, "densidade_hab_km2": 1316.0, "setores_2022": 12, "enderecos_domicilio_particular": 2824, "rotulo_lon": -57.107635, "rotulo_lat": -29.788359 }, "geometry": { "type": "Polygon", "coordinates": [ [ [ -57.102572, -29.801182299999926 ], [ -57.103039699999954, -29.801154299999943 ], [ -57.103580699999952, -29.800928199999923 ], [ -57.104651099999955, -29.800406599999974 ], [ -57.105548899999974, -29.800033199999969 ], [ -57.107330099999956, -29.799400899999974 ], [ -57.108792799999947, -29.798996399999965 ], [ -57.109688799999958, -29.798909899999959 ], [ -57.109716599999956, -29.798906299999938 ], [ -57.110716199999956, -29.798779099999937 ], [ -57.111353899999983, -29.798819899999952 ], [ -57.111899, -29.798854799999951 ], [ -57.112989899999945, -29.799080399999976 ], [ -57.113987699999939, -29.799339399999944 ], [ -57.114922099999944, -29.799345 ], [ -57.115663399999967, -29.798774899999966 ], [ -57.116603099999963, -29.798045699999935 ], [ -57.117701099999977, -29.797248799999977 ], [ -57.118865299999982, -29.796474299999943 ], [ -57.119882699999948, -29.795814599999964 ], [ -57.120807199999945, -29.795406699999948 ], [ -57.121532299999956, -29.795203899999937 ], [ -57.122681199999931, -29.794625299999947 ], [ -57.123657499999979, -29.794264299999949 ], [ -57.124607, -29.793982699999958 ], [ -57.12537059999994, -29.793907099999956 ], [ -57.126623199999983, -29.793581 ], [ -57.127454599999965, -29.793241799999965 ], [ -57.128338799999938, -29.79286819999993 ], [ -57.129472499999963, -29.79258729999998 ], [ -57.130591, -29.792606099999944 ], [ -57.131498499999964, -29.792635 ], [ -57.132353199999955, -29.792697299999929 ], [ -57.132934299999931, -29.792367299999974 ], [ -57.133320499999968, -29.791818199999963 ], [ -57.133391099999983, -29.791175599999967 ], [ -57.133476799999983, -29.790291899999939 ], [ -57.133297899999945, -29.78959 ], [ -57.133645599999966, -29.788810799999951 ], [ -57.134058499999981, -29.788147099999954 ], [ -57.134602899999948, -29.787448899999951 ], [ -57.135184799999934, -29.78702769999995 ], [ -57.135740899999973, -29.786605699999935 ], [ -57.136258399999974, -29.786023099999962 ], [ -57.136380799999984, -29.785495899999951 ], [ -57.136494899999946, -29.784935399999938 ], [ -57.135723, -29.78485309999996 ], [ -57.135097899999948, -29.784713 ], [ -57.134526, -29.784905799999944 ], [ -57.133896299999947, -29.785202399999942 ], [ -57.133460699999944, -29.785159499999956 ], [ -57.13301679999995, -29.78510039999998 ], [ -57.132812599999973, -29.78480009999997 ], [ -57.132358899999986, -29.784458499999968 ], [ -57.131376099999954, -29.783696899999939 ], [ -57.130382699999984, -29.783544499999945 ], [ -57.129309699999965, -29.783449799999975 ], [ -57.128660499999967, -29.783042499999969 ], [ -57.127944399999933, -29.78210009999998 ], [ -57.12781549999994, -29.781624699999956 ], [ -57.127721, -29.780539099999935 ], [ -57.127820199999974, -29.779765499999943 ], [ -57.127202899999986, -29.779747099999952 ], [ -57.111544599999945, -29.77961629999993 ], [ -57.109987899999965, -29.779637799999922 ], [ -57.109444899999971, -29.779627899999969 ], [ -57.108401399999941, -29.779596899999952 ], [ -57.10680259999998, -29.779582599999955 ], [ -57.106759799999963, -29.780963899999964 ], [ -57.105961099999945, -29.780996299999966 ], [ -57.105170899999962, -29.78095929999995 ], [ -57.103050099999962, -29.780909 ], [ -57.098812499999951, -29.780870799999942 ], [ -57.097190499999961, -29.780847299999945 ], [ -57.096678499999946, -29.796148099999975 ], [ -57.096574299999986, -29.80104869999996 ], [ -57.097394099999974, -29.801337199999981 ], [ -57.097982299999956, -29.801788899999956 ], [ -57.09906059999998, -29.801841399999955 ], [ -57.100075499999946, -29.80162939999996 ], [ -57.10148449999997, -29.801247499999931 ], [ -57.102572, -29.801182299999926 ] ] ] } },
{ "type": "Feature", "properties": { "CD_BAIRRO": "4322400012", "NM_BAIRRO": "União das Vilas", "populacao_2022": 9352, "area_km2": 2.737, "densidade_hab_km2": 3416.9, "setores_2022": 12, "enderecos_domicilio_particular": 3142, "rotulo_lon": -57.062147, "rotulo_lat": -29.788245 }, "geometry": { "type": "Polygon", "coordinates": [ [ [ -57.065007199999968, -29.799647399999966 ], [ -57.065171899999939, -29.799600699999921 ], [ -57.065777199999957, -29.799569699999946 ], [ -57.066373, -29.799171399999981 ], [ -57.066835399999945, -29.799002399999956 ], [ -57.067848399999946, -29.798974799999943 ], [ -57.068611, -29.798956399999959 ], [ -57.069626899999946, -29.798618299999927 ], [ -57.070949799999937, -29.797857699999952 ], [ -57.073998299999978, -29.797773599999971 ], [ -57.070039899999983, -29.796223399999977 ], [ -57.068875899999966, -29.793712499999963 ], [ -57.068745499999977, -29.787769399999945 ], [ -57.068360799999937, -29.78575649999993 ], [ -57.068112, -29.785082299999935 ], [ -57.067935299999931, -29.784759699999942 ], [ -57.067622699999959, -29.784279799999979 ], [ -57.065936099999931, -29.781226699999941 ], [ -57.065100499999971, -29.780855899999946 ], [ -57.063581499999941, -29.78005979999994 ], [ -57.062300199999981, -29.780349499999943 ], [ -57.062125299999934, -29.781632799999947 ], [ -57.061715799999945, -29.782930799999978 ], [ -57.061596299999962, -29.783179099999984 ], [ -57.05904739999994, -29.782528599999964 ], [ -57.058826299999964, -29.782774599999982 ], [ -57.056912399999987, -29.78514609999997 ], [ -57.052403599999934, -29.790499899999922 ], [ -57.049663099999975, -29.793635299999956 ], [ -57.049524599999984, -29.793800099999938 ], [ -57.05019939999994, -29.794012699999932 ], [ -57.051056099999983, -29.794328199999939 ], [ -57.051387299999931, -29.794583499999927 ], [ -57.052309499999978, -29.795108399999947 ], [ -57.053735399999937, -29.796348099999932 ], [ -57.054659099999981, -29.796532399999933 ], [ -57.055287399999941, -29.796880499999922 ], [ -57.055562699999946, -29.796997799999925 ], [ -57.056244299999946, -29.797407599999936 ], [ -57.056374199999937, -29.797485699999982 ], [ -57.057067699999948, -29.797938399999964 ], [ -57.058083399999987, -29.798535099999977 ], [ -57.060465099999938, -29.800267799999975 ], [ -57.063694199999986, -29.80001969999995 ], [ -57.065007199999968, -29.799647399999966 ] ] ] } },
{ "type": "Feature", "properties": { "CD_BAIRRO": "4322400014", "NM_BAIRRO": "Vila Júlia", "populacao_2022": 5326, "area_km2": 1.6992, "densidade_hab_km2": 3134.4, "setores_2022": 5, "enderecos_domicilio_particular": 1917, "rotulo_lon": -57.079414, "rotulo_lat": -29.778722 }, "geometry": { "type": "Polygon", "coordinates": [ [ [ -57.077336599999967, -29.777322 ], [ -57.076356699999963, -29.777537399999979 ], [ -57.0754151, -29.777696899999967 ], [ -57.075211899999942, -29.779725399999958 ], [ -57.075115399999959, -29.780792199999951 ], [ -57.07495629999994, -29.783799099999953 ], [ -57.075603, -29.783913 ], [ -57.076660599999968, -29.783873899999943 ], [ -57.076921499999969, -29.78386 ], [ -57.077404299999955, -29.785790099999925 ], [ -57.07737149999997, -29.785892899999961 ], [ -57.078667, -29.786280599999934 ], [ -57.087235099999987, -29.787944499999981 ], [ -57.088657599999983, -29.788220799999984 ], [ -57.089278099999945, -29.788318299999961 ], [ -57.090003299999978, -29.78836 ], [ -57.090156, -29.78750639999997 ], [ -57.089659099999949, -29.7864317 ], [ -57.089619699999957, -29.786305699999946 ], [ -57.088795399999981, -29.783671 ], [ -57.088334, -29.781567799999952 ], [ -57.087777199999948, -29.777944199999983 ], [ -57.087757599999975, -29.776470199999949 ], [ -57.086206499999946, -29.776421099999936 ], [ -57.085362199999963, -29.7763629 ], [ -57.084564, -29.776239799999924 ], [ -57.083923599999942, -29.776032499999921 ], [ -57.083816199999944, -29.775883199999956 ], [ -57.08296, -29.775428299999923 ], [ -57.082966699999986, -29.775015299999936 ], [ -57.082996099999946, -29.77362259999995 ], [ -57.079733, -29.773577499999934 ], [ -57.079742499999952, -29.772178 ], [ -57.076565899999935, -29.772144499999968 ], [ -57.076552899999967, -29.772813799999941 ], [ -57.076476799999966, -29.773520699999946 ], [ -57.076501299999961, -29.773753199999931 ], [ -57.07664489999997, -29.774430699999982 ], [ -57.076839399999983, -29.775151899999965 ], [ -57.076957299999947, -29.775676699999966 ], [ -57.077336599999967, -29.777322 ] ] ] } }
]
}
