{
"type": "FeatureCollection",
"name": "escolas-inep",
"crs": { "type": "name", "properties": { "name": "urn:ogc:def:crs:OGC:1.3:CRS84" } },
"features": [
{ "type": "Feature", "properties": { "escola": "EMEB MARILIA SANCHOTENE FELICE-ED INF PRE ESCOLA E ENS FUND", "codigo_inep": "43000703", "dependencia_administrativa": "Municipal", "localizacao": "Urbana", "endereco": "AVENIDA PINHEIRO MACHADO, 951 CABO LUIS QUEVEDO. 97503-790 Uruguaiana - RS.", "telefone": "(55) 39113057", "porte_escola": "Entre 501 e 1000 matrículas de escolarização", "etapas_ensino": "Educação Infantil, Ensino Fundamental", "matriculas": "979", "docentes": "54", "salas_utilizadas": "43", "abastecimento_agua": "Rede pública", "fornecimento_energia": "Rede pública", "esgotamento_sanitario": "Rede pública", "internet": "Sim" }, "geometry": { "type": "Point", "coordinates": [ -57.10436, -29.77746 ] } },
{ "type": "Feature", "properties": { "escola": "EEI GENTE MIUDA", "codigo_inep": "43002331", "dependencia_administrativa": "Privada", "localizacao": "Urbana", "endereco": "RUA GENERAL VITORINO, 1376 BELA VISTA. 97501-868 Uruguaiana - RS.", "telefone": "(55) 21029193", "porte_escola": "Entre 51 e 200 matrículas de escolarização", "etapas_ensino": "Educação Infantil", "matriculas": "114", "docentes": "11", "salas_utilizadas": "13", "abastecimento_agua": "Rede pública", "fornecimento_energia": "Rede pública", "esgotamento_sanitario": "Rede pública", "internet": "Sim (com acesso para alunos, banda larga)" }, "geometry": { "type": "Point", "coordinates": [ -57.09166, -29.7517 ] } },
{ "type": "Feature", "properties": { "escola": "EMEI CECILIA MEIRELES", "codigo_inep": "43004024", "dependencia_administrativa": "Municipal", "localizacao": "Urbana", "endereco": "RUA VENANCIO AIRES DE 2101/2102 A 2729/2730, 2436 SAO JOAO. 97502-454 Uruguaiana - RS.", "telefone": "(55) 39113043", "porte_escola": "Entre 201 e 500 matrículas de escolarização", "etapas_ensino": "Educação Infantil", "matriculas": "500", "docentes": "36", "salas_utilizadas": "19", "abastecimento_agua": "Rede pública", "fornecimento_energia": "Rede pública", "esgotamento_sanitario": "Rede pública", "internet": "Sim (banda larga)" }, "geometry": { "type": "Point", "coordinates": [ -57.07519, -29.76111 ] } },
{ "type": "Feature", "properties": { "escola": "EEI PINGUINHO DE GENTE", "codigo_inep": "43004032", "dependencia_administrativa": "Privada", "localizacao": "Urbana", "endereco": "RUA GENERAL VITORINO, 2018 CASA. BELA VISTA. 97501-840 Uruguaiana - RS.", "telefone": "(55) 34021566", "porte_escola": "Até 50 matrículas de escolarização", "etapas_ensino": "Educação Infantil", "matriculas": "19", "docentes": "2", "salas_utilizadas": "4", "abastecimento_agua": "Rede pública", "fornecimento_energia": "Rede pública", "esgotamento_sanitario": "Rede pública", "internet": "Sim (banda larga)" }, "geometry": { "type": "Point", "coordinates": [ -57.09154, -29.75758 ] } },
{ "type": "Feature", "properties": { "escola": "EMEI MARILIA SANCHOTENE FELICE", "codigo_inep": "43004040", "dependencia_administrativa": "Municipal", "localizacao": "Urbana", "endereco": "RUA SENADOR SALGADO FILHO, 932 CABO LUIS QUEVEDO. 97503-794 Uruguaiana - RS.", "telefone": "(55) 39113055", "porte_escola": "Entre 201 e 500 matrículas de escolarização", "etapas_ensino": "Educação Infantil", "matriculas": "288", "docentes": "20", "salas_utilizadas": "10", "abastecimento_agua": "Rede pública", "fornecimento_energia": "Rede pública", "esgotamento_sanitario": "Rede pública", "internet": "Sim (banda larga)" }, "geometry": { "type": "Point", "coordinates": [ -57.10495, -29.77703 ] } },
{ "type": "Feature", "properties": { "escola": "EMEI JOSE MARIA ARGEMI FILHO", "codigo_inep": "43005500", "dependencia_administrativa": "Municipal", "localizacao": "Urbana", "endereco": "AVENIDA PRESIDENTE GETULIO VARGAS DE 3952 A 4560 LADO PAR, 4400 SANTANA. 97502-310 Uruguaiana - RS.", "telefone": "(55) 39113047", "porte_escola": "Entre 201 e 500 matrículas de escolarização", "etapas_ensino": "Educação Infantil", "matriculas": "417", "docentes": "32", "salas_utilizadas": "18", "abastecimento_agua": "Rede pública", "fornecimento_energia": "Rede pública", "esgotamento_sanitario": "Rede pública", "internet": "Sim (banda larga)" }, "geometry": { "type": "Point", "coordinates": [ -57.06831, -29.75871 ] } },
{ "type": "Feature", "properties": { "escola": "EEI TURMA DO PERNALONGA LTDA", "codigo_inep": "43005519", "dependencia_administrativa": "Privada", "localizacao": "Urbana", "endereco": "RUA JULIO DE CASTILHOS, 3136 CASA. CENTRO. 97501-670 Uruguaiana - RS.", "telefone": "(55) 34024341", "porte_escola": "Entre 51 e 200 matrículas de escolarização", "etapas_ensino": "Educação Infantil", "matriculas": "58", "docentes": "4", "salas_utilizadas": "5", "abastecimento_agua": "Rede pública", "fornecimento_energia": "Rede pública", "esgotamento_sanitario": "Rede pública", "internet": "Sim (com acesso para alunos, banda larga)" }, "geometry": { "type": "Point", "coordinates": [ -57.0821, -29.7613 ] } },
{ "type": "Feature", "properties": { "escola": "EMEI MARIO QUINTANA", "codigo_inep": "43005535", "dependencia_administrativa": "Municipal", "localizacao": "Urbana", "endereco": "AVENIDA PRESIDENTE GETULIO VARGAS DE 2886 A 3340 LADO PAR, 3157 CENTRO. 97501-656 Uruguaiana - RS.", "telefone": "(55) 39113058", "porte_escola": "Entre 201 e 500 matrículas de escolarização", "etapas_ensino": "Educação Infantil", "matriculas": "365", "docentes": "30", "salas_utilizadas": "21", "abastecimento_agua": "Rede pública", "fornecimento_energia": "Rede pública", "esgotamento_sanitario": "Rede pública", "internet": "Sim (banda larga)" }, "geometry": { "type": "Point", "coordinates": [ -57.08185, -29.75813 ] } },
{ "type": "Feature", "properties": { "escola": "EMEI VASCO PRADO", "codigo_inep": "43005543", "dependencia_administrativa": "Municipal", "localizacao": "Urbana", "endereco": "SETEMBRINO DE CARVALHO, 162 VILA JULIA. 97507-650 Uruguaiana - RS.", "telefone": "(55) 39113044", "porte_escola": "Entre 201 e 500 matrículas de escolarização", "etapas_ensino": "Educação Infantil", "matriculas": "319", "docentes": "31", "salas_utilizadas": "15", "abastecimento_agua": "Rede pública", "fornecimento_energia": "Rede pública", "esgotamento_sanitario": "Rede pública", "internet": "Sim (banda larga)" }, "geometry": { "type": "Point", "coordinates": [ -57.08184, -29.77698 ] } },
{ "type": "Feature", "properties": { "escola": "IF FARROUPILHA - CAMPUS AVANCADO URUGUAIANA", "codigo_inep": "43050921", "dependencia_administrativa": "Federal", "localizacao": "Urbana", "endereco": "RUA MONTEIRO LOBATO, 4442 CABO LUIS QUEVEDO. 97503-748 Uruguaiana - RS.", "telefone": "(55) 997117855", "porte_escola": "Entre 201 e 500 matrículas de escolarização", "etapas_ensino": "Ensino Médio, Educação Profissional", "matriculas": "388", "docentes": "30", "salas_utilizadas": "9", "abastecimento_agua": "Rede pública", "fornecimento_energia": "Rede pública", "esgotamento_sanitario": "Rede pública", "internet": "Sim (com acesso para alunos, banda larga)" }, "geometry": { "type": "Point", "coordinates": [ -57.10752829, -29.78161389 ] } },
{ "type": "Feature", "properties": { "escola": "COLEGIO MARISTA SANT ANA", "codigo_inep": "43162290", "dependencia_administrativa": "Privada", "localizacao": "Urbana", "endereco": "RUA GENERAL BENTO MARTINS, 2015 BELA VISTA. 97501-838 Uruguaiana - RS.", "telefone": "(55) 34152900", "porte_escola": "Entre 501 e 1000 matrículas de escolarização", "etapas_ensino": "Educação Infantil, Ensino Fundamental, Ensino Médio", "matriculas": "847", "docentes": "53", "salas_utilizadas": "23", "abastecimento_agua": "Rede pública", "fornecimento_energia": "Rede pública", "esgotamento_sanitario": "Rede pública", "internet": "Sim (com acesso para alunos, banda larga)" }, "geometry": { "type": "Point", "coordinates": [ -57.09325, -29.75518 ] } },
{ "type": "Feature", "properties": { "escola": "ESC EST ENS MED DOM HERMETO", "codigo_inep": "43162312", "dependencia_administrativa": "Estadual", "localizacao": "Urbana", "endereco": "R JULIO DE CASTILHOS 3256, 3256 CENTRO. 97501-670 Uruguaiana - RS.", "telefone": "(55) 34142017", "porte_escola": "Mais de 1000 matrículas de escolarização", "etapas_ensino": "Ensino Fundamental, Educação de Jovens Adultos", "matriculas": "1382", "docentes": "64", "salas_utilizadas": "27", "abastecimento_agua": "Rede pública", "fornecimento_energia": "Rede pública", "esgotamento_sanitario": "Rede pública", "internet": "Sim (com acesso para alunos, banda larga)" }, "geometry": { "type": "Point", "coordinates": [ -57.08079, -29.76178 ] } },
{ "type": "Feature", "properties": { "escola": "EEM NOSSA SENHORA DO HORTO", "codigo_inep": "43162320", "dependencia_administrativa": "Privada", "localizacao": "Urbana", "endereco": "RUA MONTE CASEROS, 3261 CENTRO. 97501-622 Uruguaiana - RS.", "telefone": "(55) 34121954", "porte_escola": "Entre 201 e 500 matrículas de escolarização", "etapas_ensino": "Educação Infantil, Ensino Fundamental, Ensino Médio", "matriculas": "317", "docentes": "25", "salas_utilizadas": "15", "abastecimento_agua": "Rede pública, Cacimba/poço raso", "fornecimento_energia": "Rede pública", "esgotamento_sanitario": "Rede pública", "internet": "Sim (com acesso para alunos, banda larga)" }, "geometry": { "type": "Point", "coordinates": [ -57.08086, -29.75253 ] } },
{ "type": "Feature", "properties": { "escola": "EMEF CABO LUIZ QUEVEDO", "codigo_inep": "43162347", "dependencia_administrativa": "Municipal", "localizacao": "Urbana", "endereco": "AVENIDA PINHEIRO MACHADO, 1090 CABO LUIS QUEVEDO. 97503-790 Uruguaiana - RS.", "telefone": "(55) 39113054", "porte_escola": "Entre 501 e 1000 matrículas de escolarização", "etapas_ensino": "Ensino Fundamental", "matriculas": "800", "docentes": "49", "salas_utilizadas": "28", "abastecimento_agua": "Rede pública", "fornecimento_energia": "Rede pública", "esgotamento_sanitario": "Rede pública", "internet": "Sim (com acesso para alunos, banda larga)" }, "geometry": { "type": "Point", "coordinates": [ -57.10234, -29.77861 ] } },
{ "type": "Feature", "properties": { "escola": "ESCOLA MUNICIPAL DE EDUCACAO BASICA DR CRESPO DE OLIVEIRA EDUCACAO INFANTIL-PRE ESCOLA E ENSINO FUND", "codigo_inep": "43162355", "dependencia_administrativa": "Municipal", "localizacao": "Rural", "endereco": "ITAPITOCAI, INTERIOR. 97502-000 Uruguaiana - RS.", "telefone": "(55) 39113000", "porte_escola": "Entre 51 e 200 matrículas de escolarização", "etapas_ensino": "Educação Infantil, Ensino Fundamental", "matriculas": "163", "docentes": "17", "salas_utilizadas": "12", "abastecimento_agua": "Poço artesiano", "fornecimento_energia": "Rede pública", "esgotamento_sanitario": "Rede pública", "internet": "Sim (com acesso para alunos, banda larga)" }, "geometry": { "type": "Point", "coordinates": [ -57.11669, -29.88728 ] } },
{ "type": "Feature", "properties": { "escola": "EMEB GEN OSORIO ED INF - PRE ESCOLA E ENS FUND", "codigo_inep": "43162371", "dependencia_administrativa": "Municipal", "localizacao": "Urbana", "endereco": "AVENIDA ASSIS BRASIL, 165 VILA HIPICA I. 97511-800 Uruguaiana - RS.", "telefone": "(55) 39113046", "porte_escola": "Entre 501 e 1000 matrículas de escolarização", "etapas_ensino": "Educação Infantil, Ensino Fundamental", "matriculas": "600", "docentes": "41", "salas_utilizadas": "18", "abastecimento_agua": "Rede pública", "fornecimento_energia": "Rede pública", "esgotamento_sanitario": "Rede pública", "internet": "Sim (com acesso para alunos, banda larga)" }, "geometry": { "type": "Point", "coordinates": [ -57.04598, -29.76352 ] } },
{ "type": "Feature", "properties": { "escola": "EMEB JOSE FRANCISCO PEREIRA DA SILVA", "codigo_inep": "43162380", "dependencia_administrativa": "Municipal", "localizacao": "Urbana", "endereco": "ESTILAC LEAL, 2030 ALEXANDRE ZACHIA. 97503-124 Uruguaiana - RS.", "telefone": "(55) 39113063", "porte_escola": "Entre 501 e 1000 matrículas de escolarização", "etapas_ensino": "Educação Infantil, Ensino Fundamental", "matriculas": "592", "docentes": "43", "salas_utilizadas": "13", "abastecimento_agua": "Rede pública", "fornecimento_energia": "Rede pública", "esgotamento_sanitario": "Rede pública", "internet": "Sim (com acesso para alunos, banda larga)" }, "geometry": { "type": "Point", "coordinates": [ -57.09454, -29.76291 ] } },
{ "type": "Feature", "properties": { "escola": "EMEF OSCAR MACHADO", "codigo_inep": "43162401", "dependencia_administrativa": "Municipal", "localizacao": "Rural", "endereco": "PLANO ALTO 3 DISTRITO, SN PLANO ALTO. 97515-000 Uruguaiana - RS.", "telefone": "(55) 39113023", "porte_escola": "Até 50 matrículas de escolarização", "etapas_ensino": "Ensino Fundamental", "matriculas": "16", "docentes": "1", "salas_utilizadas": "1", "abastecimento_agua": "Poço artesiano", "fornecimento_energia": "Rede pública", "esgotamento_sanitario": "Fossa séptica, Fossa (tipo não especificado)", "internet": "Sim (com acesso para alunos, banda larga)" }, "geometry": { "type": "Point", "coordinates": [ -56.53409, -29.91526 ] } },
{ "type": "Feature", "properties": { "escola": "EMEB RUI BARBOSA ED INF PRE ESCOLA E ENS FUND", "codigo_inep": "43162428", "dependencia_administrativa": "Municipal", "localizacao": "Urbana", "endereco": "14 DE JULHO, 2969 SAO MIGUEL. 97502-721 Uruguaiana - RS.", "telefone": "(55) 39113051", "porte_escola": "Mais de 1000 matrículas de escolarização", "etapas_ensino": "Educação Infantil, Ensino Fundamental, Educação de Jovens Adultos", "matriculas": "1007", "docentes": "65", "salas_utilizadas": "17", "abastecimento_agua": "Rede pública", "fornecimento_energia": "Rede pública", "esgotamento_sanitario": "Rede pública", "internet": "Sim (banda larga)" }, "geometry": { "type": "Point", "coordinates": [ -57.08366, -29.7678 ] } },
{ "type": "Feature", "properties": { "escola": "INST EST EDUC ELISA FERRARI VALLS", "codigo_inep": "43162479", "dependencia_administrativa": "Estadual", "localizacao": "Urbana", "endereco": "R PADRE ANCHIETA 2474, 2474 ALEXANDRE ZACHIA. 97503-130 Uruguaiana - RS.", "telefone": "(55) 34122469", "porte_escola": "Mais de 1000 matrículas de escolarização", "etapas_ensino": "Ensino Fundamental, Ensino Médio, Educação Profissional", "matriculas": "1399", "docentes": "69", "salas_utilizadas": "22", "abastecimento_agua": "Rede pública", "fornecimento_energia": "Rede pública", "esgotamento_sanitario": "Rede pública", "internet": "Sim (com acesso para alunos, banda larga)" }, "geometry": { "type": "Point", "coordinates": [ -57.08866, -29.7737 ] } },
{ "type": "Feature", "properties": { "escola": "ESC EST ENS MED DR JOAO FAGUNDES", "codigo_inep": "43162487", "dependencia_administrativa": "Estadual", "localizacao": "Urbana", "endereco": "R ANTONIO MONTEIRO URUGUAIANA/RS 3272, 3272 SAO MIGUEL. 97502-708 Uruguaiana - RS.", "telefone": "(55) 34132107", "porte_escola": "Entre 201 e 500 matrículas de escolarização", "etapas_ensino": "Ensino Fundamental, Ensino Médio", "matriculas": "203", "docentes": "24", "salas_utilizadas": "18", "abastecimento_agua": "Rede pública", "fornecimento_energia": "Rede pública", "esgotamento_sanitario": "Rede pública", "internet": "Sim (com acesso para alunos)" }, "geometry": { "type": "Point", "coordinates": [ -57.08048, -29.77124 ] } },
{ "type": "Feature", "properties": { "escola": "ESC EST ENS FUN ADIR MASCIA", "codigo_inep": "43162541", "dependencia_administrativa": "Estadual", "localizacao": "Urbana", "endereco": "R RUA JOAL DE LIMA E SILVA 624, 624 IPIRANGA. 97507-360 Uruguaiana - RS.", "telefone": "(55) 34132989", "porte_escola": "Entre 501 e 1000 matrículas de escolarização", "etapas_ensino": "Ensino Fundamental", "matriculas": "566", "docentes": "26", "salas_utilizadas": "14", "abastecimento_agua": "Rede pública", "fornecimento_energia": "Rede pública", "esgotamento_sanitario": "Rede pública", "internet": "Sim (com acesso para alunos, banda larga)" }, "geometry": { "type": "Point", "coordinates": [ -57.07621, -29.77691 ] } },
{ "type": "Feature", "properties": { "escola": "ESC EST ENS FUN IRIS VALLS", "codigo_inep": "43162592", "dependencia_administrativa": "Estadual", "localizacao": "Urbana", "endereco": "R RUA VENANCIO AIRES 1520, 1520 SANTO ANTONIO. 97502-140 Uruguaiana - RS.", "telefone": "(55) 34111379", "porte_escola": "Entre 51 e 200 matrículas de escolarização", "etapas_ensino": "Ensino Fundamental", "matriculas": "182", "docentes": "17", "salas_utilizadas": "8", "abastecimento_agua": "Rede pública", "fornecimento_energia": "Rede pública", "esgotamento_sanitario": "Rede pública", "internet": "Sim (banda larga)" }, "geometry": { "type": "Point", "coordinates": [ -57.07544, -29.75276 ] } },
{ "type": "Feature", "properties": { "escola": "ESC EST ENS FUN JULIO DE CASTILHOS", "codigo_inep": "43162606", "dependencia_administrativa": "Estadual", "localizacao": "Urbana", "endereco": "AV FLORES DA CUNHA 817 ESQUINA, 817 ESQUINA. MASCARENHAS MORAES. 97502-043 Uruguaiana - RS.", "telefone": null, "porte_escola": "Entre 51 e 200 matrículas de escolarização", "etapas_ensino": "Ensino Fundamental", "matriculas": "128", "docentes": "11", "salas_utilizadas": "5", "abastecimento_agua": "Rede pública", "fornecimento_energia": "Rede pública", "esgotamento_sanitario": "Fossa comum, Fossa (tipo não especificado)", "internet": "Sim (com acesso para alunos, banda larga)" }, "geometry": { "type": "Point", "coordinates": [ -57.07974, -29.74648 ] } },
{ "type": "Feature", "properties": { "escola": "ESC EST ENS FUN PASO DE LOS LIBRES", "codigo_inep": "43162622", "dependencia_administrativa": "Estadual", "localizacao": "Urbana", "endereco": "R GENERAL VASCO ALVES 2985, 2985 CENTRO. 97501-614 Uruguaiana - RS.", "telefone": "(55) 34123331", "porte_escola": "Entre 51 e 200 matrículas de escolarização", "etapas_ensino": "Ensino Fundamental", "matriculas": "121", "docentes": "14", "salas_utilizadas": "7", "abastecimento_agua": "Rede pública", "fornecimento_energia": "Rede pública", "esgotamento_sanitario": "Rede pública", "internet": "Sim (com acesso para alunos, banda larga)" }, "geometry": { "type": "Point", "coordinates": [ -57.08418, -29.74968 ] } },
{ "type": "Feature", "properties": { "escola": "ESC EST ENS FUN PRES GETULIO VARGAS", "codigo_inep": "43162630", "dependencia_administrativa": "Estadual", "localizacao": "Urbana", "endereco": "R RUA TREZE DE MAIO 1180, 1180 CENTRO. 97501-560 Uruguaiana - RS.", "telefone": "(55) 34123810", "porte_escola": "Até 50 matrículas de escolarização", "etapas_ensino": "Ensino Fundamental", "matriculas": "25", "docentes": "4", "salas_utilizadas": "5", "abastecimento_agua": "Rede pública", "fornecimento_energia": "Rede pública", "esgotamento_sanitario": "Rede pública", "internet": "Sim (com acesso para alunos, banda larga)" }, "geometry": { "type": "Point", "coordinates": [ -57.08982, -29.74974 ] } },
{ "type": "Feature", "properties": { "escola": "ESC EST ENS FUN URUGUAIANA", "codigo_inep": "43162657", "dependencia_administrativa": "Estadual", "localizacao": "Rural", "endereco": "ETR LUIS BETINELI SN, SN CHARQUEADA OESTE. 97501-970 Uruguaiana - RS.", "telefone": "(55) 34137986", "porte_escola": "Até 50 matrículas de escolarização", "etapas_ensino": "Ensino Fundamental", "matriculas": "22", "docentes": "7", "salas_utilizadas": "7", "abastecimento_agua": "Poço artesiano", "fornecimento_energia": "Rede pública", "esgotamento_sanitario": "Fossa comum, Fossa (tipo não especificado)", "internet": "Sim" }, "geometry": { "type": "Point", "coordinates": [ -56.99252, -29.77135 ] } },
{ "type": "Feature", "properties": { "escola": "INST ESTADUAL ROMAGUERA CORREA", "codigo_inep": "43162681", "dependencia_administrativa": "Estadual", "localizacao": "Urbana", "endereco": "R TREZE DE MAIO 1887, 1887 CENTRO. 97501-538 Uruguaiana - RS.", "telefone": "(55) 34122494", "porte_escola": "Entre 501 e 1000 matrículas de escolarização", "etapas_ensino": "Ensino Fundamental, Ensino Médio", "matriculas": "710", "docentes": "45", "salas_utilizadas": "18", "abastecimento_agua": "Rede pública", "fornecimento_energia": "Rede pública", "esgotamento_sanitario": "Rede pública", "internet": "Sim (com acesso para alunos, banda larga)" }, "geometry": { "type": "Point", "coordinates": [ -57.08963, -29.75633 ] } },
{ "type": "Feature", "properties": { "escola": "INSTITUTO LAURA VICUNA", "codigo_inep": "43162690", "dependencia_administrativa": "Privada", "localizacao": "Urbana", "endereco": "RUA DOMINGOS DE ALMEIDA, 3388 SAO MIGUEL. 97502-800 Uruguaiana - RS.", "telefone": "(55) 34124157", "porte_escola": "Entre 501 e 1000 matrículas de escolarização", "etapas_ensino": "Educação Infantil, Ensino Fundamental, Ensino Médio", "matriculas": "814", "docentes": "47", "salas_utilizadas": "25", "abastecimento_agua": "Rede pública, Poço artesiano", "fornecimento_energia": "Rede pública, Fonte renovável", "esgotamento_sanitario": "Rede pública", "internet": "Sim (com acesso para alunos, banda larga)" }, "geometry": { "type": "Point", "coordinates": [ -57.08504, -29.7704 ] } },
{ "type": "Feature", "properties": { "escola": "COLEGIO METODISTA UNIAO", "codigo_inep": "43162703", "dependencia_administrativa": "Privada", "localizacao": "Urbana", "endereco": "RUA TIRADENTES, 3432 SANTANA. 97502-334 Uruguaiana - RS.", "telefone": "(55) 34124355", "porte_escola": "Entre 201 e 500 matrículas de escolarização", "etapas_ensino": "Ensino Fundamental, Ensino Médio", "matriculas": "239", "docentes": "22", "salas_utilizadas": "16", "abastecimento_agua": "Rede pública", "fornecimento_energia": "Rede pública", "esgotamento_sanitario": "Rede pública", "internet": "Sim (com acesso para alunos, banda larga)" }, "geometry": { "type": "Point", "coordinates": [ -57.07965, -29.75439 ] } },
{ "type": "Feature", "properties": { "escola": "EMEB DOM BOSCO-ED INFANTIL PRE ESCOLA E ENS FUND", "codigo_inep": "43162720", "dependencia_administrativa": "Municipal", "localizacao": "Urbana", "endereco": "RUA SANTOS DUMONT DE 802 AO FIM LADO PAR, 1118 RUI RAMOS. 97507-069 Uruguaiana - RS.", "telefone": "(55) 39113053", "porte_escola": "Entre 501 e 1000 matrículas de escolarização", "etapas_ensino": "Educação Infantil, Ensino Fundamental", "matriculas": "529", "docentes": "38", "salas_utilizadas": "12", "abastecimento_agua": "Rede pública", "fornecimento_energia": "Rede pública", "esgotamento_sanitario": "Rede pública", "internet": "Sim (banda larga)" }, "geometry": { "type": "Point", "coordinates": [ -57.0668, -29.7751 ] } },
{ "type": "Feature", "properties": { "escola": "EMEF MARECHAL HUMBERTO DE ALENCAR CASTELO BRANCO", "codigo_inep": "43162770", "dependencia_administrativa": "Municipal", "localizacao": "Urbana", "endereco": "DUQUE DE CAXIAS, 2460 FUNDOS. CENTRO. 97501-700 Uruguaiana - RS.", "telefone": "(55) 39113050", "porte_escola": "Entre 201 e 500 matrículas de escolarização", "etapas_ensino": "Ensino Fundamental", "matriculas": "384", "docentes": "27", "salas_utilizadas": "16", "abastecimento_agua": "Rede pública", "fornecimento_energia": "Rede pública", "esgotamento_sanitario": "Rede pública", "internet": "Sim (com acesso para alunos, banda larga)" }, "geometry": { "type": "Point", "coordinates": [ -57.08637, -29.76151 ] } },
{ "type": "Feature", "properties": { "escola": "EMEB D FERNANDO MENDES TARRAGO EI PRE ESC ENS FUND", "codigo_inep": "43162851", "dependencia_administrativa": "Municipal", "localizacao": "Rural", "endereco": "RUA SESMARIA DO MEIO, S/N ITAPITOCAI. 97514-899 Uruguaiana - RS.", "telefone": "(55) 999094945", "porte_escola": "Entre 51 e 200 matrículas de escolarização", "etapas_ensino": "Educação Infantil, Ensino Fundamental", "matriculas": "125", "docentes": "17", "salas_utilizadas": "11", "abastecimento_agua": "Poço artesiano", "fornecimento_energia": "Rede pública", "esgotamento_sanitario": "Fossa séptica, Fossa (tipo não especificado)", "internet": "Sim (com acesso para alunos, banda larga)" }, "geometry": { "type": "Point", "coordinates": [ -56.9776, -29.8299 ] } },
{ "type": "Feature", "properties": { "escola": "ESCOLA MUNICIPAL DE EDUCACAO BASICA PATRICIO LOPES EDUCACAO INFANTIL PRE-ESCOLA E ENSINO FUNDAMENTAL", "codigo_inep": "43162878", "dependencia_administrativa": "Municipal", "localizacao": "Rural", "endereco": "AREA RURAL, KM 15. AREA RURAL DE URUGUAIANA. 97514-899 Uruguaiana - RS.", "telefone": "(55) 996053933", "porte_escola": "Entre 51 e 200 matrículas de escolarização", "etapas_ensino": "Educação Infantil, Ensino Fundamental", "matriculas": "171", "docentes": "21", "salas_utilizadas": "16", "abastecimento_agua": "Poço artesiano", "fornecimento_energia": "Rede pública", "esgotamento_sanitario": "Fossa séptica, Fossa (tipo não especificado)", "internet": "Sim (banda larga)" }, "geometry": { "type": "Point", "coordinates": [ -56.93458, -29.72 ] } },
{ "type": "Feature", "properties": { "escola": "EMEF MOACYR RAMOS MARTINS", "codigo_inep": "43162924", "dependencia_administrativa": "Municipal", "localizacao": "Urbana", "endereco": "RUA IBICUI QUADRA A, S/N PROFICAR. 97509-396 Uruguaiana - RS.", "telefone": "(55) 39113042", "porte_escola": "Mais de 1000 matrículas de escolarização", "etapas_ensino": "Ensino Fundamental, Educação de Jovens Adultos", "matriculas": "1033", "docentes": "64", "salas_utilizadas": "29", "abastecimento_agua": "Rede pública", "fornecimento_energia": "Rede pública", "esgotamento_sanitario": "Rede pública", "internet": "Sim (banda larga)" }, "geometry": { "type": "Point", "coordinates": [ -57.06253, -29.78437 ] } },
{ "type": "Feature", "properties": { "escola": "COL ESTADUAL DR ROBERVAL BEHEREGARAY AZEVEDO", "codigo_inep": "43162932", "dependencia_administrativa": "Estadual", "localizacao": "Urbana", "endereco": "R DOUTOR GREGORIO BEHREGARAY FIL 3700, 3700 SAO JOAO. 97502-604 Uruguaiana - RS.", "telefone": null, "porte_escola": "Entre 501 e 1000 matrículas de escolarização", "etapas_ensino": "Ensino Fundamental, Ensino Médio, Educação de Jovens Adultos", "matriculas": "669", "docentes": "51", "salas_utilizadas": "22", "abastecimento_agua": "Rede pública", "fornecimento_energia": "Rede pública", "esgotamento_sanitario": "Rede pública", "internet": "Sim (com acesso para alunos)" }, "geometry": { "type": "Point", "coordinates": [ -57.07573, -29.76729 ] } },
{ "type": "Feature", "properties": { "escola": "ESC EST ENS FUN PROF CIRILO ZADRA", "codigo_inep": "43162991", "dependencia_administrativa": "Estadual", "localizacao": "Urbana", "endereco": "R RUA TARUMA SN QM, SN QM. VILA JULIA. 97507-540 Uruguaiana - RS.", "telefone": "(55) 34125221", "porte_escola": "Entre 201 e 500 matrículas de escolarização", "etapas_ensino": "Ensino Fundamental", "matriculas": "227", "docentes": "16", "salas_utilizadas": "10", "abastecimento_agua": "Rede pública", "fornecimento_energia": "Rede pública", "esgotamento_sanitario": "Rede pública", "internet": "Sim (com acesso para alunos, banda larga)" }, "geometry": { "type": "Point", "coordinates": [ -57.07672, -29.78267 ] } },
{ "type": "Feature", "properties": { "escola": "EMCMEF DO COMPLEXO ELVIRA CERATTI - CAIC", "codigo_inep": "43176950", "dependencia_administrativa": "Municipal", "localizacao": "Urbana", "endereco": "21 DE ABRIL, S/N UNIAO DAS VILAS. 97509-206 Uruguaiana - RS.", "telefone": "(55) 39113062", "porte_escola": "Entre 201 e 500 matrículas de escolarização", "etapas_ensino": "Ensino Fundamental", "matriculas": "397", "docentes": "30", "salas_utilizadas": "25", "abastecimento_agua": "Rede pública", "fornecimento_energia": "Rede pública", "esgotamento_sanitario": "Rede pública", "internet": "Sim (banda larga)" }, "geometry": { "type": "Point", "coordinates": [ -57.06374, -29.79077 ] } },
{ "type": "Feature", "properties": { "escola": "ESCOLA DE EDUCACAO ESPECIAL RECANTO AMIGO-APAE", "codigo_inep": "43179096", "dependencia_administrativa": "Privada", "localizacao": "Urbana", "endereco": "AVENIDA PRESIDENTE GETULIO VARGAS, 2122 BELA VISTA. 97501-760 Uruguaiana - RS.", "telefone": "(55) 34122655", "porte_escola": "Entre 51 e 200 matrículas de escolarização", "etapas_ensino": "Educação Infantil, Ensino Fundamental, Educação de Jovens Adultos", "matriculas": "95", "docentes": "4", "salas_utilizadas": "7", "abastecimento_agua": "Rede pública", "fornecimento_energia": "Rede pública", "esgotamento_sanitario": "Rede pública", "internet": "Sim (com acesso para alunos, banda larga)" }, "geometry": { "type": "Point", "coordinates": [ -57.09269, -29.75786 ] } },
{ "type": "Feature", "properties": { "escola": "EMEI VOVO CHICA", "codigo_inep": "43195830", "dependencia_administrativa": "Municipal", "localizacao": "Urbana", "endereco": "RUA DO ANGICO, 561 PROFILURB. 97507-544 Uruguaiana - RS.", "telefone": "(55) 39113045", "porte_escola": "Entre 201 e 500 matrículas de escolarização", "etapas_ensino": "Educação Infantil", "matriculas": "231", "docentes": "17", "salas_utilizadas": "16", "abastecimento_agua": "Rede pública", "fornecimento_energia": "Rede pública", "esgotamento_sanitario": "Rede pública", "internet": "Sim (banda larga)" }, "geometry": { "type": "Point", "coordinates": [ -57.07617, -29.78271 ] } },
{ "type": "Feature", "properties": { "escola": "EMEI SITIO DO SACI PERERE", "codigo_inep": "43195849", "dependencia_administrativa": "Municipal", "localizacao": "Urbana", "endereco": "TRAV BRUNO CASTRO MARTINS, S/N CABO LUIS QUEVEDO. 97503-814 Uruguaiana - RS.", "telefone": "(55) 39113065", "porte_escola": "Entre 51 e 200 matrículas de escolarização", "etapas_ensino": "Educação Infantil", "matriculas": "198", "docentes": "15", "salas_utilizadas": "20", "abastecimento_agua": "Rede pública", "fornecimento_energia": "Rede pública", "esgotamento_sanitario": "Rede pública", "internet": "Sim (banda larga)" }, "geometry": { "type": "Point", "coordinates": [ -57.10292, -29.7786 ] } },
{ "type": "Feature", "properties": { "escola": "EMEI TIA NINA", "codigo_inep": "43195873", "dependencia_administrativa": "Municipal", "localizacao": "Urbana", "endereco": "TRAVESSA GABRIEL VIJANDE BERMUDEZ, 1416 FRANCISCA TARRAGO. 97503-370 Uruguaiana - RS.", "telefone": "(55) 39113049", "porte_escola": "Entre 51 e 200 matrículas de escolarização", "etapas_ensino": "Educação Infantil", "matriculas": "119", "docentes": "10", "salas_utilizadas": "11", "abastecimento_agua": "Rede pública", "fornecimento_energia": "Rede pública", "esgotamento_sanitario": "Rede pública", "internet": "Sim (banda larga)" }, "geometry": { "type": "Point", "coordinates": [ -57.09974, -29.7621 ] } },
{ "type": "Feature", "properties": { "escola": "EMEI CASINHA DA EMILIA", "codigo_inep": "43195903", "dependencia_administrativa": "Municipal", "localizacao": "Urbana", "endereco": "ALAMEDA CENTRAL DA VILA EMILIO BRAND, S/N COHAB II. 97511-356 Uruguaiana - RS.", "telefone": "(55) 39113059", "porte_escola": "Entre 51 e 200 matrículas de escolarização", "etapas_ensino": "Educação Infantil", "matriculas": "185", "docentes": "15", "salas_utilizadas": "7", "abastecimento_agua": "Rede pública", "fornecimento_energia": "Rede pública", "esgotamento_sanitario": "Rede pública", "internet": "Sim" }, "geometry": { "type": "Point", "coordinates": [ -57.05915, -29.77188 ] } },
{ "type": "Feature", "properties": { "escola": "EMEI TIA MERCEDES", "codigo_inep": "43195920", "dependencia_administrativa": "Municipal", "localizacao": "Urbana", "endereco": "R. SETE DE SETEMBRO, 2197 CENTRO. 97501-660 Uruguaiana - RS.", "telefone": "(55) 39113061", "porte_escola": "Entre 51 e 200 matrículas de escolarização", "etapas_ensino": "Educação Infantil", "matriculas": "184", "docentes": "20", "salas_utilizadas": "12", "abastecimento_agua": "Rede pública", "fornecimento_energia": "Rede pública", "esgotamento_sanitario": "Rede pública", "internet": "Sim (banda larga)" }, "geometry": { "type": "Point", "coordinates": [ -57.08182, -29.75922 ] } },
{ "type": "Feature", "properties": { "escola": "EMEI ELVIRA CERATTI - CAIC", "codigo_inep": "43200176", "dependencia_administrativa": "Municipal", "localizacao": "Urbana", "endereco": "RUA 21 DE ABRIL, S/N UNIAO DAS VILAS. 97509-206 Uruguaiana - RS.", "telefone": "(55) 39113056", "porte_escola": "Entre 201 e 500 matrículas de escolarização", "etapas_ensino": "Educação Infantil", "matriculas": "252", "docentes": "16", "salas_utilizadas": "9", "abastecimento_agua": "Rede pública", "fornecimento_energia": "Rede pública", "esgotamento_sanitario": "Rede pública", "internet": "Sim (banda larga)" }, "geometry": { "type": "Point", "coordinates": [ -57.06398, -29.79093 ] } },
{ "type": "Feature", "properties": { "escola": "NUCL E EJA E CP ZENIR MEIRELES DUTRA", "codigo_inep": "43204791", "dependencia_administrativa": "Estadual", "localizacao": "Rural", "endereco": "ETR BR 472 KM 10 S/N, S/N ZONA RURAL. 97501-970 Uruguaiana - RS.", "telefone": "(55) 34115657", "porte_escola": "Entre 51 e 200 matrículas de escolarização", "etapas_ensino": "Educação de Jovens Adultos", "matriculas": "98", "docentes": "11", "salas_utilizadas": "9", "abastecimento_agua": "Poço artesiano", "fornecimento_energia": "Rede pública", "esgotamento_sanitario": "Fossa comum, Fossa (tipo não especificado)", "internet": "Não" }, "geometry": { "type": "Point", "coordinates": [ -57.09061, -29.8502 ] } },
{ "type": "Feature", "properties": { "escola": "ESCOLA DE EDUCACAO PROFISSIONAL SENAC URUGUAIANA", "codigo_inep": "43205828", "dependencia_administrativa": "Privada", "localizacao": "Urbana", "endereco": "TRAVESSA DOUTOR CESAR CUNHA, 2998 PREDIO. CENTRO. 97501-682 Uruguaiana - RS.", "telefone": "(55) 34123838", "porte_escola": "Entre 51 e 200 matrículas de escolarização", "etapas_ensino": "Educação Profissional", "matriculas": "168", "docentes": "4", "salas_utilizadas": "16", "abastecimento_agua": "Rede pública", "fornecimento_energia": "Rede pública", "esgotamento_sanitario": "Rede pública", "internet": "Sim (com acesso para alunos, banda larga)" }, "geometry": { "type": "Point", "coordinates": [ -57.08394, -29.75913 ] } },
{ "type": "Feature", "properties": { "escola": "EEI ESTRELINHA DO MAR", "codigo_inep": "43229603", "dependencia_administrativa": "Privada", "localizacao": "Urbana", "endereco": "RUA DOMINGOS DE ALMEIDA, 1399 CASA. CENTRO. 97501-603 Uruguaiana - RS.", "telefone": "(55) 996399776", "porte_escola": "Entre 51 e 200 matrículas de escolarização", "etapas_ensino": "Educação Infantil", "matriculas": "142", "docentes": "8", "salas_utilizadas": "3", "abastecimento_agua": "Rede pública", "fornecimento_energia": "Rede pública", "esgotamento_sanitario": "Rede pública", "internet": "Sim (com acesso para alunos, banda larga)" }, "geometry": { "type": "Point", "coordinates": [ -57.0897, -29.7597 ] } }
]
}
