{
"type": "FeatureCollection",
"name": "saude-osm",
"crs": { "type": "name", "properties": { "name": "urn:ogc:def:crs:OGC:1.3:CRS84" } },
"features": [
{ "type": "Feature", "properties": { "element": "way", "id": 565888069, "addr:city": null, "addr:postcode": null, "addr:street": null, "amenity": "clinic", "healthcare": "clinic", "name": "Posto 7", "addr:housenumber": null, "dispensing": null, "healthcare:speciality": null, "addr:suburb": null, "ref:CNES": null, "brand": null, "brand:wikidata": null, "website": null, "building": "yes" }, "geometry": { "type": "Polygon", "coordinates": [ [ [ -57.0610362, -29.7844436 ], [ -57.0607416, -29.7847589 ], [ -57.0608006, -29.7847957 ], [ -57.060805, -29.7847903 ], [ -57.060853, -29.7848235 ], [ -57.0609123, -29.7847555 ], [ -57.0609043, -29.7847475 ], [ -57.0611259, -29.7845021 ], [ -57.0610362, -29.7844436 ] ] ] } },
{ "type": "Feature", "properties": { "element": "node", "id": 9856949371, "addr:city": "Uruguaiana", "addr:postcode": "97502-854", "addr:street": "Rua Domingos José de Almeida", "amenity": "hospital", "healthcare": "hospital", "name": "Hospital Santa Casa de Uruguaiana", "addr:housenumber": "3801", "dispensing": null, "healthcare:speciality": "general", "addr:suburb": "São Miguel", "ref:CNES": "2248190", "brand": null, "brand:wikidata": null, "website": null, "building": null }, "geometry": { "type": "Point", "coordinates": [ -57.0841179, -29.77309940000001 ] } },
{ "type": "Feature", "properties": { "element": "node", "id": 4587250595, "addr:city": null, "addr:postcode": null, "addr:street": null, "amenity": "clinic", "healthcare": "clinic", "name": "Maximagem", "addr:housenumber": null, "dispensing": null, "healthcare:speciality": null, "addr:suburb": null, "ref:CNES": null, "brand": null, "brand:wikidata": null, "website": null, "building": null }, "geometry": { "type": "Point", "coordinates": [ -57.0847979, -29.7710432 ] } },
{ "type": "Feature", "properties": { "element": "way", "id": 964619084, "addr:city": null, "addr:postcode": null, "addr:street": null, "amenity": null, "healthcare": "hospital", "name": "Hospital de Guarnição de Uruguaiana", "addr:housenumber": null, "dispensing": null, "healthcare:speciality": null, "addr:suburb": null, "ref:CNES": null, "brand": null, "brand:wikidata": null, "website": null, "building": "yes" }, "geometry": { "type": "Polygon", "coordinates": [ [ [ -57.0895504, -29.7682126 ], [ -57.0895157, -29.7694572 ], [ -57.0910191, -29.7694723 ], [ -57.0910321, -29.768239 ], [ -57.0895504, -29.7682126 ] ] ] } },
{ "type": "Feature", "properties": { "element": "way", "id": 1072388415, "addr:city": "Uruguaiana", "addr:postcode": "97501-974", "addr:street": "Rua Marechal Deodoro", "amenity": "hospital", "healthcare": "hospital", "name": "UPA Uruguaiana", "addr:housenumber": "2160", "dispensing": null, "healthcare:speciality": null, "addr:suburb": "Tarrago", "ref:CNES": "9315292", "brand": null, "brand:wikidata": null, "website": "https://cnes.datasus.gov.br/pages/estabelecimentos/ficha/identificacao/4322409315292", "building": null }, "geometry": { "type": "Polygon", "coordinates": [ [ [ -57.0961479, -29.7608261 ], [ -57.0961408, -29.7609767 ], [ -57.0964275, -29.7609797 ], [ -57.0964204, -29.7610443 ], [ -57.0961408, -29.7610473 ], [ -57.0961196, -29.7611303 ], [ -57.0962894, -29.7611334 ], [ -57.0962859, -29.7611764 ], [ -57.0964098, -29.7611794 ], [ -57.0964133, -29.7611364 ], [ -57.0966151, -29.7611334 ], [ -57.0966221, -29.7611702 ], [ -57.0968309, -29.7611702 ], [ -57.0968239, -29.7608323 ], [ -57.0961479, -29.7608261 ] ] ] } },
{ "type": "Feature", "properties": { "element": "node", "id": 8818859054, "addr:city": null, "addr:postcode": null, "addr:street": null, "amenity": "clinic", "healthcare": "clinic", "name": "Firenze", "addr:housenumber": null, "dispensing": null, "healthcare:speciality": "dentist;physiotherapy", "addr:suburb": null, "ref:CNES": null, "brand": null, "brand:wikidata": null, "website": null, "building": null }, "geometry": { "type": "Point", "coordinates": [ -57.0850196, -29.7610045 ] } },
{ "type": "Feature", "properties": { "element": "node", "id": 9857062953, "addr:city": "Uruguaiana", "addr:postcode": "97501-591", "addr:street": "Rua Duque de Caxias", "amenity": "pharmacy", "healthcare": "pharmacy", "name": "Panvel", "addr:housenumber": "1625", "dispensing": "yes", "healthcare:speciality": null, "addr:suburb": "Centro", "ref:CNES": null, "brand": "Panvel", "brand:wikidata": "Q10344254", "website": null, "building": null }, "geometry": { "type": "Point", "coordinates": [ -57.0862459, -29.7539745 ] } }
]
}
