{
"type": "FeatureCollection",
"name": "unidades-saude-esf-ubs",
"crs": { "type": "name", "properties": { "name": "urn:ogc:def:crs:OGC:1.3:CRS84" } },
"features": [
{ "type": "Feature", "properties": { "cnes": "2247143", "nome": "ESF 01 RUI RAMOS", "classe": "ESF", "endereco": "RUA ARNALDO RIBEIRO, 1274, RUI RAMOS", "populacao2017": 7812.0, "populacao2023": 7935.0, "populacao2026": 5578.0 }, "geometry": { "type": "Point", "coordinates": [ -57.069312932739059, -29.776095779278393 ] } },
{ "type": "Feature", "properties": { "cnes": "2247119", "nome": "ESF 02 MARDUQUE", "classe": "ESF", "endereco": "RUA BORGES DE MEDEIROS, S/N, MASCARENHAS DE MORAE", "populacao2017": 4597.0, "populacao2023": 7985.0, "populacao2026": 1848.0 }, "geometry": { "type": "Point", "coordinates": [ -57.082476817226784, -29.745652074228431 ] } },
{ "type": "Feature", "properties": { "cnes": "2247100", "nome": "ESF 03 CIDADE NOVA", "classe": "ESF", "endereco": "ALCIDES TREIN, 01, TRAVESSA 02, CIDADE NOVA", "populacao2017": 4479.0, "populacao2023": 4379.0, "populacao2026": 3624.0 }, "geometry": { "type": "Point", "coordinates": [ -57.06255992135317, -29.763827402597347 ] } },
{ "type": "Feature", "properties": { "cnes": "2247135", "nome": "ESF 04 COHAB I", "classe": "ESF", "endereco": "RUA ALEXANDRE ZACHIA, S/N, JUNTO CENTRO COMUNIT, COHAB I", "populacao2017": 4735.0, "populacao2023": 5068.0, "populacao2026": 4150.0 }, "geometry": { "type": "Point", "coordinates": [ -57.090592962385045, -29.777189952918665 ] } },
{ "type": "Feature", "properties": { "cnes": "2247127", "nome": "ESF 05 TARRAGO", "classe": "ESF", "endereco": "RUA JULIO DE CASTILHOS, 1428, TARRAGO", "populacao2017": 3463.0, "populacao2023": 3749.0, "populacao2026": 2915.0 }, "geometry": { "type": "Point", "coordinates": [ -57.09942539255799, -29.761320524149646 ] } },
{ "type": "Feature", "properties": { "cnes": "2247232", "nome": "ESF 06 SAO JOAO", "classe": "ESF", "endereco": "RUA VENANCIO AIRES, 2618, SAO JOAO", "populacao2017": 8669.0, "populacao2023": 10202.0, "populacao2026": 6823.0 }, "geometry": { "type": "Point", "coordinates": [ -57.075256625210308, -29.76295063277891 ] } },
{ "type": "Feature", "properties": { "cnes": "6989357", "nome": "ESF 07 UNIAO DAS VILAS", "classe": "ESF", "endereco": "AVENIDA URUGUAI, S/N, UNIAO DAS VILAS", "populacao2017": 7778.0, "populacao2023": 6150.0, "populacao2026": 6193.0 }, "geometry": { "type": "Point", "coordinates": [ -57.060954120779996, -29.784606943324476 ] } },
{ "type": "Feature", "properties": { "cnes": "2247305", "nome": "ESF 09 BARRAGEM SANCHURI", "classe": "ESF", "endereco": "AV GABRIEL PACHECO, S/N, SANCHURI", "populacao2017": 1150.0, "populacao2023": 1505.0, "populacao2026": 1729.0 }, "geometry": { "type": "Point", "coordinates": [ -56.810049552843509, -29.543091915053161 ] } },
{ "type": "Feature", "properties": { "cnes": "2247240", "nome": "ESF 14TABAJARA BRITES", "classe": "ESF", "endereco": "UMBELINO FRANCISCO RAMOS, S/N, QDA 04", "populacao2017": 5769.0, "populacao2023": 5859.0, "populacao2026": 4228.0 }, "geometry": { "type": "Point", "coordinates": [ -57.103816718031837, -29.782471988095022 ] } },
{ "type": "Feature", "properties": { "cnes": "2247259", "nome": "ESF 15 HIPICA I E II", "classe": "ESF", "endereco": "BRAZ LIMONGE, 330, HIPICA I E II", "populacao2017": 5199.0, "populacao2023": 8046.0, "populacao2026": 6453.0 }, "geometry": { "type": "Point", "coordinates": [ -57.05392, -29.76101 ] } },
{ "type": "Feature", "properties": { "cnes": "2247267", "nome": "ESF 16 CIDADE ALEGRIA", "classe": "ESF", "endereco": "RUA ALCEU WAMOSY, S/N, CIDADE ALEGRIA", "populacao2017": 6547.0, "populacao2023": 4494.0, "populacao2026": 1592.0 }, "geometry": { "type": "Point", "coordinates": [ -57.066528145756443, -29.770749585332087 ] } },
{ "type": "Feature", "properties": { "cnes": "2247275", "nome": "ESF 17 NOVA ESPERANCA", "classe": "ESF", "endereco": "JOSE GARIBALDI, 1701, LOTES 13 E 14, NOVA ESPERANCA", "populacao2017": 7540.0, "populacao2023": 7134.0, "populacao2026": 5952.0 }, "geometry": { "type": "Point", "coordinates": [ -57.096321169741785, -29.769406769372676 ] } },
{ "type": "Feature", "properties": { "cnes": "3938336", "nome": "ESF 18 PROFILURB", "classe": "ESF", "endereco": "RUA PAINEIRAS, S/N, PROFILURB", "populacao2017": 5052.0, "populacao2023": 4820.0, "populacao2026": 4416.0 }, "geometry": { "type": "Point", "coordinates": [ -57.079363573062871, -29.781176467343261 ] } },
{ "type": "Feature", "properties": { "cnes": "7159366", "nome": "ESF 19 JOAO PAULO II", "classe": "ESF", "endereco": "LOTEAMENTO JOAO PAULO II, S/N, TABAJARA BRITES", "populacao2017": 3126.0, "populacao2023": 3126.0, "populacao2026": 2141.0 }, "geometry": { "type": "Point", "coordinates": [ -57.11056, -29.78392 ] } },
{ "type": "Feature", "properties": { "cnes": "6989373", "nome": "ESF 20 CAIC", "classe": "ESF", "endereco": "RUA VINTE E UM DE ABRIL, S/N, SAO CRISTOVAO", "populacao2017": 3908.0, "populacao2023": 3610.0, "populacao2026": 3061.0 }, "geometry": { "type": "Point", "coordinates": [ -57.063486518081184, -29.790900481918822 ] } },
{ "type": "Feature", "properties": { "cnes": "7762682", "nome": "ESF 21 CENTRO", "classe": "ESF", "endereco": "AVENIDA PRESIDENTE VARGAS, 2990, CENTRO", "populacao2017": 18533.0, "populacao2023": 15000.0, "populacao2026": 6710.0 }, "geometry": { "type": "Point", "coordinates": [ -57.08406164338227, -29.758586539742307 ] } },
{ "type": "Feature", "properties": { "cnes": "9203400", "nome": "ESF 22 CABO LUIS QUEVEDO", "classe": "ESF", "endereco": "RUA SALGADO FILHO, 1415, ESQ EMILIO TAUCEDA, CABO LUIS QUEVEDO", "populacao2017": 7997.0, "populacao2023": 6339.0, "populacao2026": 5895.0 }, "geometry": { "type": "Point", "coordinates": [ -57.101901394833938, -29.776503597785979 ] } },
{ "type": "Feature", "properties": { "cnes": "2896478", "nome": "ESF 23 SANTO ANTONIO", "classe": "ESF", "endereco": "BENTO GONCALVES, 2550, SANTO ANTONIO", "populacao2017": null, "populacao2023": 9474.0, "populacao2026": 4008.0 }, "geometry": { "type": "Point", "coordinates": [ -57.073978723247258, -29.753174932656741 ] } },
{ "type": "Feature", "properties": { "cnes": "2247321", "nome": "UNIDADE DE SAUDE SAO MARCOS 10", "classe": "UBS", "endereco": "RUA RICO SOARES, S/N, SAO MARCOS", "populacao2017": 450.0, "populacao2023": null, "populacao2026": 11.0 }, "geometry": { "type": "Point", "coordinates": [ -56.846495382699253, -29.51394788769192 ] } },
{ "type": "Feature", "properties": { "cnes": "2247348", "nome": "UNIDADE DE SAUDE JOAO ARREGUI 11", "classe": "UBS", "endereco": "JOAO ROSSI, S/N, JOAO ARREGUI", "populacao2017": 274.0, "populacao2023": null, "populacao2026": null }, "geometry": { "type": "Point", "coordinates": [ -56.68354039017342, -29.472548018256624 ] } },
{ "type": "Feature", "properties": { "cnes": "2247356", "nome": "UNIDADE DE SAUDE PLANO ALTO 12", "classe": "UBS", "endereco": "RUA 2, 268, PLANO ALTO", "populacao2017": 327.0, "populacao2023": null, "populacao2026": null }, "geometry": { "type": "Point", "coordinates": [ -56.521595472082048, -29.767291139554896 ] } },
{ "type": "Feature", "properties": { "cnes": "4126947", "nome": "EQUIPE DE SAUDE PRISIONAL DE URUGUAIANA", "classe": "sem classe", "endereco": "BR 472, 07, KM 07, INTERIOR", "populacao2017": null, "populacao2023": null, "populacao2026": null }, "geometry": { "type": "Point", "coordinates": [ -57.090543505535017, -29.849107607011074 ] } }
]
}
